{"address": "Bläsiring 10, 4057 Basel", "price": 2880, "property_id": 4002065802, "area": "115m²", "rooms": 4.5, "lat": 47.5683969, "lon": 7.5871397, "amenities": [{"id": 71525383, "name": "Buvette Dreirosen", "amenity": "pub", "lat": 47.5694909, "lon": 7.5863581, "radius": 500}, {"id": 71525563, "name": "Cloves", "amenity": "restaurant", "lat": 47.5692033, "lon": 7.5913551, "radius": 500}, {"id": 71525579, "name": "DejaVu", "amenity": "pub", "lat": 47.5694062, "lon": 7.5901309, "radius": 500}, {"id": 71525588, "name": "Pizzeria Breisacherhof", "amenity": "restaurant", "lat": 47.5698877, "lon": 7.5916214, "radius": 500}, {"id": 71525604, "name": "Eintracht", "amenity": "restaurant", "lat": 47.5675379, "lon": 7.5903738, "radius": 500}, {"id": 71525611, "name": "Gatto Nero", "amenity": "restaurant", "lat": 47.5677788, "lon": 7.5906834, "radius": 500}, {"id": 122336608, "name": "Delfin", "amenity": "restaurant", "lat": 47.5665578, "lon": 7.5917694, "radius": 500}, {"id": 254097107, "name": "Da Graziella", "amenity": "cafe", "lat": 47.5664559, "lon": 7.5928691, "radius": 500}, {"id": 585023412, "name": "Klybeck Apotheke", "amenity": "pharmacy", "lat": 47.5656841, "lon": 7.591063, "radius": 500}, {"id": 1028007577, "name": "Antik Café Bar", "amenity": "cafe", "lat": 47.5690588, "lon": 7.5902334, "radius": 500}, {"id": 1430898779, "name": "Bon Gout", "amenity": "restaurant", "lat": 47.566215, "lon": 7.5913795, "radius": 500}, {"id": 1430901108, "name": "Taste of Mykonos", "amenity": "restaurant", "lat": 47.5660236, "lon": 7.5909437, "radius": 500}, {"id": 1517612070, "name": "Bläsi Apotheke", "amenity": "pharmacy", "lat": 47.5674348, "lon": 7.5903846, "radius": 500}, {"id": 1518116717, "name": "n/a", "amenity": "parking", "lat": 47.566533, "lon": 7.5897838, "radius": 500}, {"id": 1518116722, "name": "n/a", "amenity": "parking", "lat": 47.5665619, "lon": 7.5899064, "radius": 500}, {"id": 1518116885, "name": "n/a", "amenity": "parking", "lat": 47.5670829, "lon": 7.5903386, "radius": 500}, {"id": 1518116928, "name": "n/a", "amenity": "parking", "lat": 47.5672126, "lon": 7.5899315, "radius": 500}, {"id": 1518116956, "name": "n/a", "amenity": "parking", "lat": 47.5673091, "lon": 7.5902186, "radius": 500}, {"id": 1520062898, "name": "Alpenblick", "amenity": "bar", "lat": 47.5659372, "lon": 7.5909695, "radius": 500}, {"id": 1529984092, "name": "RiiBistro", "amenity": "restaurant", "lat": 47.5705632, "lon": 7.5868666, "radius": 500}, {"id": 1592876743, "name": "Don Pincho", "amenity": "restaurant", "lat": 47.5645204, "lon": 7.5840604, "radius": 500}, {"id": 1667377095, "name": "St. Johann Apotheke", "amenity": "pharmacy", "lat": 47.5644741, "lon": 7.5838729, "radius": 500}, {"id": 2381403698, "name": "Café frühling", "amenity": "cafe", "lat": 47.5677589, "lon": 7.5903535, "radius": 500}, {"id": 2434421992, "name": "Kiosk", "amenity": "restaurant", "lat": 47.5713407, "lon": 7.5877225, "radius": 500}, {"id": 2971278569, "name": "n/a", "amenity": "atm", "lat": 47.568672, "lon": 7.5897794, "radius": 500}, {"id": 2984213160, "name": "Oetlinger-Buvette", "amenity": "bar", "lat": 47.5670666, "lon": 7.58652, "radius": 500}, {"id": 3207784886, "name": "GGG Stadtbibliothek Bläsi", "amenity": "library", "lat": 47.5687038, "lon": 7.591119, "radius": 500}, {"id": 3208777742, "name": "Lu", "amenity": "fast_food", "lat": 47.5662885, "lon": 7.5918563, "radius": 500}, {"id": 3751874033, "name": "Vegitat", "amenity": "fast_food", "lat": 47.5656938, "lon": 7.5913352, "radius": 500}, {"id": 3758773688, "name": "La Fourchette", "amenity": "restaurant", "lat": 47.5680679, "lon": 7.5905993, "radius": 500}, {"id": 3758796724, "name": "Gemeinsam Café", "amenity": "cafe", "lat": 47.5698858, "lon": 7.5910258, "radius": 500}, {"id": 3972102127, "name": "Friends Bar", "amenity": "bar", "lat": 47.5663064, "lon": 7.5907055, "radius": 500}, {"id": 4064658548, "name": "Valentino's Place", "amenity": "restaurant", "lat": 47.5658489, "lon": 7.590881, "radius": 500}, {"id": 4064660679, "name": "Didi Offensiv - Fussballkulturbar", "amenity": "bar", "lat": 47.5656871, "lon": 7.5893309, "radius": 500}, {"id": 4166045869, "name": "Internetcafé Planet13", "amenity": "cafe", "lat": 47.56559, "lon": 7.5913444, "radius": 500}, {"id": 4377355190, "name": "Sri Veda", "amenity": "restaurant", "lat": 47.564904, "lon": 7.5835395, "radius": 500}, {"id": 4665834588, "name": "Astro Fries", "amenity": "fast_food", "lat": 47.5664318, "lon": 7.5925697, "radius": 500}, {"id": 4974951772, "name": "Krishna", "amenity": "restaurant", "lat": 47.5681757, "lon": 7.580543, "radius": 500}, {"id": 5426983920, "name": "roots", "amenity": "restaurant", "lat": 47.56981, "lon": 7.5830455, "radius": 500}, {"id": 6780094234, "name": "n/a", "amenity": "atm", "lat": 47.5661075, "lon": 7.5909485, "radius": 500}, {"id": 6923434369, "name": "Zum Johann", "amenity": "bar", "lat": 47.5676265, "lon": 7.5807154, "radius": 500}, {"id": 7683239068, "name": "VITO Klybeck", "amenity": "restaurant", "lat": 47.5672076, "lon": 7.5908596, "radius": 500}, {"id": 7683254632, "name": "Fujin Sushi bar", "amenity": "restaurant", "lat": 47.567279, "lon": 7.5908338, "radius": 500}, {"id": 7747174184, "name": "Pizzeria Da Pia", "amenity": "restaurant", "lat": 47.5709099, "lon": 7.5920312, "radius": 500}, {"id": 7747207685, "name": "Drei Rosen", "amenity": "restaurant", "lat": 47.570532, "lon": 7.5905079, "radius": 500}, {"id": 7773338162, "name": "OFF", "amenity": "bar", "lat": 47.5693615, "lon": 7.5899974, "radius": 500}, {"id": 7778233544, "name": "BrauBudeBasel", "amenity": "bar", "lat": 47.567672, "lon": 7.5918704, "radius": 500}, {"id": 7784095496, "name": "Concordia", "amenity": "restaurant", "lat": 47.5655363, "lon": 7.5920557, "radius": 500}, {"id": 7784095498, "name": "Rouine", "amenity": "bar", "lat": 47.5666217, "lon": 7.5924914, "radius": 500}, {"id": 7809972322, "name": "Boo", "amenity": "restaurant", "lat": 47.5670345, "lon": 7.5909027, "radius": 500}, {"id": 7809972323, "name": "The Kebab Factory", "amenity": "fast_food", "lat": 47.5680175, "lon": 7.5903641, "radius": 500}, {"id": 7809972326, "name": "Savanna", "amenity": "restaurant", "lat": 47.5692168, "lon": 7.5912968, "radius": 500}, {"id": 7995309310, "name": "Pizza Picassso", "amenity": "restaurant", "lat": 47.5694979, "lon": 7.5901783, "radius": 500}, {"id": 8010710188, "name": "Chanthaburi", "amenity": "restaurant", "lat": 47.56648, "lon": 7.5916548, "radius": 500}, {"id": 8012279898, "name": "Sultan Saray", "amenity": "fast_food", "lat": 47.5664562, "lon": 7.5914046, "radius": 500}, {"id": 8012279900, "name": "VeggEast", "amenity": "fast_food", "lat": 47.565946, "lon": 7.5897567, "radius": 500}, {"id": 8806220782, "name": "Dreirosen Apotheke", "amenity": "pharmacy", "lat": 47.5689793, "lon": 7.5906307, "radius": 500}, {"id": 8909431468, "name": "Finkmüller", "amenity": "cafe", "lat": 47.5658557, "lon": 7.5912746, "radius": 500}, {"id": 9007960432, "name": "Pizza Maestro", "amenity": "fast_food", "lat": 47.5656888, "lon": 7.5878454, "radius": 500}, {"id": 9905309814, "name": "Choi Asian Garden", "amenity": "restaurant", "lat": 47.5658897, "lon": 7.5886535, "radius": 500}, {"id": 9932434117, "name": "The Siam Delicious", "amenity": "fast_food", "lat": 47.5662091, "lon": 7.5912098, "radius": 500}, {"id": 10031814189, "name": "Singh Indische Spezialitäten", "amenity": "restaurant", "lat": 47.5659985, "lon": 7.588767, "radius": 500}, {"id": 10031814202, "name": "Multi Kitchen Markthalle Feldberg", "amenity": "fast_food", "lat": 47.5656705, "lon": 7.5877496, "radius": 500}, {"id": 10031814204, "name": "Messo Burger", "amenity": "fast_food", "lat": 47.5656439, "lon": 7.5876608, "radius": 500}, {"id": 10606713507, "name": "Lu", "amenity": "fast_food", "lat": 47.5663068, "lon": 7.5918813, "radius": 500}, {"id": 10935222399, "name": "Johanniter", "amenity": "restaurant", "lat": 47.5687887, "lon": 7.5815176, "radius": 500}, {"id": 11876754508, "name": "daniska", "amenity": "cafe", "lat": 47.5654942, "lon": 7.5880503, "radius": 500}, {"id": 12000710869, "name": "Chanthabury", "amenity": "restaurant", "lat": 47.566474, "lon": 7.5916367, "radius": 500}, {"id": 12017251394, "name": "Saint Louis Buvette", "amenity": "restaurant", "lat": 47.5669332, "lon": 7.5831382, "radius": 500}, {"id": 12374357989, "name": "Värdex Crypto ATM", "amenity": "atm", "lat": 47.5661956, "lon": 7.5900746, "radius": 500}]}
{"address": "Erlenmattstr. 75, 4058 Basel", "price": 2880, "property_id": 4002039809, "area": "115m²", "rooms": 4.5, "lat": 47.5705088, "lon": 7.6031744, "amenities": [{"id": 529593919, "name": "Maulbeergrill", "amenity": "fast_food", "lat": 47.5676143, "lon": 7.6023449, "radius": 500}, {"id": 1668864832, "name": "Musical Bar", "amenity": "pub", "lat": 47.5690036, "lon": 7.5973736, "radius": 500}, {"id": 2800631394, "name": "Qbarana Lounge Bar", "amenity": "bar", "lat": 47.5687669, "lon": 7.6018111, "radius": 500}, {"id": 3207784678, "name": "Musical Grill", "amenity": "fast_food", "lat": 47.5687224, "lon": 7.597405, "radius": 500}, {"id": 3207784739, "name": "Rössli", "amenity": "restaurant", "lat": 47.5700863, "lon": 7.596641, "radius": 500}, {"id": 3207784771, "name": "Thai Café", "amenity": "restaurant", "lat": 47.5698504, "lon": 7.5973694, "radius": 500}, {"id": 3220396501, "name": "Carambolage", "amenity": "bar", "lat": 47.5683278, "lon": 7.6004231, "radius": 500}, {"id": 3220397133, "name": "Cafe 360", "amenity": "pub", "lat": 47.5676417, "lon": 7.6024174, "radius": 500}, {"id": 3220397149, "name": "CHiCKPEA", "amenity": "restaurant", "lat": 47.5673966, "lon": 7.6009155, "radius": 500}, {"id": 3224586205, "name": "The Chennai Kings", "amenity": "restaurant", "lat": 47.5682478, "lon": 7.6052881, "radius": 500}, {"id": 3224586250, "name": "Happy Wok", "amenity": "restaurant", "lat": 47.568157, "lon": 7.6054465, "radius": 500}, {"id": 3888881365, "name": "Le S", "amenity": "restaurant", "lat": 47.5690986, "lon": 7.5993385, "radius": 500}, {"id": 4110058268, "name": "Zytigs-stübli", "amenity": "cafe", "lat": 47.569695, "lon": 7.608954, "radius": 500}, {"id": 4611892646, "name": "BKB", "amenity": "atm", "lat": 47.5672735, "lon": 7.607176, "radius": 500}, {"id": 5261023566, "name": "feministische bibliothek @spit", "amenity": "library", "lat": 47.5684445, "lon": 7.6009464, "radius": 500}, {"id": 5550633691, "name": "Bar du Nord", "amenity": "bar", "lat": 47.568121, "lon": 7.6065499, "radius": 500}, {"id": 6239202286, "name": "Magical Cafe", "amenity": "cafe", "lat": 47.5699745, "lon": 7.5993614, "radius": 500}, {"id": 6927157603, "name": "Coop Vitality", "amenity": "pharmacy", "lat": 47.5697544, "lon": 7.6036227, "radius": 500}, {"id": 7003029881, "name": "Casa Piccola Italia", "amenity": "restaurant", "lat": 47.570009, "lon": 7.5974416, "radius": 500}, {"id": 7206798585, "name": "Finkmüller Erlenmatt Ost", "amenity": "cafe", "lat": 47.5720995, "lon": 7.6014317, "radius": 500}, {"id": 7762245664, "name": "SILO soulfood.", "amenity": "restaurant", "lat": 47.5720403, "lon": 7.6020549, "radius": 500}, {"id": 7778233543, "name": "Matt & Elly Brewery & Kitchen", "amenity": "restaurant", "lat": 47.56969, "lon": 7.6034296, "radius": 500}, {"id": 8125259187, "name": "Quartiertreffpunkt Gleis 58", "amenity": "restaurant", "lat": 47.5721088, "lon": 7.6001771, "radius": 500}, {"id": 8126685107, "name": "Primarschulhaus Erlenmatt", "amenity": "school", "lat": 47.5689989, "lon": 7.6004078, "radius": 500}, {"id": 10140233773, "name": "ROBA BUONA", "amenity": "restaurant", "lat": 47.5719494, "lon": 7.6016523, "radius": 500}, {"id": 10606351035, "name": "DB Gastronomie Betriebsrestaurant", "amenity": "restaurant", "lat": 47.5683186, "lon": 7.6061343, "radius": 500}, {"id": 10607908166, "name": "Angolo Italiano", "amenity": "restaurant", "lat": 47.5670069, "lon": 7.6009293, "radius": 500}, {"id": 10608357008, "name": "Kitchen 41", "amenity": "restaurant", "lat": 47.5674377, "lon": 7.6017047, "radius": 500}, {"id": 12361595965, "name": "Universitätsbibliothek Rosental", "amenity": "library", "lat": 47.5669624, "lon": 7.601665, "radius": 500}]}
{"address": "Käferholzstrasse 60, 8057 Zürich", "price": 2880, "property_id": 4001947102, "area": "115m²", "rooms": 4.5, "lat": 47.402542600000004, "lon": 8.532090116551142, "amenities": [{"id": 480352081, "name": "Fallender Brunnenhof", "amenity": "restaurant", "lat": 47.402817, "lon": 8.5355605, "radius": 500}, {"id": 1592426153, "name": "Barcelona Restaurant", "amenity": "restaurant", "lat": 47.4020484, "lon": 8.5353195, "radius": 500}, {"id": 2479519173, "name": "Wehntal-Apotheke", "amenity": "pharmacy", "lat": 47.402496, "lon": 8.5358866, "radius": 500}, {"id": 2514418477, "name": "Jeunesse", "amenity": "restaurant", "lat": 47.4041372, "lon": 8.5342275, "radius": 500}, {"id": 3270483667, "name": "n/a", "amenity": "parking", "lat": 47.4067755, "lon": 8.532556, "radius": 500}, {"id": 3778147856, "name": "n/a", "amenity": "parking", "lat": 47.4005916, "lon": 8.5322197, "radius": 500}, {"id": 4960082364, "name": "Cafeteria GZ Buchegg", "amenity": "cafe", "lat": 47.3989435, "lon": 8.5348343, "radius": 500}]}
{"address": "Fahrnstrasse 25, 9402 Mörschwil", "price": 2880, "property_id": 4002080979, "area": "115m²", "rooms": 4.5, "lat": 47.4639669, "lon": 9.432168388679248, "amenities": [{"id": 12211342033, "name": "n/a", "amenity": "parking", "lat": 47.4628197, "lon": 9.4336961, "radius": 500}]}
{"address": "Herrenhof 868, 9240 Niederglatt", "price": 2880, "property_id": 4002077676, "area": "115m²", "rooms": 4.5, "lat": 47.4240752, "lon": 9.1598683, "amenities": []}
{"address": "Muttenzerstrasse 129, 4127 Birsfelden", "price": 2880, "property_id": 4002059199, "area": "115m²", "rooms": 4.5, "lat": 47.5447189, "lon": 7.62688715, "amenities": [{"id": 1784555588, "name": "Restaurant Hard", "amenity": "restaurant", "lat": 47.5482225, "lon": 7.6299077, "radius": 500}, {"id": 1784566899, "name": "n/a", "amenity": "parking", "lat": 47.5476067, "lon": 7.6293905, "radius": 500}, {"id": 1784585430, "name": "n/a", "amenity": "parking", "lat": 47.5473354, "lon": 7.6280863, "radius": 500}, {"id": 1784587096, "name": "n/a", "amenity": "parking", "lat": 47.5471531, "lon": 7.629569, "radius": 500}, {"id": 1784604154, "name": "n/a", "amenity": "parking", "lat": 47.5470183, "lon": 7.6268063, "radius": 500}, {"id": 9562305189, "name": "cafe flora mangia e bevi", "amenity": "restaurant", "lat": 47.5478024, "lon": 7.6267679, "radius": 500}]}
{"address": "Volkmarstrasse 15, 8006 Zürich", "price": 2880, "property_id": 4002058756, "area": "115m²", "rooms": 4.5, "lat": 47.38532765, "lon": 8.543725200223658, "amenities": [{"id": 105506327, "name": "Zum Alten Löwen", "amenity": "restaurant", "lat": 47.3849796, "lon": 8.5482469, "radius": 500}, {"id": 365838427, "name": "Pizzeria Corallo", "amenity": "restaurant", "lat": 47.3865398, "lon": 8.5414596, "radius": 500}, {"id": 365838929, "name": "Kreis 6", "amenity": "restaurant", "lat": 47.3861132, "lon": 8.5452851, "radius": 500}, {"id": 365892432, "name": "Chuchi am Wasser", "amenity": "restaurant", "lat": 47.3830272, "lon": 8.5396636, "radius": 500}, {"id": 504487282, "name": "The Lemon Grass", "amenity": "fast_food", "lat": 47.3857427, "lon": 8.539683, "radius": 500}, {"id": 552929127, "name": "Drei Stuben", "amenity": "restaurant", "lat": 47.3832538, "lon": 8.5416447, "radius": 500}, {"id": 552932425, "name": "Pizzeria Veneziana", "amenity": "restaurant", "lat": 47.383118, "lon": 8.5413332, "radius": 500}, {"id": 792593930, "name": "Sorell Rex", "amenity": "cafe", "lat": 47.3847859, "lon": 8.5431484, "radius": 500}, {"id": 891896164, "name": "Rigi Apotheke und Drogerie", "amenity": "pharmacy", "lat": 47.3857176, "lon": 8.5487292, "radius": 500}, {"id": 943868646, "name": "Biotheke", "amenity": "pharmacy", "lat": 47.3836588, "lon": 8.5484321, "radius": 500}, {"id": 943875479, "name": "Hausammann", "amenity": "cafe", "lat": 47.3832878, "lon": 8.548393, "radius": 500}, {"id": 1357158514, "name": "Habib Bank", "amenity": "bank", "lat": 47.3817572, "lon": 8.5435756, "radius": 500}, {"id": 2121176772, "name": "Kafi Seilbahn Rigiblick", "amenity": "cafe", "lat": 47.3853864, "lon": 8.5482515, "radius": 500}, {"id": 2140368560, "name": "Stapferstube da Rizzo", "amenity": "restaurant", "lat": 47.3821725, "lon": 8.5474623, "radius": 500}, {"id": 2452626421, "name": "Fux und Haas", "amenity": "fast_food", "lat": 47.3857229, "lon": 8.5395166, "radius": 500}, {"id": 2509647639, "name": "Janni Pizza Kurier", "amenity": "fast_food", "lat": 47.3866392, "lon": 8.539917, "radius": 500}, {"id": 2746139382, "name": "Mama's Beck", "amenity": "restaurant", "lat": 47.3885695, "lon": 8.539287, "radius": 500}, {"id": 2888172595, "name": "Santa Lucia Subito", "amenity": "restaurant", "lat": 47.3815179, "lon": 8.5422215, "radius": 500}, {"id": 2888173290, "name": "Take Easy Thai Food", "amenity": "fast_food", "lat": 47.3811314, "lon": 8.542114, "radius": 500}, {"id": 2904973400, "name": "Zam Dapor", "amenity": "restaurant", "lat": 47.3857107, "lon": 8.5420014, "radius": 500}, {"id": 3357441576, "name": "African Queen", "amenity": "restaurant", "lat": 47.3816229, "lon": 8.5421505, "radius": 500}, {"id": 3381293318, "name": "SimSim", "amenity": "restaurant", "lat": 47.3878521, "lon": 8.5392302, "radius": 500}, {"id": 4891858476, "name": "Mensa Institut Minerva", "amenity": "restaurant", "lat": 47.3819656, "lon": 8.5455532, "radius": 500}, {"id": 4963589219, "name": "Klara‘s Kitchen", "amenity": "cafe", "lat": 47.3827596, "lon": 8.5437443, "radius": 500}, {"id": 5938746755, "name": "Curry Corner", "amenity": "fast_food", "lat": 47.3833287, "lon": 8.541864, "radius": 500}, {"id": 6070128841, "name": "Parkhaus Stampfenbach", "amenity": "parking", "lat": 47.3864863, "lon": 8.5390689, "radius": 500}, {"id": 6207463870, "name": "Bibliothek des Schweizerischen Instituts für Kinder- und Jugendmedien SIKJM", "amenity": "library", "lat": 47.3845291, "lon": 8.5397558, "radius": 500}, {"id": 7055101045, "name": "Anoah", "amenity": "restaurant", "lat": 47.3848545, "lon": 8.5485426, "radius": 500}, {"id": 9642595626, "name": "Stiftung m.a.c. – Sonderpädagogische Schule", "amenity": "school", "lat": 47.3854719, "lon": 8.5419658, "radius": 500}, {"id": 9682468631, "name": "Dayschool Beckenhof", "amenity": "school", "lat": 47.3834916, "lon": 8.5413134, "radius": 500}, {"id": 9697845464, "name": "Schule Minerva Zürich", "amenity": "school", "lat": 47.3818918, "lon": 8.5455529, "radius": 500}, {"id": 9717546279, "name": "Neue Schule Zürich", "amenity": "school", "lat": 47.3835082, "lon": 8.5475639, "radius": 500}, {"id": 9719866404, "name": "Schule Talenta Zürich", "amenity": "school", "lat": 47.3858578, "lon": 8.5418353, "radius": 500}, {"id": 9726635896, "name": "Sekundarschule am Rigiplatz", "amenity": "school", "lat": 47.3858674, "lon": 8.5463793, "radius": 500}, {"id": 10949082348, "name": "differente", "amenity": "restaurant", "lat": 47.3881157, "lon": 8.5390656, "radius": 500}, {"id": 10995816516, "name": "Mesa Madrid", "amenity": "restaurant", "lat": 47.3833749, "lon": 8.5431961, "radius": 500}, {"id": 11227223686, "name": "Bistro Pinto Take Away", "amenity": "restaurant", "lat": 47.3872577, "lon": 8.540021, "radius": 500}, {"id": 11673717382, "name": "Bimbi's Take Away", "amenity": "restaurant", "lat": 47.3825112, "lon": 8.5414846, "radius": 500}, {"id": 11778835755, "name": "Burger Boutique", "amenity": "fast_food", "lat": 47.3841513, "lon": 8.5481184, "radius": 500}, {"id": 12090984377, "name": "Edi", "amenity": "restaurant", "lat": 47.3886532, "lon": 8.5392721, "radius": 500}, {"id": 12117995033, "name": "Lernstudio", "amenity": "school", "lat": 47.3819111, "lon": 8.5456909, "radius": 500}]}
{"address": "Niklaus Konrad-Strasse 4, 4500 Solothurn", "price": 2880, "property_id": 4002053936, "area": "115m²", "rooms": 4.5, "lat": 47.204513902108786, "lon": 7.539104019684887, "amenities": [{"id": 292225874, "name": "UBS", "amenity": "atm", "lat": 47.2048431, "lon": 7.5407604, "radius": 500}, {"id": 301668363, "name": "Efem Imbiss & Café", "amenity": "fast_food", "lat": 47.2046306, "lon": 7.5405994, "radius": 500}, {"id": 301764729, "name": "Vorstadt Bistro", "amenity": "cafe", "lat": 47.2048838, "lon": 7.5408996, "radius": 500}, {"id": 301764730, "name": "Medbase Apotheke Solothurn", "amenity": "pharmacy", "lat": 47.2051064, "lon": 7.5405056, "radius": 500}, {"id": 302828546, "name": "Caffè Spettacolo", "amenity": "cafe", "lat": 47.2042463, "lon": 7.54277, "radius": 500}, {"id": 302828561, "name": "Suteria", "amenity": "cafe", "lat": 47.2081063, "lon": 7.5381924, "radius": 500}, {"id": 302828563, "name": "TopPharm Hirsch Apotheke", "amenity": "pharmacy", "lat": 47.207909, "lon": 7.5374217, "radius": 500}, {"id": 302828572, "name": "Kaffehalle", "amenity": "cafe", "lat": 47.2081276, "lon": 7.5355274, "radius": 500}, {"id": 415415009, "name": "Roter Turm", "amenity": "restaurant", "lat": 47.2074597, "lon": 7.5368962, "radius": 500}, {"id": 830588129, "name": "Akropolis", "amenity": "restaurant", "lat": 47.2048882, "lon": 7.5389356, "radius": 500}, {"id": 833710708, "name": "Die Grüne Fee", "amenity": "bar", "lat": 47.2074594, "lon": 7.5387601, "radius": 500}, {"id": 939041589, "name": "Solo Imbiss", "amenity": "fast_food", "lat": 47.2048779, "lon": 7.5368448, "radius": 500}, {"id": 939041596, "name": "Trattoria Napoli", "amenity": "restaurant", "lat": 47.2045375, "lon": 7.5362046, "radius": 500}, {"id": 939041599, "name": "Notausgang", "amenity": "restaurant", "lat": 47.2044483, "lon": 7.5363896, "radius": 500}, {"id": 939041612, "name": "The Dock", "amenity": "bar", "lat": 47.2051717, "lon": 7.5361348, "radius": 500}, {"id": 939041616, "name": "Adler", "amenity": "restaurant", "lat": 47.2047763, "lon": 7.5361643, "radius": 500}, {"id": 939041620, "name": "Altes Spital", "amenity": "restaurant", "lat": 47.2048314, "lon": 7.5354098, "radius": 500}, {"id": 939041621, "name": "Sonne", "amenity": "restaurant", "lat": 47.2047854, "lon": 7.5363896, "radius": 500}, {"id": 939041623, "name": "Vini-Al Grappolo", "amenity": "restaurant", "lat": 47.2049778, "lon": 7.5368094, "radius": 500}, {"id": 939041634, "name": "Steinbock", "amenity": "pub", "lat": 47.2046387, "lon": 7.5379426, "radius": 500}, {"id": 939041645, "name": "Fragale", "amenity": "restaurant", "lat": 47.2046861, "lon": 7.5375537, "radius": 500}, {"id": 939041649, "name": "Fu-Lin", "amenity": "restaurant", "lat": 47.2037603, "lon": 7.5390531, "radius": 500}, {"id": 939048277, "name": "Fryhof Bistro", "amenity": "pub", "lat": 47.2072632, "lon": 7.5350978, "radius": 500}, {"id": 939048278, "name": "Du Commerce", "amenity": "restaurant", "lat": 47.2070915, "lon": 7.5352809, "radius": 500}, {"id": 939048279, "name": "Locanda", "amenity": "restaurant", "lat": 47.2073702, "lon": 7.5359649, "radius": 500}, {"id": 939048282, "name": "Zum Türk", "amenity": "bar", "lat": 47.2071206, "lon": 7.5367883, "radius": 500}, {"id": 939048283, "name": "19th Alley", "amenity": "pub", "lat": 47.2072427, "lon": 7.5385103, "radius": 500}, {"id": 939048288, "name": "Zur Grünen Ecke", "amenity": "restaurant", "lat": 47.2064017, "lon": 7.5358999, "radius": 500}, {"id": 939048289, "name": "Wengihaus", "amenity": "restaurant", "lat": 47.206512, "lon": 7.5358683, "radius": 500}, {"id": 939048290, "name": "Löwen", "amenity": "restaurant", "lat": 47.2069183, "lon": 7.5370136, "radius": 500}, {"id": 939048292, "name": "Babylon", "amenity": "fast_food", "lat": 47.2072718, "lon": 7.5368205, "radius": 500}, {"id": 939048293, "name": "Trattoria Pizzeria da Daniele", "amenity": "restaurant", "lat": 47.2073374, "lon": 7.5374508, "radius": 500}, {"id": 939048297, "name": "Zum Stephan", "amenity": "restaurant", "lat": 47.207188, "lon": 7.5355626, "radius": 500}, {"id": 939048298, "name": "Zunfthaus zu Wirthen", "amenity": "restaurant", "lat": 47.2075725, "lon": 7.5366033, "radius": 500}, {"id": 939048299, "name": "Brasserie Federale", "amenity": "restaurant", "lat": 47.2077, "lon": 7.5367052, "radius": 500}, {"id": 1305573211, "name": "McDonald's", "amenity": "fast_food", "lat": 47.2040461, "lon": 7.5415408, "radius": 500}, {"id": 1305574961, "name": "Thai Sunshine", "amenity": "restaurant", "lat": 47.2047013, "lon": 7.5364428, "radius": 500}, {"id": 1348493919, "name": "Salzhaus", "amenity": "restaurant", "lat": 47.206414, "lon": 7.536623, "radius": 500}, {"id": 1348523756, "name": "Kreuz", "amenity": "restaurant", "lat": 47.2067438, "lon": 7.5376825, "radius": 500}, {"id": 1348523758, "name": "Steiner", "amenity": "cafe", "lat": 47.2049949, "lon": 7.5407086, "radius": 500}, {"id": 1348543899, "name": "Confiserie Hofer", "amenity": "cafe", "lat": 47.2065141, "lon": 7.5351797, "radius": 500}, {"id": 1348543900, "name": "Migros Restaurant", "amenity": "restaurant", "lat": 47.2066385, "lon": 7.5334304, "radius": 500}, {"id": 1360363823, "name": "Pittaria", "amenity": "fast_food", "lat": 47.2069204, "lon": 7.5379211, "radius": 500}, {"id": 1445700155, "name": "n/a", "amenity": "parking", "lat": 47.2037855, "lon": 7.5398567, "radius": 500}, {"id": 1612175339, "name": "Solheure", "amenity": "pub", "lat": 47.2070877, "lon": 7.5399342, "radius": 500}, {"id": 1711878551, "name": "Kaufmännische Berufsschule", "amenity": "school", "lat": 47.2049253, "lon": 7.5382655, "radius": 500}, {"id": 1711923340, "name": "Jägerstübli", "amenity": "restaurant", "lat": 47.2063927, "lon": 7.5354338, "radius": 500}, {"id": 1711923342, "name": "NEST", "amenity": "cafe", "lat": 47.206079, "lon": 7.5356996, "radius": 500}, {"id": 1711923360, "name": "Gallo Nero", "amenity": "restaurant", "lat": 47.2078324, "lon": 7.5365875, "radius": 500}, {"id": 1711992336, "name": "Red John", "amenity": "pub", "lat": 47.2061179, "lon": 7.5358558, "radius": 500}, {"id": 1711992359, "name": "Chutz", "amenity": "pub", "lat": 47.2061376, "lon": 7.5359472, "radius": 500}, {"id": 1711992362, "name": "Cantina del Vino", "amenity": "bar", "lat": 47.2063339, "lon": 7.5365682, "radius": 500}, {"id": 1713911589, "name": "Tavola Calda", "amenity": "fast_food", "lat": 47.2051584, "lon": 7.5409779, "radius": 500}, {"id": 1713911594, "name": "Mediterane Leckereien", "amenity": "restaurant", "lat": 47.2064866, "lon": 7.5368386, "radius": 500}, {"id": 1713911600, "name": "gassbar", "amenity": "bar", "lat": 47.2069995, "lon": 7.5371538, "radius": 500}, {"id": 1715927529, "name": "Cantinetta Bindella", "amenity": "restaurant", "lat": 47.2073052, "lon": 7.5397437, "radius": 500}, {"id": 1715927538, "name": "Amun Take-Away", "amenity": "fast_food", "lat": 47.2049508, "lon": 7.540494, "radius": 500}, {"id": 1831316797, "name": "Il Ponte del Sole", "amenity": "restaurant", "lat": 47.2049206, "lon": 7.5360605, "radius": 500}, {"id": 1832954732, "name": "Berner Kantonalbank", "amenity": "bank", "lat": 47.2080958, "lon": 7.5356377, "radius": 500}, {"id": 2009081375, "name": "Raiffeisenbank Weissenstein", "amenity": "bank", "lat": 47.2082195, "lon": 7.5383002, "radius": 500}, {"id": 2011278142, "name": "Barock Cafe", "amenity": "cafe", "lat": 47.2061416, "lon": 7.5361578, "radius": 500}, {"id": 2336933387, "name": "Manora", "amenity": "restaurant", "lat": 47.2084144, "lon": 7.536277, "radius": 500}, {"id": 2405737636, "name": "Postfinance", "amenity": "atm", "lat": 47.2079031, "lon": 7.5388512, "radius": 500}, {"id": 2411862641, "name": "Hofer", "amenity": "cafe", "lat": 47.2080686, "lon": 7.5361749, "radius": 500}, {"id": 2670017043, "name": "Hafebar", "amenity": "bar", "lat": 47.2056468, "lon": 7.5384611, "radius": 500}, {"id": 3077030019, "name": "Subway", "amenity": "fast_food", "lat": 47.2041251, "lon": 7.5416014, "radius": 500}, {"id": 3294202313, "name": "Flora mini Beiz", "amenity": "restaurant", "lat": 47.2085584, "lon": 7.5364103, "radius": 500}, {"id": 3294299951, "name": "Salento 11", "amenity": "restaurant", "lat": 47.206692, "lon": 7.5340197, "radius": 500}, {"id": 3294299952, "name": "Sabsin's", "amenity": "fast_food", "lat": 47.206816, "lon": 7.5338192, "radius": 500}, {"id": 3466147499, "name": "Migros Bank", "amenity": "bank", "lat": 47.2078919, "lon": 7.5372432, "radius": 500}, {"id": 3466147503, "name": "lerns - Die Tagesschule", "amenity": "school", "lat": 47.2079556, "lon": 7.5374102, "radius": 500}, {"id": 3473937432, "name": "McCafé", "amenity": "cafe", "lat": 47.2040292, "lon": 7.5416204, "radius": 500}, {"id": 3519879172, "name": "n/a", "amenity": "atm", "lat": 47.2081971, "lon": 7.5383554, "radius": 500}, {"id": 3585446195, "name": "U-Boot Stadtgrill", "amenity": "fast_food", "lat": 47.2083257, "lon": 7.5367629, "radius": 500}, {"id": 3699461285, "name": "Pasha food", "amenity": "fast_food", "lat": 47.2084523, "lon": 7.5369045, "radius": 500}, {"id": 3999473250, "name": "Chocola", "amenity": "cafe", "lat": 47.2070269, "lon": 7.5369052, "radius": 500}, {"id": 3999541458, "name": "Thung Thong", "amenity": "restaurant", "lat": 47.2047057, "lon": 7.537415, "radius": 500}, {"id": 4124143098, "name": "così Ristorante & Pizzeria", "amenity": "restaurant", "lat": 47.2047969, "lon": 7.5370633, "radius": 500}, {"id": 4147259808, "name": "eifach", "amenity": "bar", "lat": 47.2071524, "lon": 7.5354488, "radius": 500}, {"id": 4147259816, "name": "Mega Imbiss", "amenity": "fast_food", "lat": 47.2075071, "lon": 7.5387218, "radius": 500}, {"id": 4147259821, "name": "n/a", "amenity": "atm", "lat": 47.2072691, "lon": 7.5364477, "radius": 500}, {"id": 4147259823, "name": "Stadtcafé", "amenity": "cafe", "lat": 47.2078832, "lon": 7.5371486, "radius": 500}, {"id": 4161285894, "name": "Aarebar", "amenity": "restaurant", "lat": 47.2064496, "lon": 7.536719, "radius": 500}, {"id": 4161741461, "name": "Restaurant Thai Shop", "amenity": "restaurant", "lat": 47.2046512, "lon": 7.5355642, "radius": 500}, {"id": 4248118390, "name": "The Shipyard's", "amenity": "pub", "lat": 47.2068945, "lon": 7.5375565, "radius": 500}, {"id": 4266767138, "name": "Zum Chregu", "amenity": "restaurant", "lat": 47.2048129, "lon": 7.5358067, "radius": 500}, {"id": 4266767142, "name": "Stalden", "amenity": "restaurant", "lat": 47.2067493, "lon": 7.535054, "radius": 500}, {"id": 4266767477, "name": "Gelateria Italia", "amenity": "cafe", "lat": 47.2063547, "lon": 7.5334649, "radius": 500}, {"id": 4266842689, "name": "Café Bar Landhaus", "amenity": "cafe", "lat": 47.2061982, "lon": 7.5363223, "radius": 500}, {"id": 4266842690, "name": "Il Bar", "amenity": "cafe", "lat": 47.2062499, "lon": 7.536452, "radius": 500}, {"id": 4273064056, "name": "H4", "amenity": "restaurant", "lat": 47.2058565, "lon": 7.5416093, "radius": 500}, {"id": 4318161034, "name": "Stadtrösterei", "amenity": "cafe", "lat": 47.2049559, "lon": 7.5414198, "radius": 500}, {"id": 4322755552, "name": "Nonna Rosetta", "amenity": "restaurant", "lat": 47.2044825, "lon": 7.535911, "radius": 500}, {"id": 4987092811, "name": "La Couronne", "amenity": "restaurant", "lat": 47.2078934, "lon": 7.5385137, "radius": 500}, {"id": 5536034940, "name": "Baseltor", "amenity": "restaurant", "lat": 47.2086202, "lon": 7.5393286, "radius": 500}, {"id": 5536087902, "name": "Apple's", "amenity": "fast_food", "lat": 47.2083132, "lon": 7.536903, "radius": 500}, {"id": 5536114601, "name": "Lüthy Buchcafé", "amenity": "cafe", "lat": 47.2079602, "lon": 7.535633, "radius": 500}, {"id": 5629903675, "name": "Fryhof Lounge", "amenity": "bar", "lat": 47.2072973, "lon": 7.5351117, "radius": 500}, {"id": 5785960651, "name": "n/a", "amenity": "atm", "lat": 47.2042566, "lon": 7.5387939, "radius": 500}, {"id": 5786694127, "name": "Argileh", "amenity": "bar", "lat": 47.2046631, "lon": 7.5376706, "radius": 500}, {"id": 5786802178, "name": "Credit Suisse", "amenity": "bank", "lat": 47.2064849, "lon": 7.5344414, "radius": 500}, {"id": 6343197763, "name": "Bibliomedia", "amenity": "library", "lat": 47.2081517, "lon": 7.5422953, "radius": 500}, {"id": 7298442702, "name": "n/a", "amenity": "atm", "lat": 47.2042644, "lon": 7.5422564, "radius": 500}, {"id": 7796754765, "name": "Flamme", "amenity": "fast_food", "lat": 47.2069028, "lon": 7.5372538, "radius": 500}, {"id": 8237483378, "name": "Santas Oase", "amenity": "bar", "lat": 47.2061414, "lon": 7.5354487, "radius": 500}, {"id": 8599900790, "name": "Happy End", "amenity": "bar", "lat": 47.2067574, "lon": 7.5339137, "radius": 500}, {"id": 9379748446, "name": "Panini Bar", "amenity": "fast_food", "lat": 47.2063648, "lon": 7.5352939, "radius": 500}, {"id": 9526797654, "name": "n/a", "amenity": "fast_food", "lat": 47.2045897, "lon": 7.541447, "radius": 500}, {"id": 9775359202, "name": "Weinstüberl & Weinverkauf", "amenity": "bar", "lat": 47.2053474, "lon": 7.5367652, "radius": 500}, {"id": 10100509940, "name": "Oskar & Luise", "amenity": "restaurant", "lat": 47.2072569, "lon": 7.5357748, "radius": 500}, {"id": 10795036094, "name": "Taverna Amphorea", "amenity": "restaurant", "lat": 47.2069614, "lon": 7.5349993, "radius": 500}, {"id": 10893067316, "name": "Pfefferkorn", "amenity": "restaurant", "lat": 47.208274, "lon": 7.5378613, "radius": 500}, {"id": 10961908105, "name": "n/a", "amenity": "fast_food", "lat": 47.2083162, "lon": 7.5369151, "radius": 500}, {"id": 11077590002, "name": "Albert Brötlibar", "amenity": "fast_food", "lat": 47.2067841, "lon": 7.5372086, "radius": 500}, {"id": 11844909931, "name": "Memo", "amenity": "fast_food", "lat": 47.2032608, "lon": 7.543415, "radius": 500}, {"id": 12112631558, "name": "Solo Fresh & fast Crispy Chicken", "amenity": "restaurant", "lat": 47.2041652, "lon": 7.5388339, "radius": 500}, {"id": 12613405657, "name": "Le Restaurant", "amenity": "restaurant", "lat": 47.2079783, "lon": 7.5385136, "radius": 500}]}
{"address": "Hölzliweg 9, 8405 Winterthur", "price": 2880, "property_id": 4002014835, "area": "115m²", "rooms": 4.5, "lat": 47.4859972, "lon": 8.77093975, "amenities": [{"id": 7817745786, "name": "Zentrum Eule", "amenity": "school", "lat": 47.4870042, "lon": 8.7647046, "radius": 500}, {"id": 12546601315, "name": "Post Apotheke", "amenity": "pharmacy", "lat": 47.4854996, "lon": 8.764709, "radius": 500}]}
{"address": "Weidmannstrasse 13, 8046 Zürich", "price": 2880, "property_id": 4001972648, "area": "115m²", "rooms": 4.5, "lat": 47.42325975, "lon": 8.502611041329322, "amenities": [{"id": 315314715, "name": "My Kebab", "amenity": "fast_food", "lat": 47.4210295, "lon": 8.501703, "radius": 500}, {"id": 1102461658, "name": "Einkaufscenter ZH Affoltern", "amenity": "parking", "lat": 47.4206623, "lon": 8.5080402, "radius": 500}, {"id": 1975523704, "name": "Wirtschaft Unterdorf", "amenity": "restaurant", "lat": 47.4262082, "lon": 8.5054134, "radius": 500}, {"id": 2133810173, "name": "KuBaA", "amenity": "bar", "lat": 47.4215582, "lon": 8.5058913, "radius": 500}, {"id": 3725379463, "name": "Pizzeria Piazza", "amenity": "restaurant", "lat": 47.4194454, "lon": 8.5060346, "radius": 500}, {"id": 3725780317, "name": "Zähnte Kafi", "amenity": "cafe", "lat": 47.4197973, "lon": 8.5067754, "radius": 500}, {"id": 3782913102, "name": "n/a", "amenity": "parking", "lat": 47.420667, "lon": 8.5075365, "radius": 500}, {"id": 5377673114, "name": "Cinnamon Garden", "amenity": "restaurant", "lat": 47.4192953, "lon": 8.5052369, "radius": 500}, {"id": 5377673115, "name": "Bancomat ZKB", "amenity": "atm", "lat": 47.4197363, "lon": 8.5050552, "radius": 500}, {"id": 10121414282, "name": "Up2You", "amenity": "fast_food", "lat": 47.419599, "lon": 8.5057955, "radius": 500}, {"id": 11523655559, "name": "Da Bella Italia", "amenity": "restaurant", "lat": 47.4232082, "lon": 8.4994145, "radius": 500}, {"id": 12059128556, "name": "Serendipity Viet Food", "amenity": "restaurant", "lat": 47.4231318, "lon": 8.499721, "radius": 500}, {"id": 12146405973, "name": "Cho Cho Momo", "amenity": "restaurant", "lat": 47.4215944, "lon": 8.501763, "radius": 500}]}
{"address": "Bavurtga 9 (Altbau), 7402 Bonaduz", "price": 2880, "property_id": 4001756784, "area": "115m²", "rooms": 4.5, "lat": null, "lon": null, "amenities": []}
{"address": "Ahornweg 23, 2542 Pieterlen", "price": 2880, "property_id": 4001669568, "area": "115m²", "rooms": 4.5, "lat": 47.17285930609854, "lon": 7.338240061537902, "amenities": [{"id": 2232534921, "name": "La Perla", "amenity": "restaurant", "lat": 47.1746758, "lon": 7.336839, "radius": 500}, {"id": 2232538072, "name": "Ascot Pub", "amenity": "pub", "lat": 47.1752263, "lon": 7.3382981, "radius": 500}, {"id": 8825552294, "name": "n/a", "amenity": "atm", "lat": 47.1746141, "lon": 7.3368858, "radius": 500}]}
{"address": "Via Sasso Corbaro 23, 6593 Cadenazzo", "price": 2880, "property_id": 4001668530, "area": "115m²", "rooms": 4.5, "lat": 46.15130057952928, "lon": 8.944419531213565, "amenities": [{"id": 351962380, "name": "Ristorante Al Ponte", "amenity": "restaurant", "lat": 46.1522025, "lon": 8.9493151, "radius": 500}, {"id": 3169247143, "name": "Pharmacia Centrale", "amenity": "pharmacy", "lat": 46.1517314, "lon": 8.9461626, "radius": 500}, {"id": 3262076051, "name": "Osteria Centrale", "amenity": "bar", "lat": 46.1506825, "lon": 8.9485094, "radius": 500}, {"id": 3262076054, "name": "Bar Chiosco Gazebo", "amenity": "bar", "lat": 46.1523023, "lon": 8.9419857, "radius": 500}, {"id": 3263056485, "name": "Raiffeisen", "amenity": "bank", "lat": 46.1518588, "lon": 8.9452132, "radius": 500}, {"id": 5573060792, "name": "Pizza chez Boubou", "amenity": "restaurant", "lat": 46.1525202, "lon": 8.9399504, "radius": 500}, {"id": 5834057649, "name": "Leilo Bar", "amenity": "pub", "lat": 46.1516511, "lon": 8.9458343, "radius": 500}, {"id": 5835336601, "name": "Il Cantuccio", "amenity": "fast_food", "lat": 46.1524371, "lon": 8.9399602, "radius": 500}, {"id": 5867564893, "name": "Biblioteca della Scuola Media di Cadenazzo", "amenity": "library", "lat": 46.1510167, "lon": 8.9418564, "radius": 500}, {"id": 5926572180, "name": "Biblioteca comunale per ragazzi", "amenity": "library", "lat": 46.1504232, "lon": 8.9507171, "radius": 500}, {"id": 10261258727, "name": "Pizzeria Bar CLUB", "amenity": "restaurant", "lat": 46.1507227, "lon": 8.9431726, "radius": 500}]}
{"address": "Niklaus Konrad-Strasse 4, 4500 Solothurn", "price": 2880, "property_id": 4002053939, "area": "115m²", "rooms": 4.5, "lat": 47.204513902108786, "lon": 7.539104019684887, "amenities": [{"id": 292225874, "name": "UBS", "amenity": "atm", "lat": 47.2048431, "lon": 7.5407604, "radius": 500}, {"id": 301668363, "name": "Efem Imbiss & Café", "amenity": "fast_food", "lat": 47.2046306, "lon": 7.5405994, "radius": 500}, {"id": 301764729, "name": "Vorstadt Bistro", "amenity": "cafe", "lat": 47.2048838, "lon": 7.5408996, "radius": 500}, {"id": 301764730, "name": "Medbase Apotheke Solothurn", "amenity": "pharmacy", "lat": 47.2051064, "lon": 7.5405056, "radius": 500}, {"id": 302828546, "name": "Caffè Spettacolo", "amenity": "cafe", "lat": 47.2042463, "lon": 7.54277, "radius": 500}, {"id": 302828561, "name": "Suteria", "amenity": "cafe", "lat": 47.2081063, "lon": 7.5381924, "radius": 500}, {"id": 302828563, "name": "TopPharm Hirsch Apotheke", "amenity": "pharmacy", "lat": 47.207909, "lon": 7.5374217, "radius": 500}, {"id": 302828572, "name": "Kaffehalle", "amenity": "cafe", "lat": 47.2081276, "lon": 7.5355274, "radius": 500}, {"id": 415415009, "name": "Roter Turm", "amenity": "restaurant", "lat": 47.2074597, "lon": 7.5368962, "radius": 500}, {"id": 830588129, "name": "Akropolis", "amenity": "restaurant", "lat": 47.2048882, "lon": 7.5389356, "radius": 500}, {"id": 833710708, "name": "Die Grüne Fee", "amenity": "bar", "lat": 47.2074594, "lon": 7.5387601, "radius": 500}, {"id": 939041589, "name": "Solo Imbiss", "amenity": "fast_food", "lat": 47.2048779, "lon": 7.5368448, "radius": 500}, {"id": 939041596, "name": "Trattoria Napoli", "amenity": "restaurant", "lat": 47.2045375, "lon": 7.5362046, "radius": 500}, {"id": 939041599, "name": "Notausgang", "amenity": "restaurant", "lat": 47.2044483, "lon": 7.5363896, "radius": 500}, {"id": 939041612, "name": "The Dock", "amenity": "bar", "lat": 47.2051717, "lon": 7.5361348, "radius": 500}, {"id": 939041616, "name": "Adler", "amenity": "restaurant", "lat": 47.2047763, "lon": 7.5361643, "radius": 500}, {"id": 939041620, "name": "Altes Spital", "amenity": "restaurant", "lat": 47.2048314, "lon": 7.5354098, "radius": 500}, {"id": 939041621, "name": "Sonne", "amenity": "restaurant", "lat": 47.2047854, "lon": 7.5363896, "radius": 500}, {"id": 939041623, "name": "Vini-Al Grappolo", "amenity": "restaurant", "lat": 47.2049778, "lon": 7.5368094, "radius": 500}, {"id": 939041634, "name": "Steinbock", "amenity": "pub", "lat": 47.2046387, "lon": 7.5379426, "radius": 500}, {"id": 939041645, "name": "Fragale", "amenity": "restaurant", "lat": 47.2046861, "lon": 7.5375537, "radius": 500}, {"id": 939041649, "name": "Fu-Lin", "amenity": "restaurant", "lat": 47.2037603, "lon": 7.5390531, "radius": 500}, {"id": 939048277, "name": "Fryhof Bistro", "amenity": "pub", "lat": 47.2072632, "lon": 7.5350978, "radius": 500}, {"id": 939048278, "name": "Du Commerce", "amenity": "restaurant", "lat": 47.2070915, "lon": 7.5352809, "radius": 500}, {"id": 939048279, "name": "Locanda", "amenity": "restaurant", "lat": 47.2073702, "lon": 7.5359649, "radius": 500}, {"id": 939048282, "name": "Zum Türk", "amenity": "bar", "lat": 47.2071206, "lon": 7.5367883, "radius": 500}, {"id": 939048283, "name": "19th Alley", "amenity": "pub", "lat": 47.2072427, "lon": 7.5385103, "radius": 500}, {"id": 939048288, "name": "Zur Grünen Ecke", "amenity": "restaurant", "lat": 47.2064017, "lon": 7.5358999, "radius": 500}, {"id": 939048289, "name": "Wengihaus", "amenity": "restaurant", "lat": 47.206512, "lon": 7.5358683, "radius": 500}, {"id": 939048290, "name": "Löwen", "amenity": "restaurant", "lat": 47.2069183, "lon": 7.5370136, "radius": 500}, {"id": 939048292, "name": "Babylon", "amenity": "fast_food", "lat": 47.2072718, "lon": 7.5368205, "radius": 500}, {"id": 939048293, "name": "Trattoria Pizzeria da Daniele", "amenity": "restaurant", "lat": 47.2073374, "lon": 7.5374508, "radius": 500}, {"id": 939048297, "name": "Zum Stephan", "amenity": "restaurant", "lat": 47.207188, "lon": 7.5355626, "radius": 500}, {"id": 939048298, "name": "Zunfthaus zu Wirthen", "amenity": "restaurant", "lat": 47.2075725, "lon": 7.5366033, "radius": 500}, {"id": 939048299, "name": "Brasserie Federale", "amenity": "restaurant", "lat": 47.2077, "lon": 7.5367052, "radius": 500}, {"id": 1305573211, "name": "McDonald's", "amenity": "fast_food", "lat": 47.2040461, "lon": 7.5415408, "radius": 500}, {"id": 1305574961, "name": "Thai Sunshine", "amenity": "restaurant", "lat": 47.2047013, "lon": 7.5364428, "radius": 500}, {"id": 1348493919, "name": "Salzhaus", "amenity": "restaurant", "lat": 47.206414, "lon": 7.536623, "radius": 500}, {"id": 1348523756, "name": "Kreuz", "amenity": "restaurant", "lat": 47.2067438, "lon": 7.5376825, "radius": 500}, {"id": 1348523758, "name": "Steiner", "amenity": "cafe", "lat": 47.2049949, "lon": 7.5407086, "radius": 500}, {"id": 1348543899, "name": "Confiserie Hofer", "amenity": "cafe", "lat": 47.2065141, "lon": 7.5351797, "radius": 500}, {"id": 1348543900, "name": "Migros Restaurant", "amenity": "restaurant", "lat": 47.2066385, "lon": 7.5334304, "radius": 500}, {"id": 1360363823, "name": "Pittaria", "amenity": "fast_food", "lat": 47.2069204, "lon": 7.5379211, "radius": 500}, {"id": 1445700155, "name": "n/a", "amenity": "parking", "lat": 47.2037855, "lon": 7.5398567, "radius": 500}, {"id": 1612175339, "name": "Solheure", "amenity": "pub", "lat": 47.2070877, "lon": 7.5399342, "radius": 500}, {"id": 1711878551, "name": "Kaufmännische Berufsschule", "amenity": "school", "lat": 47.2049253, "lon": 7.5382655, "radius": 500}, {"id": 1711923340, "name": "Jägerstübli", "amenity": "restaurant", "lat": 47.2063927, "lon": 7.5354338, "radius": 500}, {"id": 1711923342, "name": "NEST", "amenity": "cafe", "lat": 47.206079, "lon": 7.5356996, "radius": 500}, {"id": 1711923360, "name": "Gallo Nero", "amenity": "restaurant", "lat": 47.2078324, "lon": 7.5365875, "radius": 500}, {"id": 1711992336, "name": "Red John", "amenity": "pub", "lat": 47.2061179, "lon": 7.5358558, "radius": 500}, {"id": 1711992359, "name": "Chutz", "amenity": "pub", "lat": 47.2061376, "lon": 7.5359472, "radius": 500}, {"id": 1711992362, "name": "Cantina del Vino", "amenity": "bar", "lat": 47.2063339, "lon": 7.5365682, "radius": 500}, {"id": 1713911589, "name": "Tavola Calda", "amenity": "fast_food", "lat": 47.2051584, "lon": 7.5409779, "radius": 500}, {"id": 1713911594, "name": "Mediterane Leckereien", "amenity": "restaurant", "lat": 47.2064866, "lon": 7.5368386, "radius": 500}, {"id": 1713911600, "name": "gassbar", "amenity": "bar", "lat": 47.2069995, "lon": 7.5371538, "radius": 500}, {"id": 1715927529, "name": "Cantinetta Bindella", "amenity": "restaurant", "lat": 47.2073052, "lon": 7.5397437, "radius": 500}, {"id": 1715927538, "name": "Amun Take-Away", "amenity": "fast_food", "lat": 47.2049508, "lon": 7.540494, "radius": 500}, {"id": 1831316797, "name": "Il Ponte del Sole", "amenity": "restaurant", "lat": 47.2049206, "lon": 7.5360605, "radius": 500}, {"id": 1832954732, "name": "Berner Kantonalbank", "amenity": "bank", "lat": 47.2080958, "lon": 7.5356377, "radius": 500}, {"id": 2009081375, "name": "Raiffeisenbank Weissenstein", "amenity": "bank", "lat": 47.2082195, "lon": 7.5383002, "radius": 500}, {"id": 2011278142, "name": "Barock Cafe", "amenity": "cafe", "lat": 47.2061416, "lon": 7.5361578, "radius": 500}, {"id": 2336933387, "name": "Manora", "amenity": "restaurant", "lat": 47.2084144, "lon": 7.536277, "radius": 500}, {"id": 2405737636, "name": "Postfinance", "amenity": "atm", "lat": 47.2079031, "lon": 7.5388512, "radius": 500}, {"id": 2411862641, "name": "Hofer", "amenity": "cafe", "lat": 47.2080686, "lon": 7.5361749, "radius": 500}, {"id": 2670017043, "name": "Hafebar", "amenity": "bar", "lat": 47.2056468, "lon": 7.5384611, "radius": 500}, {"id": 3077030019, "name": "Subway", "amenity": "fast_food", "lat": 47.2041251, "lon": 7.5416014, "radius": 500}, {"id": 3294202313, "name": "Flora mini Beiz", "amenity": "restaurant", "lat": 47.2085584, "lon": 7.5364103, "radius": 500}, {"id": 3294299951, "name": "Salento 11", "amenity": "restaurant", "lat": 47.206692, "lon": 7.5340197, "radius": 500}, {"id": 3294299952, "name": "Sabsin's", "amenity": "fast_food", "lat": 47.206816, "lon": 7.5338192, "radius": 500}, {"id": 3466147499, "name": "Migros Bank", "amenity": "bank", "lat": 47.2078919, "lon": 7.5372432, "radius": 500}, {"id": 3466147503, "name": "lerns - Die Tagesschule", "amenity": "school", "lat": 47.2079556, "lon": 7.5374102, "radius": 500}, {"id": 3473937432, "name": "McCafé", "amenity": "cafe", "lat": 47.2040292, "lon": 7.5416204, "radius": 500}, {"id": 3519879172, "name": "n/a", "amenity": "atm", "lat": 47.2081971, "lon": 7.5383554, "radius": 500}, {"id": 3585446195, "name": "U-Boot Stadtgrill", "amenity": "fast_food", "lat": 47.2083257, "lon": 7.5367629, "radius": 500}, {"id": 3699461285, "name": "Pasha food", "amenity": "fast_food", "lat": 47.2084523, "lon": 7.5369045, "radius": 500}, {"id": 3999473250, "name": "Chocola", "amenity": "cafe", "lat": 47.2070269, "lon": 7.5369052, "radius": 500}, {"id": 3999541458, "name": "Thung Thong", "amenity": "restaurant", "lat": 47.2047057, "lon": 7.537415, "radius": 500}, {"id": 4124143098, "name": "così Ristorante & Pizzeria", "amenity": "restaurant", "lat": 47.2047969, "lon": 7.5370633, "radius": 500}, {"id": 4147259808, "name": "eifach", "amenity": "bar", "lat": 47.2071524, "lon": 7.5354488, "radius": 500}, {"id": 4147259816, "name": "Mega Imbiss", "amenity": "fast_food", "lat": 47.2075071, "lon": 7.5387218, "radius": 500}, {"id": 4147259821, "name": "n/a", "amenity": "atm", "lat": 47.2072691, "lon": 7.5364477, "radius": 500}, {"id": 4147259823, "name": "Stadtcafé", "amenity": "cafe", "lat": 47.2078832, "lon": 7.5371486, "radius": 500}, {"id": 4161285894, "name": "Aarebar", "amenity": "restaurant", "lat": 47.2064496, "lon": 7.536719, "radius": 500}, {"id": 4161741461, "name": "Restaurant Thai Shop", "amenity": "restaurant", "lat": 47.2046512, "lon": 7.5355642, "radius": 500}, {"id": 4248118390, "name": "The Shipyard's", "amenity": "pub", "lat": 47.2068945, "lon": 7.5375565, "radius": 500}, {"id": 4266767138, "name": "Zum Chregu", "amenity": "restaurant", "lat": 47.2048129, "lon": 7.5358067, "radius": 500}, {"id": 4266767142, "name": "Stalden", "amenity": "restaurant", "lat": 47.2067493, "lon": 7.535054, "radius": 500}, {"id": 4266767477, "name": "Gelateria Italia", "amenity": "cafe", "lat": 47.2063547, "lon": 7.5334649, "radius": 500}, {"id": 4266842689, "name": "Café Bar Landhaus", "amenity": "cafe", "lat": 47.2061982, "lon": 7.5363223, "radius": 500}, {"id": 4266842690, "name": "Il Bar", "amenity": "cafe", "lat": 47.2062499, "lon": 7.536452, "radius": 500}, {"id": 4273064056, "name": "H4", "amenity": "restaurant", "lat": 47.2058565, "lon": 7.5416093, "radius": 500}, {"id": 4318161034, "name": "Stadtrösterei", "amenity": "cafe", "lat": 47.2049559, "lon": 7.5414198, "radius": 500}, {"id": 4322755552, "name": "Nonna Rosetta", "amenity": "restaurant", "lat": 47.2044825, "lon": 7.535911, "radius": 500}, {"id": 4987092811, "name": "La Couronne", "amenity": "restaurant", "lat": 47.2078934, "lon": 7.5385137, "radius": 500}, {"id": 5536034940, "name": "Baseltor", "amenity": "restaurant", "lat": 47.2086202, "lon": 7.5393286, "radius": 500}, {"id": 5536087902, "name": "Apple's", "amenity": "fast_food", "lat": 47.2083132, "lon": 7.536903, "radius": 500}, {"id": 5536114601, "name": "Lüthy Buchcafé", "amenity": "cafe", "lat": 47.2079602, "lon": 7.535633, "radius": 500}, {"id": 5629903675, "name": "Fryhof Lounge", "amenity": "bar", "lat": 47.2072973, "lon": 7.5351117, "radius": 500}, {"id": 5785960651, "name": "n/a", "amenity": "atm", "lat": 47.2042566, "lon": 7.5387939, "radius": 500}, {"id": 5786694127, "name": "Argileh", "amenity": "bar", "lat": 47.2046631, "lon": 7.5376706, "radius": 500}, {"id": 5786802178, "name": "Credit Suisse", "amenity": "bank", "lat": 47.2064849, "lon": 7.5344414, "radius": 500}, {"id": 6343197763, "name": "Bibliomedia", "amenity": "library", "lat": 47.2081517, "lon": 7.5422953, "radius": 500}, {"id": 7298442702, "name": "n/a", "amenity": "atm", "lat": 47.2042644, "lon": 7.5422564, "radius": 500}, {"id": 7796754765, "name": "Flamme", "amenity": "fast_food", "lat": 47.2069028, "lon": 7.5372538, "radius": 500}, {"id": 8237483378, "name": "Santas Oase", "amenity": "bar", "lat": 47.2061414, "lon": 7.5354487, "radius": 500}, {"id": 8599900790, "name": "Happy End", "amenity": "bar", "lat": 47.2067574, "lon": 7.5339137, "radius": 500}, {"id": 9379748446, "name": "Panini Bar", "amenity": "fast_food", "lat": 47.2063648, "lon": 7.5352939, "radius": 500}, {"id": 9526797654, "name": "n/a", "amenity": "fast_food", "lat": 47.2045897, "lon": 7.541447, "radius": 500}, {"id": 9775359202, "name": "Weinstüberl & Weinverkauf", "amenity": "bar", "lat": 47.2053474, "lon": 7.5367652, "radius": 500}, {"id": 10100509940, "name": "Oskar & Luise", "amenity": "restaurant", "lat": 47.2072569, "lon": 7.5357748, "radius": 500}, {"id": 10795036094, "name": "Taverna Amphorea", "amenity": "restaurant", "lat": 47.2069614, "lon": 7.5349993, "radius": 500}, {"id": 10893067316, "name": "Pfefferkorn", "amenity": "restaurant", "lat": 47.208274, "lon": 7.5378613, "radius": 500}, {"id": 10961908105, "name": "n/a", "amenity": "fast_food", "lat": 47.2083162, "lon": 7.5369151, "radius": 500}, {"id": 11077590002, "name": "Albert Brötlibar", "amenity": "fast_food", "lat": 47.2067841, "lon": 7.5372086, "radius": 500}, {"id": 11844909931, "name": "Memo", "amenity": "fast_food", "lat": 47.2032608, "lon": 7.543415, "radius": 500}, {"id": 12112631558, "name": "Solo Fresh & fast Crispy Chicken", "amenity": "restaurant", "lat": 47.2041652, "lon": 7.5388339, "radius": 500}, {"id": 12613405657, "name": "Le Restaurant", "amenity": "restaurant", "lat": 47.2079783, "lon": 7.5385136, "radius": 500}]}
{"address": "Seeblickstr. 12, 9010 St. Gallen", "price": 2880, "property_id": 4002039822, "area": "115m²", "rooms": 4.5, "lat": 47.44059395, "lon": 9.377784349999999, "amenities": [{"id": 445422751, "name": "Rotmontenhof", "amenity": "restaurant", "lat": 47.4370776, "lon": 9.3776357, "radius": 500}, {"id": 7394616330, "name": "n/a", "amenity": "parking", "lat": 47.4380156, "lon": 9.3765338, "radius": 500}, {"id": 7394684591, "name": "n/a", "amenity": "parking", "lat": 47.4371758, "lon": 9.3767964, "radius": 500}, {"id": 12218885965, "name": "n/a", "amenity": "parking", "lat": 47.4395953, "lon": 9.3809115, "radius": 500}, {"id": 12229092165, "name": "n/a", "amenity": "parking", "lat": 47.4394536, "lon": 9.3806368, "radius": 500}, {"id": 12229092166, "name": "n/a", "amenity": "parking", "lat": 47.439389, "lon": 9.3805741, "radius": 500}]}
{"address": "Bellerivestrasse 49, 8008 Zürich", "price": 2880, "property_id": 4002033013, "area": "115m²", "rooms": 4.5, "lat": 47.3566457, "lon": 8.551761367777775, "amenities": [{"id": 268471384, "name": "Amalfi", "amenity": "restaurant", "lat": 47.3606695, "lon": 8.5499916, "radius": 500}, {"id": 268482384, "name": "Yooji's", "amenity": "restaurant", "lat": 47.3582879, "lon": 8.5541672, "radius": 500}, {"id": 268601209, "name": "Gesundheitszentrum für das Alter Wildbach", "amenity": "restaurant", "lat": 47.3575819, "lon": 8.5575836, "radius": 500}, {"id": 268601323, "name": "Parkhaus Zürichhorn", "amenity": "parking", "lat": 47.3557489, "lon": 8.5531163, "radius": 500}, {"id": 268601822, "name": "Parkhaus Feldegg", "amenity": "parking", "lat": 47.3603851, "lon": 8.5536988, "radius": 500}, {"id": 270692604, "name": "NA081", "amenity": "restaurant", "lat": 47.3597536, "lon": 8.5524861, "radius": 500}, {"id": 273502894, "name": "Valentino", "amenity": "cafe", "lat": 47.3601706, "lon": 8.550781, "radius": 500}, {"id": 485617147, "name": "Escoffier", "amenity": "restaurant", "lat": 47.3605504, "lon": 8.5524597, "radius": 500}, {"id": 485617148, "name": "Stripped Pizza", "amenity": "restaurant", "lat": 47.3602524, "lon": 8.5521363, "radius": 500}, {"id": 1291638554, "name": "Chinagarten Take Away", "amenity": "fast_food", "lat": 47.3545576, "lon": 8.5519589, "radius": 500}, {"id": 1416153972, "name": "Postfinance", "amenity": "atm", "lat": 47.3577163, "lon": 8.5540421, "radius": 500}, {"id": 1728845231, "name": "D-Vino", "amenity": "pub", "lat": 47.3584615, "lon": 8.553987, "radius": 500}, {"id": 1750109103, "name": "CS Bancomat", "amenity": "atm", "lat": 47.3601542, "lon": 8.5524501, "radius": 500}, {"id": 2456775289, "name": "blindekuh", "amenity": "restaurant", "lat": 47.3583286, "lon": 8.5571633, "radius": 500}, {"id": 3523102254, "name": "TopPharm Apotheke Höschgasse", "amenity": "pharmacy", "lat": 47.3577116, "lon": 8.5547536, "radius": 500}, {"id": 3528789347, "name": "Confiserie Freytag", "amenity": "cafe", "lat": 47.357029, "lon": 8.5549279, "radius": 500}, {"id": 3551593268, "name": "Pill Apotheke Fröhlichstrasse", "amenity": "pharmacy", "lat": 47.355307, "lon": 8.557001, "radius": 500}, {"id": 3554644444, "name": "Seefeldbar", "amenity": "bar", "lat": 47.3547507, "lon": 8.5571903, "radius": 500}, {"id": 4472557764, "name": "PBZ Bibliothek Riesbach", "amenity": "library", "lat": 47.3592693, "lon": 8.5539566, "radius": 500}, {"id": 4833061567, "name": "Totò", "amenity": "restaurant", "lat": 47.3580896, "lon": 8.5538491, "radius": 500}, {"id": 4833061571, "name": "Restaurant Kiosk", "amenity": "restaurant", "lat": 47.358135, "lon": 8.5478933, "radius": 500}, {"id": 4889986278, "name": "Bistro Horizont", "amenity": "cafe", "lat": 47.3602322, "lon": 8.5544097, "radius": 500}, {"id": 4889986289, "name": "Lake Side", "amenity": "restaurant", "lat": 47.3527249, "lon": 8.5537217, "radius": 500}, {"id": 4935627373, "name": "Iroquois", "amenity": "restaurant", "lat": 47.3582918, "lon": 8.5537364, "radius": 500}, {"id": 4935627374, "name": "Metzg", "amenity": "restaurant", "lat": 47.355851, "lon": 8.556448, "radius": 500}, {"id": 4935627376, "name": "Tüfenegg", "amenity": "restaurant", "lat": 47.3553163, "lon": 8.5541539, "radius": 500}, {"id": 4935627377, "name": "Enoteca Riviera", "amenity": "restaurant", "lat": 47.3549625, "lon": 8.5550456, "radius": 500}, {"id": 4935627380, "name": "Mura Omakase Restaurant", "amenity": "restaurant", "lat": 47.3545891, "lon": 8.5561613, "radius": 500}, {"id": 4935627381, "name": "Miracle", "amenity": "restaurant", "lat": 47.3545311, "lon": 8.5560474, "radius": 500}, {"id": 4935627392, "name": "Le Beaujolais", "amenity": "restaurant", "lat": 47.3554751, "lon": 8.5568172, "radius": 500}, {"id": 4958366046, "name": "Pizzeria Capri", "amenity": "restaurant", "lat": 47.3604176, "lon": 8.5501478, "radius": 500}, {"id": 5677762209, "name": "GZ Riesbach Cafeteria", "amenity": "cafe", "lat": 47.359245, "lon": 8.5540563, "radius": 500}, {"id": 5922544703, "name": "Razzia Bar", "amenity": "bar", "lat": 47.3609151, "lon": 8.5515444, "radius": 500}, {"id": 8928205645, "name": "Fischerstube Zürihorn", "amenity": "restaurant", "lat": 47.3530226, "lon": 8.5505084, "radius": 500}, {"id": 9178495731, "name": "Fischergarten", "amenity": "restaurant", "lat": 47.3529697, "lon": 8.5511478, "radius": 500}, {"id": 9560861817, "name": "Fischerstube", "amenity": "restaurant", "lat": 47.3529891, "lon": 8.5510576, "radius": 500}, {"id": 9726348419, "name": "Tandem IMS, Zürich", "amenity": "school", "lat": 47.3585537, "lon": 8.5542336, "radius": 500}, {"id": 9752219318, "name": "Monocle Café", "amenity": "cafe", "lat": 47.3596826, "lon": 8.5507962, "radius": 500}, {"id": 11579521243, "name": "Maison 33", "amenity": "cafe", "lat": 47.3572728, "lon": 8.5526229, "radius": 500}, {"id": 11843562096, "name": "Spuntino", "amenity": "cafe", "lat": 47.3546706, "lon": 8.5576663, "radius": 500}, {"id": 12561243401, "name": "Weera Pura", "amenity": "restaurant", "lat": 47.3571792, "lon": 8.5531184, "radius": 500}, {"id": 12663326764, "name": "Razzia Restaurant", "amenity": "restaurant", "lat": 47.3608124, "lon": 8.5516525, "radius": 500}]}
{"address": "Ludwigstr. 5, 9010 St. Gallen", "price": 2880, "property_id": 4002028634, "area": "115m²", "rooms": 4.5, "lat": 47.43990895, "lon": 9.377419517139657, "amenities": [{"id": 445422751, "name": "Rotmontenhof", "amenity": "restaurant", "lat": 47.4370776, "lon": 9.3776357, "radius": 500}, {"id": 7394616330, "name": "n/a", "amenity": "parking", "lat": 47.4380156, "lon": 9.3765338, "radius": 500}, {"id": 7394684591, "name": "n/a", "amenity": "parking", "lat": 47.4371758, "lon": 9.3767964, "radius": 500}, {"id": 12218885965, "name": "n/a", "amenity": "parking", "lat": 47.4395953, "lon": 9.3809115, "radius": 500}, {"id": 12229092165, "name": "n/a", "amenity": "parking", "lat": 47.4394536, "lon": 9.3806368, "radius": 500}, {"id": 12229092166, "name": "n/a", "amenity": "parking", "lat": 47.439389, "lon": 9.3805741, "radius": 500}]}
{"address": "Via G. Brentani 16, 6900 Lugano", "price": 2880, "property_id": 4002028631, "area": "115m²", "rooms": 4.5, "lat": null, "lon": null, "amenities": []}
{"address": "Via G. Brentani 16, 6900 Lugano", "price": 2880, "property_id": 4002028630, "area": "115m²", "rooms": 4.5, "lat": null, "lon": null, "amenities": []}
{"address": "Guggistrasse 14 A, 6005 Luzern", "price": 2880, "property_id": 4002006119, "area": "115m²", "rooms": 4.5, "lat": 47.0442778, "lon": 8.2996906, "amenities": [{"id": 622117454, "name": "Haifischbar", "amenity": "pub", "lat": 47.0465099, "lon": 8.3043846, "radius": 500}, {"id": 1014513017, "name": "Bei Miguel", "amenity": "pub", "lat": 47.0475079, "lon": 8.302278, "radius": 500}, {"id": 1069059545, "name": "Weisses Schloss", "amenity": "restaurant", "lat": 47.045799, "lon": 8.3051527, "radius": 500}, {"id": 1069059583, "name": "Nachbar", "amenity": "bar", "lat": 47.0458738, "lon": 8.305106, "radius": 500}, {"id": 1119431811, "name": "Wirtshaus zum Eichhof", "amenity": "restaurant", "lat": 47.0399426, "lon": 8.3005903, "radius": 500}, {"id": 1423740022, "name": "Nefes Sisha Bar", "amenity": "bar", "lat": 47.0477079, "lon": 8.3031947, "radius": 500}, {"id": 1821541393, "name": "Peperoncini", "amenity": "cafe", "lat": 47.0454377, "lon": 8.3037027, "radius": 500}, {"id": 3657585285, "name": "Restaurant Fass", "amenity": "restaurant", "lat": 47.0462823, "lon": 8.3043652, "radius": 500}, {"id": 3699596682, "name": "Thai Lanna", "amenity": "restaurant", "lat": 47.0476483, "lon": 8.3021402, "radius": 500}, {"id": 4003553190, "name": "Casa N°1", "amenity": "restaurant", "lat": 47.0429195, "lon": 8.3038464, "radius": 500}, {"id": 4004257615, "name": "n/a", "amenity": "parking", "lat": 47.046599, "lon": 8.3036954, "radius": 500}, {"id": 4004257815, "name": "Western Union", "amenity": "bank", "lat": 47.0481082, "lon": 8.3028634, "radius": 500}, {"id": 4004257915, "name": "Tandoori Indian", "amenity": "restaurant", "lat": 47.0480304, "lon": 8.3029513, "radius": 500}, {"id": 4004258204, "name": "Eva Kebab", "amenity": "fast_food", "lat": 47.047824, "lon": 8.3029425, "radius": 500}, {"id": 4004258900, "name": "kostbar", "amenity": "bar", "lat": 47.0466715, "lon": 8.3047733, "radius": 500}, {"id": 5018129623, "name": "Made in Sud", "amenity": "fast_food", "lat": 47.0470738, "lon": 8.3038339, "radius": 500}, {"id": 5836796342, "name": "Dieci Pizzakurier", "amenity": "fast_food", "lat": 47.045078, "lon": 8.3036813, "radius": 500}, {"id": 5893245286, "name": "Don Feri", "amenity": "restaurant", "lat": 47.0426139, "lon": 8.3037411, "radius": 500}, {"id": 5981208785, "name": "Kostgeberei", "amenity": "restaurant", "lat": 47.0418295, "lon": 8.3048778, "radius": 500}, {"id": 6205585186, "name": "Indian Restaurant Luzern", "amenity": "restaurant", "lat": 47.0434863, "lon": 8.3038132, "radius": 500}, {"id": 6700463195, "name": "Mini Food", "amenity": "fast_food", "lat": 47.0480893, "lon": 8.302892, "radius": 500}, {"id": 6944692329, "name": "Majorelle", "amenity": "cafe", "lat": 47.0444172, "lon": 8.3058223, "radius": 500}, {"id": 7197807887, "name": "WIR Bank", "amenity": "bank", "lat": 47.0422371, "lon": 8.302409, "radius": 500}, {"id": 9245783985, "name": "Kaffeekranz", "amenity": "cafe", "lat": 47.0436289, "lon": 8.3060778, "radius": 500}, {"id": 10116032023, "name": "n/a", "amenity": "parking", "lat": 47.0466471, "lon": 8.3051742, "radius": 500}, {"id": 10116032024, "name": "n/a", "amenity": "parking", "lat": 47.0464917, "lon": 8.3053149, "radius": 500}, {"id": 10116032025, "name": "n/a", "amenity": "parking", "lat": 47.0463908, "lon": 8.305264, "radius": 500}, {"id": 10116032026, "name": "n/a", "amenity": "parking", "lat": 47.0460496, "lon": 8.305142, "radius": 500}, {"id": 10116032027, "name": "n/a", "amenity": "parking", "lat": 47.0459225, "lon": 8.3050267, "radius": 500}, {"id": 10116032028, "name": "n/a", "amenity": "parking", "lat": 47.0459749, "lon": 8.3051544, "radius": 500}, {"id": 10116032029, "name": "n/a", "amenity": "parking", "lat": 47.0460469, "lon": 8.3053398, "radius": 500}, {"id": 10116032030, "name": "n/a", "amenity": "parking", "lat": 47.0458578, "lon": 8.3057303, "radius": 500}, {"id": 10116032031, "name": "n/a", "amenity": "parking", "lat": 47.0460072, "lon": 8.3055963, "radius": 500}, {"id": 10116032032, "name": "n/a", "amenity": "parking", "lat": 47.0460415, "lon": 8.3056885, "radius": 500}, {"id": 10116032033, "name": "n/a", "amenity": "parking", "lat": 47.0459031, "lon": 8.3058049, "radius": 500}, {"id": 10116032034, "name": "n/a", "amenity": "parking", "lat": 47.0457647, "lon": 8.305917, "radius": 500}, {"id": 10116032035, "name": "n/a", "amenity": "parking", "lat": 47.0456963, "lon": 8.3054307, "radius": 500}, {"id": 10116032037, "name": "n/a", "amenity": "parking", "lat": 47.0451353, "lon": 8.305739, "radius": 500}, {"id": 10116032038, "name": "n/a", "amenity": "parking", "lat": 47.0444614, "lon": 8.3054399, "radius": 500}, {"id": 10116032041, "name": "n/a", "amenity": "parking", "lat": 47.0447144, "lon": 8.3061874, "radius": 500}, {"id": 12193139160, "name": "Taberna Latina", "amenity": "restaurant", "lat": 47.0433432, "lon": 8.3037722, "radius": 500}]}
