{"address": "Bläsiring 10, 4057 Basel", "price": 2880, "property_id": 4002065802, "area": "115m²", "rooms": 4.5, "lat": 47.5683969, "lon": 7.5871397, "amenities": [{"id": 71525383, "name": "Buvette Dreirosen", "amenity": "pub", "lat": 47.5694909, "lon": 7.5863581, "radius": 1000}, {"id": 71525550, "name": "Restaurant Zum Wilde Maa", "amenity": "restaurant", "lat": 47.5679494, "lon": 7.595093, "radius": 1000}, {"id": 71525553, "name": "Firenze", "amenity": "restaurant", "lat": 47.5692427, "lon": 7.5944428, "radius": 1000}, {"id": 71525557, "name": "Kiki Bar", "amenity": "pub", "lat": 47.5692456, "lon": 7.5941997, "radius": 1000}, {"id": 71525563, "name": "Cloves", "amenity": "restaurant", "lat": 47.5692033, "lon": 7.5913551, "radius": 1000}, {"id": 71525570, "name": "Senat Maki's", "amenity": "cafe", "lat": 47.5692456, "lon": 7.5938822, "radius": 1000}, {"id": 71525579, "name": "DejaVu", "amenity": "pub", "lat": 47.5694062, "lon": 7.5901309, "radius": 1000}, {"id": 71525588, "name": "Pizzeria Breisacherhof", "amenity": "restaurant", "lat": 47.5698877, "lon": 7.5916214, "radius": 1000}, {"id": 71525604, "name": "Eintracht", "amenity": "restaurant", "lat": 47.5675379, "lon": 7.5903738, "radius": 1000}, {"id": 71525611, "name": "Gatto Nero", "amenity": "restaurant", "lat": 47.5677788, "lon": 7.5906834, "radius": 1000}, {"id": 75940582, "name": "Zum Goldenen Fass", "amenity": "restaurant", "lat": 47.5656669, "lon": 7.5956372, "radius": 1000}, {"id": 75940590, "name": "Europe", "amenity": "parking", "lat": 47.5632757, "lon": 7.5968304, "radius": 1000}, {"id": 122336608, "name": "Delfin", "amenity": "restaurant", "lat": 47.5665578, "lon": 7.5917694, "radius": 1000}, {"id": 122336670, "name": "Chez Donati", "amenity": "restaurant", "lat": 47.5642081, "lon": 7.5841104, "radius": 1000}, {"id": 122337395, "name": "Parterre One", "amenity": "restaurant", "lat": 47.5637639, "lon": 7.591176, "radius": 1000}, {"id": 122626753, "name": "Cargo Bar", "amenity": "pub", "lat": 47.5641143, "lon": 7.5843179, "radius": 1000}, {"id": 138310840, "name": "Brombi", "amenity": "restaurant", "lat": 47.5705197, "lon": 7.5962519, "radius": 1000}, {"id": 252822647, "name": "Platanenhof", "amenity": "restaurant", "lat": 47.5758199, "lon": 7.5885972, "radius": 1000}, {"id": 252822648, "name": "nokta", "amenity": "cafe", "lat": 47.5758885, "lon": 7.5890687, "radius": 1000}, {"id": 254097107, "name": "Da Graziella", "amenity": "cafe", "lat": 47.5664559, "lon": 7.5928691, "radius": 1000}, {"id": 262502093, "name": "Acero", "amenity": "cafe", "lat": 47.5659948, "lon": 7.5941398, "radius": 1000}, {"id": 315128008, "name": "Sport Pub Milan", "amenity": "pub", "lat": 47.5689609, "lon": 7.5948146, "radius": 1000}, {"id": 481975100, "name": "Basler Kantonalbank", "amenity": "bank", "lat": 47.56148, "lon": 7.5925982, "radius": 1000}, {"id": 584740931, "name": "Basler Kantonalbank", "amenity": "bank", "lat": 47.5605854, "lon": 7.5869883, "radius": 1000}, {"id": 585023412, "name": "Klybeck Apotheke", "amenity": "pharmacy", "lat": 47.5656841, "lon": 7.591063, "radius": 1000}, {"id": 585046279, "name": "Didi Bar", "amenity": "cafe", "lat": 47.5656436, "lon": 7.5934442, "radius": 1000}, {"id": 585047863, "name": "Saint Tropez", "amenity": "cafe", "lat": 47.5651584, "lon": 7.5940531, "radius": 1000}, {"id": 585055185, "name": "Clara", "amenity": "cafe", "lat": 47.5644905, "lon": 7.592551, "radius": 1000}, {"id": 585056537, "name": "Klybeck Casino", "amenity": "restaurant", "lat": 47.5644661, "lon": 7.5916896, "radius": 1000}, {"id": 585133165, "name": "Lauch", "amenity": "restaurant", "lat": 47.5632537, "lon": 7.592183, "radius": 1000}, {"id": 585184294, "name": "Alchemist", "amenity": "restaurant", "lat": 47.5595586, "lon": 7.5882654, "radius": 1000}, {"id": 586277088, "name": "Punta Cana", "amenity": "restaurant", "lat": 47.5633753, "lon": 7.5962178, "radius": 1000}, {"id": 586281979, "name": "Bali", "amenity": "restaurant", "lat": 47.5627493, "lon": 7.5966598, "radius": 1000}, {"id": 586282496, "name": "Coop Vitality", "amenity": "pharmacy", "lat": 47.5629845, "lon": 7.5973118, "radius": 1000}, {"id": 586283598, "name": "Rheinfelder Hof", "amenity": "restaurant", "lat": 47.562527, "lon": 7.5967588, "radius": 1000}, {"id": 590084594, "name": "Hong Kong", "amenity": "restaurant", "lat": 47.5651063, "lon": 7.5981445, "radius": 1000}, {"id": 591435646, "name": "Holzschopf", "amenity": "restaurant", "lat": 47.5621229, "lon": 7.5947687, "radius": 1000}, {"id": 698555438, "name": "Pinar", "amenity": "restaurant", "lat": 47.5600294, "lon": 7.5858415, "radius": 1000}, {"id": 703589057, "name": "n/a", "amenity": "atm", "lat": 47.5745339, "lon": 7.5781162, "radius": 1000}, {"id": 796765566, "name": "Isbilir", "amenity": "fast_food", "lat": 47.5671452, "lon": 7.5952952, "radius": 1000}, {"id": 1028007577, "name": "Antik Café Bar", "amenity": "cafe", "lat": 47.5690588, "lon": 7.5902334, "radius": 1000}, {"id": 1409829319, "name": "UBS", "amenity": "bank", "lat": 47.561964, "lon": 7.5934456, "radius": 1000}, {"id": 1409829321, "name": "n/a", "amenity": "atm", "lat": 47.5618131, "lon": 7.5929422, "radius": 1000}, {"id": 1430898779, "name": "Bon Gout", "amenity": "restaurant", "lat": 47.566215, "lon": 7.5913795, "radius": 1000}, {"id": 1430901108, "name": "Taste of Mykonos", "amenity": "restaurant", "lat": 47.5660236, "lon": 7.5909437, "radius": 1000}, {"id": 1517612070, "name": "Bläsi Apotheke", "amenity": "pharmacy", "lat": 47.5674348, "lon": 7.5903846, "radius": 1000}, {"id": 1518116717, "name": "n/a", "amenity": "parking", "lat": 47.566533, "lon": 7.5897838, "radius": 1000}, {"id": 1518116722, "name": "n/a", "amenity": "parking", "lat": 47.5665619, "lon": 7.5899064, "radius": 1000}, {"id": 1518116885, "name": "n/a", "amenity": "parking", "lat": 47.5670829, "lon": 7.5903386, "radius": 1000}, {"id": 1518116928, "name": "n/a", "amenity": "parking", "lat": 47.5672126, "lon": 7.5899315, "radius": 1000}, {"id": 1518116956, "name": "n/a", "amenity": "parking", "lat": 47.5673091, "lon": 7.5902186, "radius": 1000}, {"id": 1520062898, "name": "Alpenblick", "amenity": "bar", "lat": 47.5659372, "lon": 7.5909695, "radius": 1000}, {"id": 1529984092, "name": "RiiBistro", "amenity": "restaurant", "lat": 47.5705632, "lon": 7.5868666, "radius": 1000}, {"id": 1576603312, "name": "EG Lounge", "amenity": "bar", "lat": 47.5636906, "lon": 7.5910618, "radius": 1000}, {"id": 1579334179, "name": "WSJ-209", "amenity": "parking", "lat": 47.5715949, "lon": 7.5814966, "radius": 1000}, {"id": 1592876743, "name": "Don Pincho", "amenity": "restaurant", "lat": 47.5645204, "lon": 7.5840604, "radius": 1000}, {"id": 1667377095, "name": "St. Johann Apotheke", "amenity": "pharmacy", "lat": 47.5644741, "lon": 7.5838729, "radius": 1000}, {"id": 1668864827, "name": "Café Siesta", "amenity": "cafe", "lat": 47.5690053, "lon": 7.5965148, "radius": 1000}, {"id": 1668864832, "name": "Musical Bar", "amenity": "pub", "lat": 47.5690036, "lon": 7.5973736, "radius": 1000}, {"id": 1769276555, "name": "Royal Grill", "amenity": "fast_food", "lat": 47.5668682, "lon": 7.5953324, "radius": 1000}, {"id": 1936085288, "name": "Henry's", "amenity": "bar", "lat": 47.5627057, "lon": 7.5912762, "radius": 1000}, {"id": 2074770492, "name": "Bar Les Trois Rois", "amenity": "bar", "lat": 47.5603089, "lon": 7.5877843, "radius": 1000}, {"id": 2381403698, "name": "Café frühling", "amenity": "cafe", "lat": 47.5677589, "lon": 7.5903535, "radius": 1000}, {"id": 2434405556, "name": "BaRquette", "amenity": "cafe", "lat": 47.5734801, "lon": 7.5781155, "radius": 1000}, {"id": 2434405564, "name": "Cafe", "amenity": "cafe", "lat": 47.5745192, "lon": 7.5778831, "radius": 1000}, {"id": 2434405567, "name": "Campus Apotheke", "amenity": "pharmacy", "lat": 47.5735287, "lon": 7.579618, "radius": 1000}, {"id": 2434405622, "name": "Osteria Dodici", "amenity": "restaurant", "lat": 47.5737076, "lon": 7.5793775, "radius": 1000}, {"id": 2434405628, "name": "Personalrestaurant", "amenity": "restaurant", "lat": 47.5746099, "lon": 7.5783102, "radius": 1000}, {"id": 2434407273, "name": "n/a", "amenity": "atm", "lat": 47.574307, "lon": 7.5779922, "radius": 1000}, {"id": 2434407311, "name": "n/a", "amenity": "atm", "lat": 47.5742848, "lon": 7.5780077, "radius": 1000}, {"id": 2434407887, "name": "Restaurant Choice", "amenity": "restaurant", "lat": 47.573967, "lon": 7.5791413, "radius": 1000}, {"id": 2434407890, "name": "Restaurant Cloud", "amenity": "restaurant", "lat": 47.5740444, "lon": 7.5785507, "radius": 1000}, {"id": 2434407893, "name": "Starbucks", "amenity": "cafe", "lat": 47.5723622, "lon": 7.5803362, "radius": 1000}, {"id": 2434407896, "name": "Snack Corner", "amenity": "restaurant", "lat": 47.5734024, "lon": 7.5809331, "radius": 1000}, {"id": 2434407899, "name": "Kiosk", "amenity": "restaurant", "lat": 47.5748146, "lon": 7.5781215, "radius": 1000}, {"id": 2434407900, "name": "Visitors' café", "amenity": "cafe", "lat": 47.5729464, "lon": 7.5804932, "radius": 1000}, {"id": 2434421992, "name": "Kiosk", "amenity": "restaurant", "lat": 47.5713407, "lon": 7.5877225, "radius": 1000}, {"id": 2559593325, "name": "Efringerhof", "amenity": "restaurant", "lat": 47.5673371, "lon": 7.5963892, "radius": 1000}, {"id": 2609287302, "name": "UB Medizin", "amenity": "library", "lat": 47.560048, "lon": 7.5871287, "radius": 1000}, {"id": 2616015642, "name": "Vogesenstube", "amenity": "restaurant", "lat": 47.5688305, "lon": 7.5795549, "radius": 1000}, {"id": 2616015647, "name": "Bistro Munarts", "amenity": "restaurant", "lat": 47.5693206, "lon": 7.5791429, "radius": 1000}, {"id": 2616020991, "name": "Pizza Point", "amenity": "restaurant", "lat": 47.5684632, "lon": 7.5802632, "radius": 1000}, {"id": 2616596286, "name": "Europa Apotheke", "amenity": "pharmacy", "lat": 47.5695378, "lon": 7.5792118, "radius": 1000}, {"id": 2663868065, "name": "Volta Pizza & Kebap Haus", "amenity": "fast_food", "lat": 47.5683075, "lon": 7.5800741, "radius": 1000}, {"id": 2663868078, "name": "Humor Labor Pello", "amenity": "restaurant", "lat": 47.5669753, "lon": 7.5792029, "radius": 1000}, {"id": 2700988691, "name": "24 Stunden Apotheke Basel", "amenity": "pharmacy", "lat": 47.5610509, "lon": 7.5856914, "radius": 1000}, {"id": 2901296694, "name": "Jêle Café", "amenity": "cafe", "lat": 47.5663556, "lon": 7.5758801, "radius": 1000}, {"id": 2901296695, "name": "Nordbahnhof", "amenity": "restaurant", "lat": 47.566457, "lon": 7.5761162, "radius": 1000}, {"id": 2971278565, "name": "n/a", "amenity": "atm", "lat": 47.5612665, "lon": 7.5934854, "radius": 1000}, {"id": 2971278566, "name": "n/a", "amenity": "atm", "lat": 47.5623556, "lon": 7.5941072, "radius": 1000}, {"id": 2971278567, "name": "n/a", "amenity": "atm", "lat": 47.5623902, "lon": 7.5941275, "radius": 1000}, {"id": 2971278569, "name": "n/a", "amenity": "atm", "lat": 47.568672, "lon": 7.5897794, "radius": 1000}, {"id": 2971278570, "name": "n/a", "amenity": "atm", "lat": 47.5711378, "lon": 7.5774614, "radius": 1000}, {"id": 2984213160, "name": "Oetlinger-Buvette", "amenity": "bar", "lat": 47.5670666, "lon": 7.58652, "radius": 1000}, {"id": 2984329486, "name": "Volkshaus Basel", "amenity": "bar", "lat": 47.5610858, "lon": 7.5936202, "radius": 1000}, {"id": 2987527171, "name": "KABAR", "amenity": "bar", "lat": 47.5636143, "lon": 7.5908456, "radius": 1000}, {"id": 3077292533, "name": "Tapeo Tapas Bar La Terraza", "amenity": "restaurant", "lat": 47.566436, "lon": 7.597422, "radius": 1000}, {"id": 3207784678, "name": "Musical Grill", "amenity": "fast_food", "lat": 47.5687224, "lon": 7.597405, "radius": 1000}, {"id": 3207784739, "name": "Rössli", "amenity": "restaurant", "lat": 47.5700863, "lon": 7.596641, "radius": 1000}, {"id": 3207784771, "name": "Thai Café", "amenity": "restaurant", "lat": 47.5698504, "lon": 7.5973694, "radius": 1000}, {"id": 3207784808, "name": "Nordbar", "amenity": "bar", "lat": 47.5704484, "lon": 7.5955243, "radius": 1000}, {"id": 3207784844, "name": "Che que lomo", "amenity": "restaurant", "lat": 47.5705566, "lon": 7.594893, "radius": 1000}, {"id": 3207784886, "name": "GGG Stadtbibliothek Bläsi", "amenity": "library", "lat": 47.5687038, "lon": 7.591119, "radius": 1000}, {"id": 3207784899, "name": "Habesha", "amenity": "restaurant", "lat": 47.5701487, "lon": 7.596197, "radius": 1000}, {"id": 3208776967, "name": "8Bar", "amenity": "pub", "lat": 47.5603488, "lon": 7.5916665, "radius": 1000}, {"id": 3208777028, "name": "Urban Greek", "amenity": "restaurant", "lat": 47.5658332, "lon": 7.5956113, "radius": 1000}, {"id": 3208777122, "name": "Brauerzunft", "amenity": "restaurant", "lat": 47.5604591, "lon": 7.5917922, "radius": 1000}, {"id": 3208777203, "name": "Consum", "amenity": "bar", "lat": 47.5602389, "lon": 7.5920448, "radius": 1000}, {"id": 3208777648, "name": "Dönerstop", "amenity": "fast_food", "lat": 47.5617299, "lon": 7.5929437, "radius": 1000}, {"id": 3208777742, "name": "Lu", "amenity": "fast_food", "lat": 47.5662885, "lon": 7.5918563, "radius": 1000}, {"id": 3220396501, "name": "Carambolage", "amenity": "bar", "lat": 47.5683278, "lon": 7.6004231, "radius": 1000}, {"id": 3728369338, "name": "Nua", "amenity": "restaurant", "lat": 47.5660088, "lon": 7.5975782, "radius": 1000}, {"id": 3751874033, "name": "Vegitat", "amenity": "fast_food", "lat": 47.5656938, "lon": 7.5913352, "radius": 1000}, {"id": 3758773688, "name": "La Fourchette", "amenity": "restaurant", "lat": 47.5680679, "lon": 7.5905993, "radius": 1000}, {"id": 3758796724, "name": "Gemeinsam Café", "amenity": "cafe", "lat": 47.5698858, "lon": 7.5910258, "radius": 1000}, {"id": 3787636235, "name": "kebab Square", "amenity": "fast_food", "lat": 47.5622375, "lon": 7.5945797, "radius": 1000}, {"id": 3888881365, "name": "Le S", "amenity": "restaurant", "lat": 47.5690986, "lon": 7.5993385, "radius": 1000}, {"id": 3888976547, "name": "Matthäus Apotheke", "amenity": "pharmacy", "lat": 47.5688536, "lon": 7.5965248, "radius": 1000}, {"id": 3890667652, "name": "Boo Messeplatz", "amenity": "restaurant", "lat": 47.5642735, "lon": 7.5983857, "radius": 1000}, {"id": 3890667961, "name": "CaPuccini", "amenity": "cafe", "lat": 47.5629082, "lon": 7.597009, "radius": 1000}, {"id": 3901556434, "name": "zem alte Schluuch", "amenity": "restaurant", "lat": 47.5608684, "lon": 7.5915059, "radius": 1000}, {"id": 3972102127, "name": "Friends Bar", "amenity": "bar", "lat": 47.5663064, "lon": 7.5907055, "radius": 1000}, {"id": 4031043644, "name": "Café Bar Rosenkranz", "amenity": "cafe", "lat": 47.5634301, "lon": 7.5762712, "radius": 1000}, {"id": 4031071830, "name": "Trattoria Bar Da Sonny", "amenity": "restaurant", "lat": 47.5680565, "lon": 7.5763815, "radius": 1000}, {"id": 4031079476, "name": "The Kitchen Focacceria", "amenity": "fast_food", "lat": 47.5684475, "lon": 7.5796802, "radius": 1000}, {"id": 4031085803, "name": "Vegitat", "amenity": "fast_food", "lat": 47.5682433, "lon": 7.5801469, "radius": 1000}, {"id": 4031088875, "name": "Volta Bräu", "amenity": "bar", "lat": 47.5709666, "lon": 7.5795463, "radius": 1000}, {"id": 4031101008, "name": "Escape Bar", "amenity": "bar", "lat": 47.5704112, "lon": 7.5780681, "radius": 1000}, {"id": 4064658548, "name": "Valentino's Place", "amenity": "restaurant", "lat": 47.5658489, "lon": 7.590881, "radius": 1000}, {"id": 4064658549, "name": "Flore", "amenity": "bar", "lat": 47.5648065, "lon": 7.5912772, "radius": 1000}, {"id": 4064660679, "name": "Didi Offensiv - Fussballkulturbar", "amenity": "bar", "lat": 47.5656871, "lon": 7.5893309, "radius": 1000}, {"id": 4144545589, "name": "Lily's", "amenity": "restaurant", "lat": 47.5612047, "lon": 7.5940058, "radius": 1000}, {"id": 4150413389, "name": "Basso", "amenity": "restaurant", "lat": 47.5734205, "lon": 7.5834511, "radius": 1000}, {"id": 4166045869, "name": "Internetcafé Planet13", "amenity": "cafe", "lat": 47.56559, "lon": 7.5913444, "radius": 1000}, {"id": 4264494738, "name": "Johanniter Café - Bar", "amenity": "bar", "lat": 47.5645288, "lon": 7.5834065, "radius": 1000}, {"id": 4273041689, "name": "Zur Mägd", "amenity": "restaurant", "lat": 47.5638092, "lon": 7.5841218, "radius": 1000}, {"id": 4371220437, "name": "Flora Buvette", "amenity": "fast_food", "lat": 47.5638697, "lon": 7.5879839, "radius": 1000}, {"id": 4377182496, "name": "New Bombay am Rhein", "amenity": "restaurant", "lat": 47.5616693, "lon": 7.5861934, "radius": 1000}, {"id": 4377355190, "name": "Sri Veda", "amenity": "restaurant", "lat": 47.564904, "lon": 7.5835395, "radius": 1000}, {"id": 4377355191, "name": "Rhy Imbiss", "amenity": "restaurant", "lat": 47.5644225, "lon": 7.5834944, "radius": 1000}, {"id": 4377355289, "name": "Somara", "amenity": "fast_food", "lat": 47.5643678, "lon": 7.5835345, "radius": 1000}, {"id": 4377359796, "name": "Ackermannshof", "amenity": "restaurant", "lat": 47.5631097, "lon": 7.5846236, "radius": 1000}, {"id": 4417769694, "name": "Portofino Basel", "amenity": "restaurant", "lat": 47.5610761, "lon": 7.5871271, "radius": 1000}, {"id": 4447974700, "name": "LoLa", "amenity": "restaurant", "lat": 47.5684242, "lon": 7.5771542, "radius": 1000}, {"id": 4601259258, "name": "Zuggerbegg Bubeck", "amenity": "cafe", "lat": 47.5625028, "lon": 7.5966029, "radius": 1000}, {"id": 4601267408, "name": "Zum Schmale Wurf", "amenity": "restaurant", "lat": 47.5602748, "lon": 7.5916791, "radius": 1000}, {"id": 4665834588, "name": "Astro Fries", "amenity": "fast_food", "lat": 47.5664318, "lon": 7.5925697, "radius": 1000}, {"id": 4701573904, "name": "Roter Bären", "amenity": "restaurant", "lat": 47.5616814, "lon": 7.5915271, "radius": 1000}, {"id": 4714567615, "name": "SMUK Café Bar", "amenity": "cafe", "lat": 47.567226, "lon": 7.5958963, "radius": 1000}, {"id": 4749555721, "name": "Avant-Gouz", "amenity": "restaurant", "lat": 47.5677168, "lon": 7.5948728, "radius": 1000}, {"id": 4895556124, "name": "RENÉE", "amenity": "bar", "lat": 47.5625934, "lon": 7.5914003, "radius": 1000}, {"id": 4974951772, "name": "Krishna", "amenity": "restaurant", "lat": 47.5681757, "lon": 7.580543, "radius": 1000}, {"id": 4975887622, "name": "MamaEat", "amenity": "fast_food", "lat": 47.5636831, "lon": 7.5825906, "radius": 1000}, {"id": 5001393667, "name": "Grand Café Bar", "amenity": "cafe", "lat": 47.5619853, "lon": 7.5952695, "radius": 1000}, {"id": 5016417015, "name": "RhyWyera", "amenity": "restaurant", "lat": 47.561092, "lon": 7.5905972, "radius": 1000}, {"id": 5130247921, "name": "Klara", "amenity": "fast_food", "lat": 47.562429, "lon": 7.5955042, "radius": 1000}, {"id": 5157189624, "name": "Indian Tandoori Palace", "amenity": "restaurant", "lat": 47.5598263, "lon": 7.5848809, "radius": 1000}, {"id": 5157189625, "name": "ZA ZAA - Libanesisches Restaurant", "amenity": "restaurant", "lat": 47.5603036, "lon": 7.5851995, "radius": 1000}, {"id": 5248674577, "name": "Grenzwert", "amenity": "bar", "lat": 47.5618747, "lon": 7.5915805, "radius": 1000}, {"id": 5419675922, "name": "Grotto", "amenity": "bar", "lat": 47.5621814, "lon": 7.5917655, "radius": 1000}, {"id": 5419683121, "name": "Muusfalle", "amenity": "bar", "lat": 47.5621534, "lon": 7.5916868, "radius": 1000}, {"id": 5419684821, "name": "Captain Cook Bar", "amenity": "bar", "lat": 47.562287, "lon": 7.5914878, "radius": 1000}, {"id": 5426983920, "name": "roots", "amenity": "restaurant", "lat": 47.56981, "lon": 7.5830455, "radius": 1000}, {"id": 5477492770, "name": "Zum Eck", "amenity": "bar", "lat": 47.5633475, "lon": 7.5830139, "radius": 1000}, {"id": 5698898524, "name": "Centro USB", "amenity": "restaurant", "lat": 47.5615953, "lon": 7.581705, "radius": 1000}, {"id": 5698904086, "name": "Centrino USB", "amenity": "cafe", "lat": 47.5615943, "lon": 7.5818416, "radius": 1000}, {"id": 5698913601, "name": "Giardino USB", "amenity": "cafe", "lat": 47.5621303, "lon": 7.583033, "radius": 1000}, {"id": 5744291513, "name": "Frozen Yogurt", "amenity": "cafe", "lat": 47.5601064, "lon": 7.5874944, "radius": 1000}, {"id": 5744291515, "name": "Confiserie Bachmann", "amenity": "cafe", "lat": 47.5600105, "lon": 7.5875668, "radius": 1000}, {"id": 5744306322, "name": "Pizzeria Fiorentina", "amenity": "restaurant", "lat": 47.560758, "lon": 7.5873603, "radius": 1000}, {"id": 5790356611, "name": "UBS", "amenity": "bank", "lat": 47.5743847, "lon": 7.5789412, "radius": 1000}, {"id": 5820380004, "name": "Löwenapotheke", "amenity": "pharmacy", "lat": 47.5609333, "lon": 7.5917459, "radius": 1000}, {"id": 6056389765, "name": "Bity Crypto ATM", "amenity": "atm", "lat": 47.5627511, "lon": 7.5923442, "radius": 1000}, {"id": 6133118090, "name": "Stadtkeller", "amenity": "restaurant", "lat": 47.559447, "lon": 7.5875448, "radius": 1000}, {"id": 6239202286, "name": "Magical Cafe", "amenity": "cafe", "lat": 47.5699745, "lon": 7.5993614, "radius": 1000}, {"id": 6318613814, "name": "Ufer7", "amenity": "restaurant", "lat": 47.5610452, "lon": 7.5906378, "radius": 1000}, {"id": 6388624275, "name": "LA", "amenity": "restaurant", "lat": 47.5628093, "lon": 7.5848459, "radius": 1000}, {"id": 6780075813, "name": "Saner Apotheke", "amenity": "pharmacy", "lat": 47.5610331, "lon": 7.5920108, "radius": 1000}, {"id": 6780081106, "name": "Greifen Apotheke", "amenity": "pharmacy", "lat": 47.5621355, "lon": 7.5930825, "radius": 1000}, {"id": 6780094234, "name": "n/a", "amenity": "atm", "lat": 47.5661075, "lon": 7.5909485, "radius": 1000}, {"id": 6868688829, "name": "Barfly", "amenity": "bar", "lat": 47.5627654, "lon": 7.584874, "radius": 1000}, {"id": 6923434369, "name": "Zum Johann", "amenity": "bar", "lat": 47.5676265, "lon": 7.5807154, "radius": 1000}, {"id": 6954999086, "name": "Taverne Johann", "amenity": "restaurant", "lat": 47.5650038, "lon": 7.5782226, "radius": 1000}, {"id": 6958402189, "name": "Locanda", "amenity": "bar", "lat": 47.564069, "lon": 7.5977405, "radius": 1000}, {"id": 7003029881, "name": "Casa Piccola Italia", "amenity": "restaurant", "lat": 47.570009, "lon": 7.5974416, "radius": 1000}, {"id": 7261553186, "name": "Pink Pizza", "amenity": "fast_food", "lat": 47.576299, "lon": 7.5888736, "radius": 1000}, {"id": 7450557434, "name": "Manora", "amenity": "restaurant", "lat": 47.5610983, "lon": 7.592742, "radius": 1000}, {"id": 7450557435, "name": "Starbucks Claraplatz", "amenity": "cafe", "lat": 47.5614183, "lon": 7.5932853, "radius": 1000}, {"id": 7465675393, "name": "Zur Rose", "amenity": "pharmacy", "lat": 47.56163, "lon": 7.5920695, "radius": 1000}, {"id": 7483122924, "name": "Amavita Rheinbrücke", "amenity": "pharmacy", "lat": 47.561403, "lon": 7.5922099, "radius": 1000}, {"id": 7486388780, "name": "Medbase Apotheke Vogesen", "amenity": "pharmacy", "lat": 47.568252, "lon": 7.5792322, "radius": 1000}, {"id": 7529438648, "name": "Burger Meister", "amenity": "fast_food", "lat": 47.5620203, "lon": 7.593601, "radius": 1000}, {"id": 7554138216, "name": "Dunkin'", "amenity": "fast_food", "lat": 47.5613474, "lon": 7.5921901, "radius": 1000}, {"id": 7572625269, "name": "Bank-now", "amenity": "bank", "lat": 47.5624781, "lon": 7.5957236, "radius": 1000}, {"id": 7673740691, "name": "Migros Restaurant", "amenity": "restaurant", "lat": 47.5618305, "lon": 7.5925019, "radius": 1000}, {"id": 7683239068, "name": "VITO Klybeck", "amenity": "restaurant", "lat": 47.5672076, "lon": 7.5908596, "radius": 1000}, {"id": 7683254632, "name": "Fujin Sushi bar", "amenity": "restaurant", "lat": 47.567279, "lon": 7.5908338, "radius": 1000}, {"id": 7747174184, "name": "Pizzeria Da Pia", "amenity": "restaurant", "lat": 47.5709099, "lon": 7.5920312, "radius": 1000}, {"id": 7747207685, "name": "Drei Rosen", "amenity": "restaurant", "lat": 47.570532, "lon": 7.5905079, "radius": 1000}, {"id": 7773338162, "name": "OFF", "amenity": "bar", "lat": 47.5693615, "lon": 7.5899974, "radius": 1000}, {"id": 7778233544, "name": "BrauBudeBasel", "amenity": "bar", "lat": 47.567672, "lon": 7.5918704, "radius": 1000}, {"id": 7784095493, "name": "Globâle", "amenity": "restaurant", "lat": 47.562871, "lon": 7.5937258, "radius": 1000}, {"id": 7784095495, "name": "Whisky Bar", "amenity": "cafe", "lat": 47.5647535, "lon": 7.592706, "radius": 1000}, {"id": 7784095496, "name": "Concordia", "amenity": "restaurant", "lat": 47.5655363, "lon": 7.5920557, "radius": 1000}, {"id": 7784095498, "name": "Rouine", "amenity": "bar", "lat": 47.5666217, "lon": 7.5924914, "radius": 1000}, {"id": 7784095499, "name": "Hammer Apotheke", "amenity": "pharmacy", "lat": 47.567587, "lon": 7.5952345, "radius": 1000}, {"id": 7784095500, "name": "pusat cafe bar", "amenity": "bar", "lat": 47.5678995, "lon": 7.5948047, "radius": 1000}, {"id": 7784409617, "name": "Star Grill", "amenity": "fast_food", "lat": 47.5627955, "lon": 7.5919442, "radius": 1000}, {"id": 7806623582, "name": "Hoffmann's Bagel", "amenity": "fast_food", "lat": 47.5671995, "lon": 7.596898, "radius": 1000}, {"id": 7806623584, "name": "Pandarosa", "amenity": "restaurant", "lat": 47.5644099, "lon": 7.5984284, "radius": 1000}, {"id": 7806657986, "name": "Lyz Bar & Lounge", "amenity": "bar", "lat": 47.5702979, "lon": 7.5782148, "radius": 1000}, {"id": 7809972322, "name": "Boo", "amenity": "restaurant", "lat": 47.5670345, "lon": 7.5909027, "radius": 1000}, {"id": 7809972323, "name": "The Kebab Factory", "amenity": "fast_food", "lat": 47.5680175, "lon": 7.5903641, "radius": 1000}, {"id": 7809972326, "name": "Savanna", "amenity": "restaurant", "lat": 47.5692168, "lon": 7.5912968, "radius": 1000}, {"id": 7871792488, "name": "Du Pont", "amenity": "restaurant", "lat": 47.560565, "lon": 7.5910314, "radius": 1000}, {"id": 7995309310, "name": "Pizza Picassso", "amenity": "restaurant", "lat": 47.5694979, "lon": 7.5901783, "radius": 1000}, {"id": 8010710188, "name": "Chanthaburi", "amenity": "restaurant", "lat": 47.56648, "lon": 7.5916548, "radius": 1000}, {"id": 8012279898, "name": "Sultan Saray", "amenity": "fast_food", "lat": 47.5664562, "lon": 7.5914046, "radius": 1000}, {"id": 8012279900, "name": "VeggEast", "amenity": "fast_food", "lat": 47.565946, "lon": 7.5897567, "radius": 1000}, {"id": 8041311738, "name": "Ta Cave", "amenity": "bar", "lat": 47.5624283, "lon": 7.5909908, "radius": 1000}, {"id": 8063487485, "name": "Herz", "amenity": "bar", "lat": 47.5623438, "lon": 7.5953325, "radius": 1000}, {"id": 8126685107, "name": "Primarschulhaus Erlenmatt", "amenity": "school", "lat": 47.5689989, "lon": 7.6004078, "radius": 1000}, {"id": 8143805822, "name": "Nordtangente Sportsbar", "amenity": "pub", "lat": 47.5696025, "lon": 7.5755884, "radius": 1000}, {"id": 8500247484, "name": "Pizzeria La Perla", "amenity": "restaurant", "lat": 47.5653483, "lon": 7.595655, "radius": 1000}, {"id": 8537314356, "name": "Sottosopra", "amenity": "restaurant", "lat": 47.5622551, "lon": 7.595159, "radius": 1000}, {"id": 8729246504, "name": "Clarahuus", "amenity": "parking", "lat": 47.5622393, "lon": 7.5921052, "radius": 1000}, {"id": 8806220782, "name": "Dreirosen Apotheke", "amenity": "pharmacy", "lat": 47.5689793, "lon": 7.5906307, "radius": 1000}, {"id": 8909393066, "name": "PaSiWo", "amenity": "restaurant", "lat": 47.5633469, "lon": 7.5921254, "radius": 1000}, {"id": 8909431468, "name": "Finkmüller", "amenity": "cafe", "lat": 47.5658557, "lon": 7.5912746, "radius": 1000}, {"id": 8911103620, "name": "Mezzo", "amenity": "restaurant", "lat": 47.5685381, "lon": 7.5804652, "radius": 1000}, {"id": 8990082842, "name": "Basler Kebabhaus", "amenity": "fast_food", "lat": 47.5636317, "lon": 7.5962772, "radius": 1000}, {"id": 9006190876, "name": "The Auld Dubliner", "amenity": "pub", "lat": 47.5627362, "lon": 7.5973019, "radius": 1000}, {"id": 9006466009, "name": "Küsne Kebab", "amenity": "fast_food", "lat": 47.5620904, "lon": 7.5931393, "radius": 1000}, {"id": 9006499388, "name": "Clarastübli", "amenity": "restaurant", "lat": 47.5626048, "lon": 7.5962248, "radius": 1000}, {"id": 9007960432, "name": "Pizza Maestro", "amenity": "fast_food", "lat": 47.5656888, "lon": 7.5878454, "radius": 1000}, {"id": 9274893539, "name": "Verde", "amenity": "restaurant", "lat": 47.562012, "lon": 7.595332, "radius": 1000}, {"id": 9350106079, "name": "Empanadas", "amenity": "restaurant", "lat": 47.5629072, "lon": 7.5918759, "radius": 1000}, {"id": 9350906407, "name": "Three Ladies", "amenity": "cafe", "lat": 47.5621986, "lon": 7.5856935, "radius": 1000}, {"id": 9381403405, "name": "Rhyschänzli", "amenity": "restaurant", "lat": 47.5720882, "lon": 7.5776656, "radius": 1000}, {"id": 9381876059, "name": "Cafe St. Johan", "amenity": "cafe", "lat": 47.5685235, "lon": 7.5798515, "radius": 1000}, {"id": 9381912099, "name": "Lotus Garden", "amenity": "restaurant", "lat": 47.5665142, "lon": 7.5808066, "radius": 1000}, {"id": 9482868955, "name": "Detto Pronto", "amenity": "fast_food", "lat": 47.5705037, "lon": 7.5952502, "radius": 1000}, {"id": 9748222017, "name": "Aktienmühle", "amenity": "cafe", "lat": 47.5759624, "lon": 7.5913195, "radius": 1000}, {"id": 9832402717, "name": "Restaurant Thai Family", "amenity": "restaurant", "lat": 47.5630636, "lon": 7.5964143, "radius": 1000}, {"id": 9880875589, "name": "n/a", "amenity": "atm", "lat": 47.5624821, "lon": 7.5832677, "radius": 1000}, {"id": 9905309814, "name": "Choi Asian Garden", "amenity": "restaurant", "lat": 47.5658897, "lon": 7.5886535, "radius": 1000}, {"id": 9932434117, "name": "The Siam Delicious", "amenity": "fast_food", "lat": 47.5662091, "lon": 7.5912098, "radius": 1000}, {"id": 10002231723, "name": "n/a", "amenity": "parking", "lat": 47.5640107, "lon": 7.5817884, "radius": 1000}, {"id": 10002233136, "name": "n/a", "amenity": "parking", "lat": 47.5641071, "lon": 7.5821849, "radius": 1000}, {"id": 10004623701, "name": "Castel Rosso", "amenity": "restaurant", "lat": 47.5609622, "lon": 7.5942114, "radius": 1000}, {"id": 10031814189, "name": "Singh Indische Spezialitäten", "amenity": "restaurant", "lat": 47.5659985, "lon": 7.588767, "radius": 1000}, {"id": 10031814202, "name": "Multi Kitchen Markthalle Feldberg", "amenity": "fast_food", "lat": 47.5656705, "lon": 7.5877496, "radius": 1000}, {"id": 10031814204, "name": "Messo Burger", "amenity": "fast_food", "lat": 47.5656439, "lon": 7.5876608, "radius": 1000}, {"id": 10031838986, "name": "walther bistrobar", "amenity": "restaurant", "lat": 47.5629813, "lon": 7.5890317, "radius": 1000}, {"id": 10031838987, "name": "Bar Amber", "amenity": "bar", "lat": 47.5623417, "lon": 7.5895046, "radius": 1000}, {"id": 10103183992, "name": "MOiDA", "amenity": "restaurant", "lat": 47.5719335, "lon": 7.5771136, "radius": 1000}, {"id": 10114569528, "name": "Café Bar Treffpunkt", "amenity": "bar", "lat": 47.5692057, "lon": 7.5795769, "radius": 1000}, {"id": 10114569529, "name": "Libelle", "amenity": "restaurant", "lat": 47.5706283, "lon": 7.57748, "radius": 1000}, {"id": 10288188203, "name": "Grenzwert", "amenity": "bar", "lat": 47.5618775, "lon": 7.5916103, "radius": 1000}, {"id": 10606713507, "name": "Lu", "amenity": "fast_food", "lat": 47.5663068, "lon": 7.5918813, "radius": 1000}, {"id": 10736299805, "name": "n/a", "amenity": "restaurant", "lat": 47.567018, "lon": 7.5792944, "radius": 1000}, {"id": 10791215705, "name": "Humor Labor Pello", "amenity": "restaurant", "lat": 47.5669191, "lon": 7.5791756, "radius": 1000}, {"id": 10837881905, "name": "Burgermeister", "amenity": "fast_food", "lat": 47.5620296, "lon": 7.5937789, "radius": 1000}, {"id": 10884236353, "name": "Fass Bar", "amenity": "pub", "lat": 47.5657565, "lon": 7.5956208, "radius": 1000}, {"id": 10935222399, "name": "Johanniter", "amenity": "restaurant", "lat": 47.5687887, "lon": 7.5815176, "radius": 1000}, {"id": 11413486821, "name": "Brasserie", "amenity": "restaurant", "lat": 47.5604879, "lon": 7.5877111, "radius": 1000}, {"id": 11413486822, "name": "Le Cheval Blanc", "amenity": "restaurant", "lat": 47.5605777, "lon": 7.5875977, "radius": 1000}, {"id": 11427348301, "name": "Pizza Pronta", "amenity": "fast_food", "lat": 47.5682571, "lon": 7.5798928, "radius": 1000}, {"id": 11770989356, "name": "Burek King", "amenity": "fast_food", "lat": 47.562112, "lon": 7.5939893, "radius": 1000}, {"id": 11876754508, "name": "daniska", "amenity": "cafe", "lat": 47.5654942, "lon": 7.5880503, "radius": 1000}, {"id": 12000710869, "name": "Chanthabury", "amenity": "restaurant", "lat": 47.566474, "lon": 7.5916367, "radius": 1000}, {"id": 12017251394, "name": "Saint Louis Buvette", "amenity": "restaurant", "lat": 47.5669332, "lon": 7.5831382, "radius": 1000}, {"id": 12218087775, "name": "Academia International", "amenity": "school", "lat": 47.5595737, "lon": 7.5876987, "radius": 1000}, {"id": 12374353061, "name": "Värdex Crypto ATM", "amenity": "atm", "lat": 47.5710044, "lon": 7.5768627, "radius": 1000}, {"id": 12374357989, "name": "Värdex Crypto ATM", "amenity": "atm", "lat": 47.5661956, "lon": 7.5900746, "radius": 1000}]}
{"address": "Erlenmattstr. 75, 4058 Basel", "price": 2880, "property_id": 4002039809, "area": "115m²", "rooms": 4.5, "lat": 47.5705088, "lon": 7.6031744, "amenities": [{"id": 71525550, "name": "Restaurant Zum Wilde Maa", "amenity": "restaurant", "lat": 47.5679494, "lon": 7.595093, "radius": 1000}, {"id": 71525553, "name": "Firenze", "amenity": "restaurant", "lat": 47.5692427, "lon": 7.5944428, "radius": 1000}, {"id": 71525557, "name": "Kiki Bar", "amenity": "pub", "lat": 47.5692456, "lon": 7.5941997, "radius": 1000}, {"id": 71525563, "name": "Cloves", "amenity": "restaurant", "lat": 47.5692033, "lon": 7.5913551, "radius": 1000}, {"id": 71525570, "name": "Senat Maki's", "amenity": "cafe", "lat": 47.5692456, "lon": 7.5938822, "radius": 1000}, {"id": 71525579, "name": "DejaVu", "amenity": "pub", "lat": 47.5694062, "lon": 7.5901309, "radius": 1000}, {"id": 71525588, "name": "Pizzeria Breisacherhof", "amenity": "restaurant", "lat": 47.5698877, "lon": 7.5916214, "radius": 1000}, {"id": 71525611, "name": "Gatto Nero", "amenity": "restaurant", "lat": 47.5677788, "lon": 7.5906834, "radius": 1000}, {"id": 75940582, "name": "Zum Goldenen Fass", "amenity": "restaurant", "lat": 47.5656669, "lon": 7.5956372, "radius": 1000}, {"id": 75940590, "name": "Europe", "amenity": "parking", "lat": 47.5632757, "lon": 7.5968304, "radius": 1000}, {"id": 122336608, "name": "Delfin", "amenity": "restaurant", "lat": 47.5665578, "lon": 7.5917694, "radius": 1000}, {"id": 138310840, "name": "Brombi", "amenity": "restaurant", "lat": 47.5705197, "lon": 7.5962519, "radius": 1000}, {"id": 254097107, "name": "Da Graziella", "amenity": "cafe", "lat": 47.5664559, "lon": 7.5928691, "radius": 1000}, {"id": 262502093, "name": "Acero", "amenity": "cafe", "lat": 47.5659948, "lon": 7.5941398, "radius": 1000}, {"id": 266810611, "name": "Zur Schwarzen Kunst", "amenity": "restaurant", "lat": 47.5761915, "lon": 7.5974297, "radius": 1000}, {"id": 273223637, "name": "Vogelsangschulhaus", "amenity": "school", "lat": 47.5633774, "lon": 7.6084402, "radius": 1000}, {"id": 276546395, "name": "n/a", "amenity": "parking", "lat": 47.5698379, "lon": 7.6131159, "radius": 1000}, {"id": 315128008, "name": "Sport Pub Milan", "amenity": "pub", "lat": 47.5689609, "lon": 7.5948146, "radius": 1000}, {"id": 493149217, "name": "Basler Kantonalbank", "amenity": "bank", "lat": 47.5664339, "lon": 7.6066374, "radius": 1000}, {"id": 529593919, "name": "Maulbeergrill", "amenity": "fast_food", "lat": 47.5676143, "lon": 7.6023449, "radius": 1000}, {"id": 585046279, "name": "Didi Bar", "amenity": "cafe", "lat": 47.5656436, "lon": 7.5934442, "radius": 1000}, {"id": 585047863, "name": "Saint Tropez", "amenity": "cafe", "lat": 47.5651584, "lon": 7.5940531, "radius": 1000}, {"id": 586277088, "name": "Punta Cana", "amenity": "restaurant", "lat": 47.5633753, "lon": 7.5962178, "radius": 1000}, {"id": 586281979, "name": "Bali", "amenity": "restaurant", "lat": 47.5627493, "lon": 7.5966598, "radius": 1000}, {"id": 586282496, "name": "Coop Vitality", "amenity": "pharmacy", "lat": 47.5629845, "lon": 7.5973118, "radius": 1000}, {"id": 590051414, "name": "Thai Family", "amenity": "restaurant", "lat": 47.5653158, "lon": 7.605048, "radius": 1000}, {"id": 590084594, "name": "Hong Kong", "amenity": "restaurant", "lat": 47.5651063, "lon": 7.5981445, "radius": 1000}, {"id": 592182051, "name": "Café Charlotte", "amenity": "cafe", "lat": 47.5648516, "lon": 7.6033861, "radius": 1000}, {"id": 796765566, "name": "Isbilir", "amenity": "fast_food", "lat": 47.5671452, "lon": 7.5952952, "radius": 1000}, {"id": 1028007577, "name": "Antik Café Bar", "amenity": "cafe", "lat": 47.5690588, "lon": 7.5902334, "radius": 1000}, {"id": 1385293549, "name": "n/a", "amenity": "atm", "lat": 47.5662743, "lon": 7.6136237, "radius": 1000}, {"id": 1668864827, "name": "Café Siesta", "amenity": "cafe", "lat": 47.5690053, "lon": 7.5965148, "radius": 1000}, {"id": 1668864832, "name": "Musical Bar", "amenity": "pub", "lat": 47.5690036, "lon": 7.5973736, "radius": 1000}, {"id": 1668865164, "name": "Schule für Gestaltung", "amenity": "school", "lat": 47.5636426, "lon": 7.6062991, "radius": 1000}, {"id": 1769276555, "name": "Royal Grill", "amenity": "fast_food", "lat": 47.5668682, "lon": 7.5953324, "radius": 1000}, {"id": 2549405062, "name": "Basler Kantonalbank", "amenity": "atm", "lat": 47.5638499, "lon": 7.5993087, "radius": 1000}, {"id": 2559593325, "name": "Efringerhof", "amenity": "restaurant", "lat": 47.5673371, "lon": 7.5963892, "radius": 1000}, {"id": 2800631394, "name": "Qbarana Lounge Bar", "amenity": "bar", "lat": 47.5687669, "lon": 7.6018111, "radius": 1000}, {"id": 2812453913, "name": "n/a", "amenity": "parking", "lat": 47.5657978, "lon": 7.6128342, "radius": 1000}, {"id": 3077292533, "name": "Tapeo Tapas Bar La Terraza", "amenity": "restaurant", "lat": 47.566436, "lon": 7.597422, "radius": 1000}, {"id": 3207784678, "name": "Musical Grill", "amenity": "fast_food", "lat": 47.5687224, "lon": 7.597405, "radius": 1000}, {"id": 3207784739, "name": "Rössli", "amenity": "restaurant", "lat": 47.5700863, "lon": 7.596641, "radius": 1000}, {"id": 3207784771, "name": "Thai Café", "amenity": "restaurant", "lat": 47.5698504, "lon": 7.5973694, "radius": 1000}, {"id": 3207784808, "name": "Nordbar", "amenity": "bar", "lat": 47.5704484, "lon": 7.5955243, "radius": 1000}, {"id": 3207784844, "name": "Che que lomo", "amenity": "restaurant", "lat": 47.5705566, "lon": 7.594893, "radius": 1000}, {"id": 3207784886, "name": "GGG Stadtbibliothek Bläsi", "amenity": "library", "lat": 47.5687038, "lon": 7.591119, "radius": 1000}, {"id": 3207784899, "name": "Habesha", "amenity": "restaurant", "lat": 47.5701487, "lon": 7.596197, "radius": 1000}, {"id": 3208777028, "name": "Urban Greek", "amenity": "restaurant", "lat": 47.5658332, "lon": 7.5956113, "radius": 1000}, {"id": 3208777742, "name": "Lu", "amenity": "fast_food", "lat": 47.5662885, "lon": 7.5918563, "radius": 1000}, {"id": 3220396501, "name": "Carambolage", "amenity": "bar", "lat": 47.5683278, "lon": 7.6004231, "radius": 1000}, {"id": 3220397133, "name": "Cafe 360", "amenity": "pub", "lat": 47.5676417, "lon": 7.6024174, "radius": 1000}, {"id": 3220397149, "name": "CHiCKPEA", "amenity": "restaurant", "lat": 47.5673966, "lon": 7.6009155, "radius": 1000}, {"id": 3224586205, "name": "The Chennai Kings", "amenity": "restaurant", "lat": 47.5682478, "lon": 7.6052881, "radius": 1000}, {"id": 3224586250, "name": "Happy Wok", "amenity": "restaurant", "lat": 47.568157, "lon": 7.6054465, "radius": 1000}, {"id": 3728369338, "name": "Nua", "amenity": "restaurant", "lat": 47.5660088, "lon": 7.5975782, "radius": 1000}, {"id": 3758773688, "name": "La Fourchette", "amenity": "restaurant", "lat": 47.5680679, "lon": 7.5905993, "radius": 1000}, {"id": 3758796724, "name": "Gemeinsam Café", "amenity": "cafe", "lat": 47.5698858, "lon": 7.5910258, "radius": 1000}, {"id": 3888881365, "name": "Le S", "amenity": "restaurant", "lat": 47.5690986, "lon": 7.5993385, "radius": 1000}, {"id": 3888976547, "name": "Matthäus Apotheke", "amenity": "pharmacy", "lat": 47.5688536, "lon": 7.5965248, "radius": 1000}, {"id": 3889420248, "name": "Bar Rouge", "amenity": "bar", "lat": 47.5644556, "lon": 7.6019009, "radius": 1000}, {"id": 3890667652, "name": "Boo Messeplatz", "amenity": "restaurant", "lat": 47.5642735, "lon": 7.5983857, "radius": 1000}, {"id": 3890667653, "name": "namamen Japanese Ramenbar Messe", "amenity": "restaurant", "lat": 47.5637483, "lon": 7.5996043, "radius": 1000}, {"id": 3890667654, "name": "Käfer Stube", "amenity": "restaurant", "lat": 47.5634011, "lon": 7.5999219, "radius": 1000}, {"id": 3890667961, "name": "CaPuccini", "amenity": "cafe", "lat": 47.5629082, "lon": 7.597009, "radius": 1000}, {"id": 3900491566, "name": "Heritage", "amenity": "restaurant", "lat": 47.5630151, "lon": 7.5993884, "radius": 1000}, {"id": 3900491567, "name": "n/a", "amenity": "atm", "lat": 47.5638698, "lon": 7.5992961, "radius": 1000}, {"id": 4110058268, "name": "Zytigs-stübli", "amenity": "cafe", "lat": 47.569695, "lon": 7.608954, "radius": 1000}, {"id": 4611892646, "name": "BKB", "amenity": "atm", "lat": 47.5672735, "lon": 7.607176, "radius": 1000}, {"id": 4665834588, "name": "Astro Fries", "amenity": "fast_food", "lat": 47.5664318, "lon": 7.5925697, "radius": 1000}, {"id": 4714567615, "name": "SMUK Café Bar", "amenity": "cafe", "lat": 47.567226, "lon": 7.5958963, "radius": 1000}, {"id": 4749555721, "name": "Avant-Gouz", "amenity": "restaurant", "lat": 47.5677168, "lon": 7.5948728, "radius": 1000}, {"id": 5261023566, "name": "feministische bibliothek @spit", "amenity": "library", "lat": 47.5684445, "lon": 7.6009464, "radius": 1000}, {"id": 5550633691, "name": "Bar du Nord", "amenity": "bar", "lat": 47.568121, "lon": 7.6065499, "radius": 1000}, {"id": 5588337360, "name": "Tiefgarage", "amenity": "parking", "lat": 47.5687073, "lon": 7.6111903, "radius": 1000}, {"id": 5588338976, "name": "Tiefgarage", "amenity": "parking", "lat": 47.5694527, "lon": 7.6105904, "radius": 1000}, {"id": 5588339495, "name": "n/a", "amenity": "parking", "lat": 47.570292, "lon": 7.6121308, "radius": 1000}, {"id": 5588341092, "name": "n/a", "amenity": "parking", "lat": 47.569626, "lon": 7.6139148, "radius": 1000}, {"id": 6239202286, "name": "Magical Cafe", "amenity": "cafe", "lat": 47.5699745, "lon": 7.5993614, "radius": 1000}, {"id": 6253646185, "name": "Zum Backofen", "amenity": "cafe", "lat": 47.5672994, "lon": 7.6110128, "radius": 1000}, {"id": 6389507428, "name": "McDonald's", "amenity": "fast_food", "lat": 47.5665097, "lon": 7.6066263, "radius": 1000}, {"id": 6440662485, "name": "Kaffi ELCH", "amenity": "cafe", "lat": 47.5711139, "lon": 7.6102383, "radius": 1000}, {"id": 6927157603, "name": "Coop Vitality", "amenity": "pharmacy", "lat": 47.5697544, "lon": 7.6036227, "radius": 1000}, {"id": 6958402189, "name": "Locanda", "amenity": "bar", "lat": 47.564069, "lon": 7.5977405, "radius": 1000}, {"id": 7003029881, "name": "Casa Piccola Italia", "amenity": "restaurant", "lat": 47.570009, "lon": 7.5974416, "radius": 1000}, {"id": 7206798585, "name": "Finkmüller Erlenmatt Ost", "amenity": "cafe", "lat": 47.5720995, "lon": 7.6014317, "radius": 1000}, {"id": 7683239068, "name": "VITO Klybeck", "amenity": "restaurant", "lat": 47.5672076, "lon": 7.5908596, "radius": 1000}, {"id": 7683254632, "name": "Fujin Sushi bar", "amenity": "restaurant", "lat": 47.567279, "lon": 7.5908338, "radius": 1000}, {"id": 7747174184, "name": "Pizzeria Da Pia", "amenity": "restaurant", "lat": 47.5709099, "lon": 7.5920312, "radius": 1000}, {"id": 7747207685, "name": "Drei Rosen", "amenity": "restaurant", "lat": 47.570532, "lon": 7.5905079, "radius": 1000}, {"id": 7762245664, "name": "SILO soulfood.", "amenity": "restaurant", "lat": 47.5720403, "lon": 7.6020549, "radius": 1000}, {"id": 7773338159, "name": "Domino's", "amenity": "fast_food", "lat": 47.5620432, "lon": 7.6003286, "radius": 1000}, {"id": 7773338162, "name": "OFF", "amenity": "bar", "lat": 47.5693615, "lon": 7.5899974, "radius": 1000}, {"id": 7778233543, "name": "Matt & Elly Brewery & Kitchen", "amenity": "restaurant", "lat": 47.56969, "lon": 7.6034296, "radius": 1000}, {"id": 7778233544, "name": "BrauBudeBasel", "amenity": "bar", "lat": 47.567672, "lon": 7.5918704, "radius": 1000}, {"id": 7784095498, "name": "Rouine", "amenity": "bar", "lat": 47.5666217, "lon": 7.5924914, "radius": 1000}, {"id": 7784095499, "name": "Hammer Apotheke", "amenity": "pharmacy", "lat": 47.567587, "lon": 7.5952345, "radius": 1000}, {"id": 7784095500, "name": "pusat cafe bar", "amenity": "bar", "lat": 47.5678995, "lon": 7.5948047, "radius": 1000}, {"id": 7806623582, "name": "Hoffmann's Bagel", "amenity": "fast_food", "lat": 47.5671995, "lon": 7.596898, "radius": 1000}, {"id": 7806623584, "name": "Pandarosa", "amenity": "restaurant", "lat": 47.5644099, "lon": 7.5984284, "radius": 1000}, {"id": 7809972322, "name": "Boo", "amenity": "restaurant", "lat": 47.5670345, "lon": 7.5909027, "radius": 1000}, {"id": 7809972323, "name": "The Kebab Factory", "amenity": "fast_food", "lat": 47.5680175, "lon": 7.5903641, "radius": 1000}, {"id": 7809972326, "name": "Savanna", "amenity": "restaurant", "lat": 47.5692168, "lon": 7.5912968, "radius": 1000}, {"id": 7810200918, "name": "OX Cafè Lounge", "amenity": "cafe", "lat": 47.5633705, "lon": 7.5985292, "radius": 1000}, {"id": 7995309310, "name": "Pizza Picassso", "amenity": "restaurant", "lat": 47.5694979, "lon": 7.5901783, "radius": 1000}, {"id": 8001068550, "name": "Anjappar", "amenity": "restaurant", "lat": 47.5660728, "lon": 7.6070988, "radius": 1000}, {"id": 8001068551, "name": "Hirzbrunnen-Apotheke", "amenity": "pharmacy", "lat": 47.5659451, "lon": 7.6072, "radius": 1000}, {"id": 8010710188, "name": "Chanthaburi", "amenity": "restaurant", "lat": 47.56648, "lon": 7.5916548, "radius": 1000}, {"id": 8012279898, "name": "Sultan Saray", "amenity": "fast_food", "lat": 47.5664562, "lon": 7.5914046, "radius": 1000}, {"id": 8125259187, "name": "Quartiertreffpunkt Gleis 58", "amenity": "restaurant", "lat": 47.5721088, "lon": 7.6001771, "radius": 1000}, {"id": 8126685107, "name": "Primarschulhaus Erlenmatt", "amenity": "school", "lat": 47.5689989, "lon": 7.6004078, "radius": 1000}, {"id": 8500247484, "name": "Pizzeria La Perla", "amenity": "restaurant", "lat": 47.5653483, "lon": 7.595655, "radius": 1000}, {"id": 8537314352, "name": "Isbilir Food", "amenity": "fast_food", "lat": 47.5633285, "lon": 7.5984282, "radius": 1000}, {"id": 8806220782, "name": "Dreirosen Apotheke", "amenity": "pharmacy", "lat": 47.5689793, "lon": 7.5906307, "radius": 1000}, {"id": 8990082842, "name": "Basler Kebabhaus", "amenity": "fast_food", "lat": 47.5636317, "lon": 7.5962772, "radius": 1000}, {"id": 9006190876, "name": "The Auld Dubliner", "amenity": "pub", "lat": 47.5627362, "lon": 7.5973019, "radius": 1000}, {"id": 9482868955, "name": "Detto Pronto", "amenity": "fast_food", "lat": 47.5705037, "lon": 7.5952502, "radius": 1000}, {"id": 9832402717, "name": "Restaurant Thai Family", "amenity": "restaurant", "lat": 47.5630636, "lon": 7.5964143, "radius": 1000}, {"id": 10008628400, "name": "Europainstitut der Universität Basel", "amenity": "university", "lat": 47.5647323, "lon": 7.606072, "radius": 1000}, {"id": 10140233773, "name": "ROBA BUONA", "amenity": "restaurant", "lat": 47.5719494, "lon": 7.6016523, "radius": 1000}, {"id": 10290989011, "name": "Che Vuoi", "amenity": "restaurant", "lat": 47.5634916, "lon": 7.5989185, "radius": 1000}, {"id": 10606351034, "name": "Heritage Restaurant", "amenity": "restaurant", "lat": 47.5632622, "lon": 7.5991218, "radius": 1000}, {"id": 10606351035, "name": "DB Gastronomie Betriebsrestaurant", "amenity": "restaurant", "lat": 47.5683186, "lon": 7.6061343, "radius": 1000}, {"id": 10606351037, "name": "Schoren Clubhüüsli", "amenity": "restaurant", "lat": 47.5738596, "lon": 7.6112794, "radius": 1000}, {"id": 10606474213, "name": "Cafe Chiara Claraspital", "amenity": "cafe", "lat": 47.5666708, "lon": 7.6140212, "radius": 1000}, {"id": 10606474214, "name": "ROSA im Park", "amenity": "cafe", "lat": 47.5659024, "lon": 7.6144414, "radius": 1000}, {"id": 10606713507, "name": "Lu", "amenity": "fast_food", "lat": 47.5663068, "lon": 7.5918813, "radius": 1000}, {"id": 10607908166, "name": "Angolo Italiano", "amenity": "restaurant", "lat": 47.5670069, "lon": 7.6009293, "radius": 1000}, {"id": 10608357008, "name": "Kitchen 41", "amenity": "restaurant", "lat": 47.5674377, "lon": 7.6017047, "radius": 1000}, {"id": 10884236353, "name": "Fass Bar", "amenity": "pub", "lat": 47.5657565, "lon": 7.5956208, "radius": 1000}, {"id": 11755443196, "name": "Café 4 you", "amenity": "cafe", "lat": 47.5625982, "lon": 7.6037697, "radius": 1000}, {"id": 12000710869, "name": "Chanthabury", "amenity": "restaurant", "lat": 47.566474, "lon": 7.5916367, "radius": 1000}, {"id": 12361595965, "name": "Universitätsbibliothek Rosental", "amenity": "library", "lat": 47.5669624, "lon": 7.601665, "radius": 1000}, {"id": 12393894853, "name": "Rosental Imbiss Colak kebab", "amenity": "fast_food", "lat": 47.5650047, "lon": 7.6037414, "radius": 1000}]}
{"address": "Käferholzstrasse 60, 8057 Zürich", "price": 2880, "property_id": 4001947102, "area": "115m²", "rooms": 4.5, "lat": 47.402542600000004, "lon": 8.532090116551142, "amenities": [{"id": 105443906, "name": "Gabbiano", "amenity": "restaurant", "lat": 47.409767, "lon": 8.5374793, "radius": 1000}, {"id": 253207101, "name": "Il Postino", "amenity": "restaurant", "lat": 47.400103, "lon": 8.5436425, "radius": 1000}, {"id": 285896841, "name": "Pizza Bros", "amenity": "restaurant", "lat": 47.4097743, "lon": 8.537357, "radius": 1000}, {"id": 304597368, "name": "Hang's", "amenity": "restaurant", "lat": 47.3972052, "lon": 8.5408759, "radius": 1000}, {"id": 329094569, "name": "Gonzalez", "amenity": "restaurant", "lat": 47.3962653, "lon": 8.5402882, "radius": 1000}, {"id": 411069901, "name": "Löwen", "amenity": "bar", "lat": 47.3953422, "lon": 8.5258288, "radius": 1000}, {"id": 480352081, "name": "Fallender Brunnenhof", "amenity": "restaurant", "lat": 47.402817, "lon": 8.5355605, "radius": 1000}, {"id": 488483086, "name": "New Avataar", "amenity": "restaurant", "lat": 47.3938594, "lon": 8.5311096, "radius": 1000}, {"id": 845099491, "name": "Kiosk / Restaurant", "amenity": "restaurant", "lat": 47.4048648, "lon": 8.5379355, "radius": 1000}, {"id": 1115819506, "name": "Giesserei Oerlikon", "amenity": "restaurant", "lat": 47.408614, "lon": 8.5376025, "radius": 1000}, {"id": 1137668847, "name": "Zürcher Kantonalbank", "amenity": "atm", "lat": 47.3979784, "lon": 8.5420896, "radius": 1000}, {"id": 1391382161, "name": "Hirsch-Apotheke", "amenity": "pharmacy", "lat": 47.3963465, "lon": 8.5408536, "radius": 1000}, {"id": 1391383876, "name": "Hirschwiesen-Apotheke", "amenity": "pharmacy", "lat": 47.4003419, "lon": 8.5439647, "radius": 1000}, {"id": 1592426153, "name": "Barcelona Restaurant", "amenity": "restaurant", "lat": 47.4020484, "lon": 8.5353195, "radius": 1000}, {"id": 1626579175, "name": "n/a", "amenity": "parking", "lat": 47.4075275, "lon": 8.5358765, "radius": 1000}, {"id": 2037084628, "name": "Gasthaus Hofwiesen", "amenity": "restaurant", "lat": 47.4063257, "lon": 8.5376266, "radius": 1000}, {"id": 2355693108, "name": "Lemon", "amenity": "restaurant", "lat": 47.4092114, "lon": 8.5377071, "radius": 1000}, {"id": 2383597668, "name": "Meister GAO", "amenity": "restaurant", "lat": 47.3972168, "lon": 8.5323442, "radius": 1000}, {"id": 2383597672, "name": "SAHltimbocca", "amenity": "restaurant", "lat": 47.3954854, "lon": 8.5318493, "radius": 1000}, {"id": 2479519173, "name": "Wehntal-Apotheke", "amenity": "pharmacy", "lat": 47.402496, "lon": 8.5358866, "radius": 1000}, {"id": 2514418477, "name": "Jeunesse", "amenity": "restaurant", "lat": 47.4041372, "lon": 8.5342275, "radius": 1000}, {"id": 2677704001, "name": "Tramblu", "amenity": "restaurant", "lat": 47.3983794, "lon": 8.536259, "radius": 1000}, {"id": 3250788311, "name": "Kafi Freud", "amenity": "cafe", "lat": 47.3959666, "lon": 8.5406154, "radius": 1000}, {"id": 3270483667, "name": "n/a", "amenity": "parking", "lat": 47.4067755, "lon": 8.532556, "radius": 1000}, {"id": 3389274208, "name": "Nihao", "amenity": "restaurant", "lat": 47.4024233, "lon": 8.5445394, "radius": 1000}, {"id": 3638530910, "name": "n/a", "amenity": "parking", "lat": 47.3940781, "lon": 8.5298427, "radius": 1000}, {"id": 3778147856, "name": "n/a", "amenity": "parking", "lat": 47.4005916, "lon": 8.5322197, "radius": 1000}, {"id": 4815870121, "name": "CHAIMA Thai Take Away", "amenity": "fast_food", "lat": 47.3950364, "lon": 8.5318488, "radius": 1000}, {"id": 4836599821, "name": "Hang's Gourmet Cuisine", "amenity": "restaurant", "lat": 47.3966207, "lon": 8.5405108, "radius": 1000}, {"id": 4958366047, "name": "Cucina", "amenity": "restaurant", "lat": 47.3957946, "lon": 8.5399353, "radius": 1000}, {"id": 4960082364, "name": "Cafeteria GZ Buchegg", "amenity": "cafe", "lat": 47.3989435, "lon": 8.5348343, "radius": 1000}, {"id": 5388344149, "name": "Paydos", "amenity": "cafe", "lat": 47.395935, "lon": 8.5400865, "radius": 1000}, {"id": 6343148993, "name": "Züri Bistro", "amenity": "fast_food", "lat": 47.3965002, "lon": 8.5409347, "radius": 1000}, {"id": 6350718195, "name": "Restaurant Bar Anna", "amenity": "restaurant", "lat": 47.3992912, "lon": 8.5401245, "radius": 1000}, {"id": 6391198064, "name": "n/a", "amenity": "atm", "lat": 47.3988836, "lon": 8.520409, "radius": 1000}, {"id": 7052349210, "name": "n/a", "amenity": "parking", "lat": 47.396765, "lon": 8.537148, "radius": 1000}, {"id": 7070367188, "name": "n/a", "amenity": "parking", "lat": 47.3967038, "lon": 8.5411794, "radius": 1000}, {"id": 7905699488, "name": "Associaçâo Portuguesa", "amenity": "restaurant", "lat": 47.4069217, "lon": 8.5363863, "radius": 1000}, {"id": 7948691808, "name": "n/a", "amenity": "fast_food", "lat": 47.3969241, "lon": 8.5297093, "radius": 1000}, {"id": 11194626948, "name": "ISTL Office", "amenity": "school", "lat": 47.4109396, "lon": 8.5309013, "radius": 1000}, {"id": 11929283671, "name": "Lia Siam", "amenity": "restaurant", "lat": 47.3973065, "lon": 8.5409593, "radius": 1000}]}
{"address": "Fahrnstrasse 25, 9402 Mörschwil", "price": 2880, "property_id": 4002080979, "area": "115m²", "rooms": 4.5, "lat": 47.4639669, "lon": 9.432168388679248, "amenities": [{"id": 380307387, "name": "Raiffeisen", "amenity": "bank", "lat": 47.468475, "lon": 9.4242167, "radius": 1000}, {"id": 745742088, "name": "Füger", "amenity": "cafe", "lat": 47.4681741, "lon": 9.4236445, "radius": 1000}, {"id": 12211342033, "name": "n/a", "amenity": "parking", "lat": 47.4628197, "lon": 9.4336961, "radius": 1000}]}
{"address": "Herrenhof 868, 9240 Niederglatt", "price": 2880, "property_id": 4002077676, "area": "115m²", "rooms": 4.5, "lat": 47.4240752, "lon": 9.1598683, "amenities": []}
{"address": "Muttenzerstrasse 129, 4127 Birsfelden", "price": 2880, "property_id": 4002059199, "area": "115m²", "rooms": 4.5, "lat": 47.5447189, "lon": 7.62688715, "amenities": [{"id": 1184592053, "name": "n/a", "amenity": "parking", "lat": 47.537754, "lon": 7.6246823, "radius": 1000}, {"id": 1422954804, "name": "n/a", "amenity": "restaurant", "lat": 47.5363828, "lon": 7.6271603, "radius": 1000}, {"id": 1422964359, "name": "Ritazza", "amenity": "restaurant", "lat": 47.5409522, "lon": 7.6195941, "radius": 1000}, {"id": 1598960218, "name": "TopPharm", "amenity": "pharmacy", "lat": 47.5526283, "lon": 7.6228669, "radius": 1000}, {"id": 1600137246, "name": "Basellandschaftliche Kantonalbank", "amenity": "bank", "lat": 47.55297, "lon": 7.623018, "radius": 1000}, {"id": 1600145427, "name": "Cafe Mesana", "amenity": "cafe", "lat": 47.553231, "lon": 7.622954, "radius": 1000}, {"id": 1600179732, "name": "Coop", "amenity": "parking", "lat": 47.5528367, "lon": 7.6215371, "radius": 1000}, {"id": 1610930944, "name": "Rotblau Bar|Bistro", "amenity": "bar", "lat": 47.5410878, "lon": 7.6192078, "radius": 1000}, {"id": 1615017684, "name": "BONANZA 2", "amenity": "restaurant", "lat": 47.5524699, "lon": 7.6237986, "radius": 1000}, {"id": 1615017685, "name": "Luxor", "amenity": "restaurant", "lat": 47.5525595, "lon": 7.6240178, "radius": 1000}, {"id": 1618094480, "name": "Wirtshaus St. Jakob", "amenity": "restaurant", "lat": 47.5416641, "lon": 7.617831, "radius": 1000}, {"id": 1784478396, "name": "n/a", "amenity": "parking", "lat": 47.551088, "lon": 7.620935, "radius": 1000}, {"id": 1784555588, "name": "Restaurant Hard", "amenity": "restaurant", "lat": 47.5482225, "lon": 7.6299077, "radius": 1000}, {"id": 1784566899, "name": "n/a", "amenity": "parking", "lat": 47.5476067, "lon": 7.6293905, "radius": 1000}, {"id": 1784585430, "name": "n/a", "amenity": "parking", "lat": 47.5473354, "lon": 7.6280863, "radius": 1000}, {"id": 1784587096, "name": "n/a", "amenity": "parking", "lat": 47.5471531, "lon": 7.629569, "radius": 1000}, {"id": 1784604154, "name": "n/a", "amenity": "parking", "lat": 47.5470183, "lon": 7.6268063, "radius": 1000}, {"id": 2392657649, "name": "Roxy Bar", "amenity": "bar", "lat": 47.5516336, "lon": 7.6236547, "radius": 1000}, {"id": 2456030637, "name": "TopPharm Lehenmatt Apotheke", "amenity": "pharmacy", "lat": 47.5476516, "lon": 7.6213023, "radius": 1000}, {"id": 3273856215, "name": "n/a", "amenity": "restaurant", "lat": 47.5389084, "lon": 7.6210099, "radius": 1000}, {"id": 4031318999, "name": "n/a", "amenity": "parking", "lat": 47.5496945, "lon": 7.6168325, "radius": 1000}, {"id": 4031337376, "name": "Dalbedych", "amenity": "restaurant", "lat": 47.5480644, "lon": 7.6208607, "radius": 1000}, {"id": 4031337378, "name": "Sutter Begg", "amenity": "cafe", "lat": 47.5472479, "lon": 7.6208003, "radius": 1000}, {"id": 4062717954, "name": "n/a", "amenity": "parking", "lat": 47.5485716, "lon": 7.6176453, "radius": 1000}, {"id": 4427996064, "name": "n/a", "amenity": "parking", "lat": 47.5396471, "lon": 7.6261785, "radius": 1000}, {"id": 5364651421, "name": "Da Graziella", "amenity": "cafe", "lat": 47.5407695, "lon": 7.6202457, "radius": 1000}, {"id": 5617859939, "name": "n/a", "amenity": "atm", "lat": 47.5480239, "lon": 7.6174503, "radius": 1000}, {"id": 5817091638, "name": "n/a", "amenity": "fast_food", "lat": 47.5385685, "lon": 7.6200822, "radius": 1000}, {"id": 5831501700, "name": "n/a", "amenity": "parking", "lat": 47.5396834, "lon": 7.6199315, "radius": 1000}, {"id": 5927628520, "name": "n/a", "amenity": "parking", "lat": 47.5486018, "lon": 7.617314, "radius": 1000}, {"id": 6937790909, "name": "Café Bar Santana", "amenity": "cafe", "lat": 47.5511296, "lon": 7.6241732, "radius": 1000}, {"id": 7218263338, "name": "Orthopädie Klinik am Bethesda Spital", "amenity": "clinic", "lat": 47.5477715, "lon": 7.6167976, "radius": 1000}, {"id": 7241813240, "name": "Radiologie", "amenity": "clinic", "lat": 47.5476037, "lon": 7.6171229, "radius": 1000}, {"id": 7465661977, "name": "Sun Store", "amenity": "pharmacy", "lat": 47.5409422, "lon": 7.6205762, "radius": 1000}, {"id": 7578166883, "name": "SAM'S Pizza Land", "amenity": "restaurant", "lat": 47.5410955, "lon": 7.6208991, "radius": 1000}, {"id": 8238707929, "name": "Schänzli", "amenity": "restaurant", "lat": 47.5366148, "lon": 7.6244956, "radius": 1000}, {"id": 9562305189, "name": "cafe flora mangia e bevi", "amenity": "restaurant", "lat": 47.5478024, "lon": 7.6267679, "radius": 1000}, {"id": 9562305190, "name": "Rebstock", "amenity": "restaurant", "lat": 47.5506791, "lon": 7.6243472, "radius": 1000}, {"id": 10846389185, "name": "n/a", "amenity": "parking", "lat": 47.5492549, "lon": 7.625468, "radius": 1000}, {"id": 10970797310, "name": "n/a", "amenity": "parking", "lat": 47.5398873, "lon": 7.6262758, "radius": 1000}]}
{"address": "Volkmarstrasse 15, 8006 Zürich", "price": 2880, "property_id": 4002058756, "area": "115m²", "rooms": 4.5, "lat": 47.38532765, "lon": 8.543725200223658, "amenities": [{"id": 105506327, "name": "Zum Alten Löwen", "amenity": "restaurant", "lat": 47.3849796, "lon": 8.5482469, "radius": 1000}, {"id": 252407018, "name": "Ristorante Culmann", "amenity": "restaurant", "lat": 47.3794422, "lon": 8.5470198, "radius": 1000}, {"id": 252407019, "name": "La Fontana", "amenity": "restaurant", "lat": 47.3797201, "lon": 8.5469255, "radius": 1000}, {"id": 267347570, "name": "Zürcher Kantonalbank", "amenity": "atm", "lat": 47.377669, "lon": 8.5404219, "radius": 1000}, {"id": 267348165, "name": "Postfinance", "amenity": "atm", "lat": 47.3784781, "lon": 8.5396564, "radius": 1000}, {"id": 267348185, "name": "Bancomat Raiffeisen", "amenity": "atm", "lat": 47.3782186, "lon": 8.5402302, "radius": 1000}, {"id": 267348518, "name": "McDonald's", "amenity": "fast_food", "lat": 47.3767165, "lon": 8.5403343, "radius": 1000}, {"id": 303067123, "name": "Primitivo", "amenity": "restaurant", "lat": 47.3851137, "lon": 8.5362371, "radius": 1000}, {"id": 312592661, "name": "Saravanaa Bhavan", "amenity": "fast_food", "lat": 47.3818876, "lon": 8.535575, "radius": 1000}, {"id": 317768650, "name": "Starbucks", "amenity": "cafe", "lat": 47.3765801, "lon": 8.5441952, "radius": 1000}, {"id": 321000070, "name": "Stazione Paradiso", "amenity": "restaurant", "lat": 47.3867368, "lon": 8.5340332, "radius": 1000}, {"id": 321361607, "name": "Postfinance", "amenity": "atm", "lat": 47.392108, "lon": 8.5382165, "radius": 1000}, {"id": 321364282, "name": "Tannenbar", "amenity": "cafe", "lat": 47.3773953, "lon": 8.5478673, "radius": 1000}, {"id": 321364310, "name": "Clausiusbar", "amenity": "restaurant", "lat": 47.3772558, "lon": 8.5470004, "radius": 1000}, {"id": 321364380, "name": "food&lab", "amenity": "restaurant", "lat": 47.378314, "lon": 8.548805, "radius": 1000}, {"id": 321947441, "name": "Zürcher Kantonalbank", "amenity": "atm", "lat": 47.3844836, "lon": 8.5316859, "radius": 1000}, {"id": 321947443, "name": "Postfinance", "amenity": "atm", "lat": 47.3842188, "lon": 8.532441, "radius": 1000}, {"id": 356308261, "name": "n/a", "amenity": "parking", "lat": 47.3783651, "lon": 8.5407657, "radius": 1000}, {"id": 360330661, "name": "Uncle 7", "amenity": "restaurant", "lat": 47.381874, "lon": 8.5338089, "radius": 1000}, {"id": 360330662, "name": "Vulkan", "amenity": "restaurant", "lat": 47.3819982, "lon": 8.5336329, "radius": 1000}, {"id": 365838427, "name": "Pizzeria Corallo", "amenity": "restaurant", "lat": 47.3865398, "lon": 8.5414596, "radius": 1000}, {"id": 365838929, "name": "Kreis 6", "amenity": "restaurant", "lat": 47.3861132, "lon": 8.5452851, "radius": 1000}, {"id": 365892432, "name": "Chuchi am Wasser", "amenity": "restaurant", "lat": 47.3830272, "lon": 8.5396636, "radius": 1000}, {"id": 365918123, "name": "Luigi", "amenity": "restaurant", "lat": 47.3789263, "lon": 8.5444555, "radius": 1000}, {"id": 370822481, "name": "Weinstube 1923", "amenity": "restaurant", "lat": 47.3764199, "lon": 8.5441261, "radius": 1000}, {"id": 370822646, "name": "Schurter", "amenity": "cafe", "lat": 47.3763302, "lon": 8.5440373, "radius": 1000}, {"id": 387909747, "name": "Kafischnaps", "amenity": "cafe", "lat": 47.3912249, "lon": 8.5359972, "radius": 1000}, {"id": 444463631, "name": "Matahari Bar", "amenity": "pub", "lat": 47.3840524, "lon": 8.5309307, "radius": 1000}, {"id": 446784538, "name": "LA Brea SoCal Tacos", "amenity": "restaurant", "lat": 47.3821979, "lon": 8.5317241, "radius": 1000}, {"id": 446784539, "name": "Spicy Box", "amenity": "restaurant", "lat": 47.382624, "lon": 8.5312467, "radius": 1000}, {"id": 446784541, "name": "TopPharm", "amenity": "pharmacy", "lat": 47.3839118, "lon": 8.5323405, "radius": 1000}, {"id": 504487282, "name": "The Lemon Grass", "amenity": "fast_food", "lat": 47.3857427, "lon": 8.539683, "radius": 1000}, {"id": 552929127, "name": "Drei Stuben", "amenity": "restaurant", "lat": 47.3832538, "lon": 8.5416447, "radius": 1000}, {"id": 552932425, "name": "Pizzeria Veneziana", "amenity": "restaurant", "lat": 47.383118, "lon": 8.5413332, "radius": 1000}, {"id": 567132764, "name": "Zürcher Kantonalbank", "amenity": "atm", "lat": 47.3796221, "lon": 8.5367801, "radius": 1000}, {"id": 567132770, "name": "Starbucks", "amenity": "cafe", "lat": 47.3801255, "lon": 8.5374525, "radius": 1000}, {"id": 568018605, "name": "Parkhaus Hauptbahnhof", "amenity": "parking", "lat": 47.3815048, "lon": 8.53761, "radius": 1000}, {"id": 582819804, "name": "Café Lang", "amenity": "cafe", "lat": 47.3851076, "lon": 8.5314772, "radius": 1000}, {"id": 582819971, "name": "AMO e lino", "amenity": "restaurant", "lat": 47.3847471, "lon": 8.5311137, "radius": 1000}, {"id": 632545305, "name": "Bocuci: Bottega & Cucina", "amenity": "restaurant", "lat": 47.3791435, "lon": 8.545208, "radius": 1000}, {"id": 632553574, "name": "Restaurant Haldenbach", "amenity": "restaurant", "lat": 47.3799672, "lon": 8.5469246, "radius": 1000}, {"id": 632562120, "name": "Züri Bistro", "amenity": "fast_food", "lat": 47.38053, "lon": 8.5479785, "radius": 1000}, {"id": 632562127, "name": "Ristorante Al Forno da Angelo", "amenity": "restaurant", "lat": 47.3805744, "lon": 8.5483371, "radius": 1000}, {"id": 633584154, "name": "Domino's", "amenity": "fast_food", "lat": 47.3784731, "lon": 8.547949, "radius": 1000}, {"id": 633584160, "name": "Café Oberstrass", "amenity": "cafe", "lat": 47.3782514, "lon": 8.5479609, "radius": 1000}, {"id": 633584181, "name": "Hot Pasta", "amenity": "restaurant", "lat": 47.3786854, "lon": 8.547952, "radius": 1000}, {"id": 633584200, "name": "The Alehouse Palmhof", "amenity": "pub", "lat": 47.3790827, "lon": 8.5478805, "radius": 1000}, {"id": 633584224, "name": "Lemon Grass", "amenity": "fast_food", "lat": 47.3796283, "lon": 8.5479597, "radius": 1000}, {"id": 693318633, "name": "ViCafe", "amenity": "cafe", "lat": 47.3768277, "lon": 8.5395824, "radius": 1000}, {"id": 693318662, "name": "Starbucks", "amenity": "cafe", "lat": 47.3767615, "lon": 8.5401477, "radius": 1000}, {"id": 703215222, "name": "Zentral", "amenity": "restaurant", "lat": 47.3799291, "lon": 8.5432583, "radius": 1000}, {"id": 703215583, "name": "Casa Ferlin", "amenity": "restaurant", "lat": 47.3797694, "lon": 8.5433497, "radius": 1000}, {"id": 703216769, "name": "TopPharm", "amenity": "pharmacy", "lat": 47.3776379, "lon": 8.5435927, "radius": 1000}, {"id": 725764696, "name": "Caffetteria am Limmatplatz", "amenity": "cafe", "lat": 47.3847107, "lon": 8.5321502, "radius": 1000}, {"id": 725764716, "name": "Tadka", "amenity": "restaurant", "lat": 47.3832551, "lon": 8.5332337, "radius": 1000}, {"id": 725764771, "name": "Püente", "amenity": "restaurant", "lat": 47.3821574, "lon": 8.5357577, "radius": 1000}, {"id": 725765073, "name": "Millennium", "amenity": "restaurant", "lat": 47.3842264, "lon": 8.5319218, "radius": 1000}, {"id": 784296063, "name": "UBS", "amenity": "atm", "lat": 47.3770609, "lon": 8.5437786, "radius": 1000}, {"id": 792593919, "name": "La Casa", "amenity": "restaurant", "lat": 47.3901801, "lon": 8.5400652, "radius": 1000}, {"id": 792593930, "name": "Sorell Rex", "amenity": "cafe", "lat": 47.3847859, "lon": 8.5431484, "radius": 1000}, {"id": 792594129, "name": "Richie's Chicken", "amenity": "fast_food", "lat": 47.3905675, "lon": 8.5394452, "radius": 1000}, {"id": 866538630, "name": "Bakery Bakery", "amenity": "cafe", "lat": 47.3920571, "lon": 8.5391006, "radius": 1000}, {"id": 866541138, "name": "Café Unterstrass", "amenity": "cafe", "lat": 47.3921165, "lon": 8.5386272, "radius": 1000}, {"id": 891896164, "name": "Rigi Apotheke und Drogerie", "amenity": "pharmacy", "lat": 47.3857176, "lon": 8.5487292, "radius": 1000}, {"id": 943868646, "name": "Biotheke", "amenity": "pharmacy", "lat": 47.3836588, "lon": 8.5484321, "radius": 1000}, {"id": 943875479, "name": "Hausammann", "amenity": "cafe", "lat": 47.3832878, "lon": 8.548393, "radius": 1000}, {"id": 973933405, "name": "Migros Restaurant", "amenity": "restaurant", "lat": 47.3855243, "lon": 8.5312041, "radius": 1000}, {"id": 988651681, "name": "Libanon il-Achdar", "amenity": "fast_food", "lat": 47.380844, "lon": 8.5347582, "radius": 1000}, {"id": 988652370, "name": "Yoshino", "amenity": "restaurant", "lat": 47.3807368, "lon": 8.5345758, "radius": 1000}, {"id": 988652775, "name": "n/a", "amenity": "cafe", "lat": 47.3808903, "lon": 8.5352061, "radius": 1000}, {"id": 988655652, "name": "Il Pentagramma", "amenity": "fast_food", "lat": 47.3811064, "lon": 8.5336844, "radius": 1000}, {"id": 1125157295, "name": "Schweizerisches Landesmuseum", "amenity": "parking", "lat": 47.3789662, "lon": 8.5412678, "radius": 1000}, {"id": 1253929883, "name": "PHƠ-NA, ASIA take away", "amenity": "fast_food", "lat": 47.3816075, "lon": 8.5330316, "radius": 1000}, {"id": 1253932506, "name": "Tant Pis", "amenity": "bar", "lat": 47.3820245, "lon": 8.5332903, "radius": 1000}, {"id": 1346146716, "name": "Brasserie zum Vorbahnhof", "amenity": "restaurant", "lat": 47.3797298, "lon": 8.5372003, "radius": 1000}, {"id": 1357158514, "name": "Habib Bank", "amenity": "bank", "lat": 47.3817572, "lon": 8.5435756, "radius": 1000}, {"id": 1374903992, "name": "St. Gallerhof", "amenity": "restaurant", "lat": 47.3799976, "lon": 8.5373936, "radius": 1000}, {"id": 1374903993, "name": "Sham", "amenity": "restaurant", "lat": 47.3800785, "lon": 8.5370948, "radius": 1000}, {"id": 1377247222, "name": "Dune Shisha Club", "amenity": "bar", "lat": 47.3812873, "lon": 8.5331062, "radius": 1000}, {"id": 1383580144, "name": "Amigos Tapas", "amenity": "restaurant", "lat": 47.3839003, "lon": 8.5307988, "radius": 1000}, {"id": 1390807245, "name": "Apotheke Schaffhauserplatz", "amenity": "pharmacy", "lat": 47.3916892, "lon": 8.5383642, "radius": 1000}, {"id": 1449013754, "name": "Libanes Take Away", "amenity": "fast_food", "lat": 47.3928661, "lon": 8.5392848, "radius": 1000}, {"id": 1867263239, "name": "Rubina", "amenity": "restaurant", "lat": 47.381545, "lon": 8.5483263, "radius": 1000}, {"id": 1888545640, "name": "El Luchador", "amenity": "restaurant", "lat": 47.3817668, "lon": 8.533656, "radius": 1000}, {"id": 1895863272, "name": "Café des Amis", "amenity": "cafe", "lat": 47.3886467, "lon": 8.5361093, "radius": 1000}, {"id": 1986773362, "name": "Moudi's Lecker Garten", "amenity": "restaurant", "lat": 47.3909932, "lon": 8.5455952, "radius": 1000}, {"id": 2081117847, "name": "Dropa Limmatplatz", "amenity": "pharmacy", "lat": 47.3850081, "lon": 8.5315987, "radius": 1000}, {"id": 2121176772, "name": "Kafi Seilbahn Rigiblick", "amenity": "cafe", "lat": 47.3853864, "lon": 8.5482515, "radius": 1000}, {"id": 2140368471, "name": "Bamboo Inn", "amenity": "restaurant", "lat": 47.3804786, "lon": 8.5472423, "radius": 1000}, {"id": 2140368560, "name": "Stapferstube da Rizzo", "amenity": "restaurant", "lat": 47.3821725, "lon": 8.5474623, "radius": 1000}, {"id": 2289533439, "name": "Restaurant Oase", "amenity": "restaurant", "lat": 47.3782017, "lon": 8.5408542, "radius": 1000}, {"id": 2392657620, "name": "Kleine Freiheit", "amenity": "cafe", "lat": 47.379135, "lon": 8.5445168, "radius": 1000}, {"id": 2427316757, "name": "Sweet & Sour Take-Away", "amenity": "fast_food", "lat": 47.3787825, "lon": 8.5416208, "radius": 1000}, {"id": 2452626421, "name": "Fux und Haas", "amenity": "fast_food", "lat": 47.3857229, "lon": 8.5395166, "radius": 1000}, {"id": 2509647639, "name": "Janni Pizza Kurier", "amenity": "fast_food", "lat": 47.3866392, "lon": 8.539917, "radius": 1000}, {"id": 2609734695, "name": "Bibliothek des Schweizerischen Nationalmuseums", "amenity": "library", "lat": 47.3790124, "lon": 8.5409969, "radius": 1000}, {"id": 2609805220, "name": "Grüne Bibliothek", "amenity": "library", "lat": 47.3789092, "lon": 8.5486877, "radius": 1000}, {"id": 2609816688, "name": "GESS-Bibliothek", "amenity": "library", "lat": 47.3802178, "lon": 8.5447287, "radius": 1000}, {"id": 2746139382, "name": "Mama's Beck", "amenity": "restaurant", "lat": 47.3885695, "lon": 8.539287, "radius": 1000}, {"id": 2888142444, "name": "Positano", "amenity": "restaurant", "lat": 47.3775576, "lon": 8.5438988, "radius": 1000}, {"id": 2888142445, "name": "Bombay Karachi", "amenity": "restaurant", "lat": 47.3793233, "lon": 8.5435476, "radius": 1000}, {"id": 2888142446, "name": "Commihalle", "amenity": "restaurant", "lat": 47.3777853, "lon": 8.5438498, "radius": 1000}, {"id": 2888172595, "name": "Santa Lucia Subito", "amenity": "restaurant", "lat": 47.3815179, "lon": 8.5422215, "radius": 1000}, {"id": 2888173290, "name": "Take Easy Thai Food", "amenity": "fast_food", "lat": 47.3811314, "lon": 8.542114, "radius": 1000}, {"id": 2904967414, "name": "Eldorado", "amenity": "bar", "lat": 47.3836636, "lon": 8.5326533, "radius": 1000}, {"id": 2904973400, "name": "Zam Dapor", "amenity": "restaurant", "lat": 47.3857107, "lon": 8.5420014, "radius": 1000}, {"id": 2957645174, "name": "Thali Indian Restaurant", "amenity": "restaurant", "lat": 47.390294, "lon": 8.5392273, "radius": 1000}, {"id": 3103337030, "name": "Al Piattino", "amenity": "cafe", "lat": 47.380794, "lon": 8.5346589, "radius": 1000}, {"id": 3357441576, "name": "African Queen", "amenity": "restaurant", "lat": 47.3816229, "lon": 8.5421505, "radius": 1000}, {"id": 3381293318, "name": "SimSim", "amenity": "restaurant", "lat": 47.3878521, "lon": 8.5392302, "radius": 1000}, {"id": 3381358177, "name": "Konditorei Cafe", "amenity": "cafe", "lat": 47.3882455, "lon": 8.5359339, "radius": 1000}, {"id": 3387706567, "name": "Bibliothek Erdwissenschaften", "amenity": "library", "lat": 47.3785235, "lon": 8.5473008, "radius": 1000}, {"id": 3483379593, "name": "Bubble House", "amenity": "cafe", "lat": 47.3766656, "lon": 8.540727, "radius": 1000}, {"id": 3537752740, "name": "Cafe Takeaway", "amenity": "cafe", "lat": 47.378856, "lon": 8.5438982, "radius": 1000}, {"id": 3581829993, "name": "Migros Bank", "amenity": "bank", "lat": 47.3855128, "lon": 8.5315853, "radius": 1000}, {"id": 3590834039, "name": "Zürcher Kantonalbank", "amenity": "atm", "lat": 47.3776873, "lon": 8.5392743, "radius": 1000}, {"id": 3590836589, "name": "Postfinance", "amenity": "atm", "lat": 47.3770501, "lon": 8.5403879, "radius": 1000}, {"id": 3706789050, "name": "Didi's Frieden", "amenity": "restaurant", "lat": 47.3792128, "lon": 8.5435914, "radius": 1000}, {"id": 3726134745, "name": "Hanswurst", "amenity": "fast_food", "lat": 47.3840062, "lon": 8.5311406, "radius": 1000}, {"id": 3751319529, "name": "Burgermeister", "amenity": "restaurant", "lat": 47.384344, "lon": 8.5311512, "radius": 1000}, {"id": 3781295176, "name": "Marronistand", "amenity": "fast_food", "lat": 47.3771803, "lon": 8.5414903, "radius": 1000}, {"id": 3824285559, "name": "Postfinance", "amenity": "atm", "lat": 47.378695, "lon": 8.5509173, "radius": 1000}, {"id": 3875851857, "name": "Hotel Bristol", "amenity": "restaurant", "lat": 47.379626, "lon": 8.5434495, "radius": 1000}, {"id": 3932278823, "name": "Chiang Mai", "amenity": "restaurant", "lat": 47.3806356, "lon": 8.5336595, "radius": 1000}, {"id": 3987856802, "name": "Klara's Kitchen", "amenity": "fast_food", "lat": 47.3787999, "lon": 8.5479501, "radius": 1000}, {"id": 4035680910, "name": "Himalaya", "amenity": "restaurant", "lat": 47.3830864, "lon": 8.5329144, "radius": 1000}, {"id": 4053473354, "name": "Al Ventotto", "amenity": "restaurant", "lat": 47.3902274, "lon": 8.538794, "radius": 1000}, {"id": 4193459893, "name": "QQ Sushi", "amenity": "restaurant", "lat": 47.377413, "lon": 8.5439582, "radius": 1000}, {"id": 4217457104, "name": "Kebi", "amenity": "restaurant", "lat": 47.378683, "lon": 8.5437382, "radius": 1000}, {"id": 4244051791, "name": "Albanesi", "amenity": "cafe", "lat": 47.3773061, "lon": 8.538363, "radius": 1000}, {"id": 4256050998, "name": "Auer & Co", "amenity": "cafe", "lat": 47.38478, "lon": 8.5336683, "radius": 1000}, {"id": 4316896999, "name": "Orient Catering", "amenity": "restaurant", "lat": 47.3789518, "lon": 8.5447211, "radius": 1000}, {"id": 4406891594, "name": "Wesley's Kitchen", "amenity": "restaurant", "lat": 47.381828, "lon": 8.5326917, "radius": 1000}, {"id": 4424600893, "name": "San Gennaro", "amenity": "restaurant", "lat": 47.3777733, "lon": 8.5398232, "radius": 1000}, {"id": 4424600894, "name": "Buffet Express", "amenity": "fast_food", "lat": 47.3779896, "lon": 8.5394493, "radius": 1000}, {"id": 4424600895, "name": "Bahnhof Apotheke", "amenity": "pharmacy", "lat": 47.3774306, "lon": 8.5400215, "radius": 1000}, {"id": 4424600896, "name": "Action Burger", "amenity": "fast_food", "lat": 47.377802, "lon": 8.5397165, "radius": 1000}, {"id": 4424600897, "name": "The Counter", "amenity": "restaurant", "lat": 47.3772197, "lon": 8.5407256, "radius": 1000}, {"id": 4424600898, "name": "Brasserie Federal", "amenity": "restaurant", "lat": 47.3780227, "lon": 8.5407173, "radius": 1000}, {"id": 4424600899, "name": "Burger King", "amenity": "fast_food", "lat": 47.3785645, "lon": 8.5397578, "radius": 1000}, {"id": 4424600900, "name": "Cafe Oscar", "amenity": "cafe", "lat": 47.3778329, "lon": 8.5396019, "radius": 1000}, {"id": 4424600903, "name": "Da Capo Bar", "amenity": "cafe", "lat": 47.3771949, "lon": 8.5407369, "radius": 1000}, {"id": 4424600904, "name": "Brasserie Süd", "amenity": "restaurant", "lat": 47.3773153, "lon": 8.5403976, "radius": 1000}, {"id": 4424600906, "name": "Il Baretto", "amenity": "cafe", "lat": 47.378481, "lon": 8.5397177, "radius": 1000}, {"id": 4424600919, "name": "Sora Sushi", "amenity": "restaurant", "lat": 47.3775929, "lon": 8.53946, "radius": 1000}, {"id": 4424654345, "name": "Pret A Manger", "amenity": "cafe", "lat": 47.3787638, "lon": 8.5397898, "radius": 1000}, {"id": 4424654349, "name": "Burger King", "amenity": "fast_food", "lat": 47.3784804, "lon": 8.5400687, "radius": 1000}, {"id": 4424654359, "name": "Zopf & Zöpfli", "amenity": "fast_food", "lat": 47.3789067, "lon": 8.5384757, "radius": 1000}, {"id": 4424654373, "name": "Rice Up!", "amenity": "fast_food", "lat": 47.3781012, "lon": 8.5387997, "radius": 1000}, {"id": 4424679502, "name": "Blueberry", "amenity": "fast_food", "lat": 47.3781471, "lon": 8.5386585, "radius": 1000}, {"id": 4424679503, "name": "Hitzberger", "amenity": "fast_food", "lat": 47.3780447, "lon": 8.5390574, "radius": 1000}, {"id": 4424679508, "name": "Negishi", "amenity": "fast_food", "lat": 47.3780692, "lon": 8.5389287, "radius": 1000}, {"id": 4424695481, "name": "kookoo", "amenity": "fast_food", "lat": 47.3776115, "lon": 8.5391321, "radius": 1000}, {"id": 4424939138, "name": "Amavita", "amenity": "pharmacy", "lat": 47.3773328, "lon": 8.5396659, "radius": 1000}, {"id": 4424939140, "name": "La Piadina", "amenity": "fast_food", "lat": 47.3770886, "lon": 8.5411485, "radius": 1000}, {"id": 4424939142, "name": "Brezelkönig", "amenity": "fast_food", "lat": 47.3777536, "lon": 8.538123, "radius": 1000}, {"id": 4424939149, "name": "Il Baretto", "amenity": "cafe", "lat": 47.3770331, "lon": 8.5402146, "radius": 1000}, {"id": 4424939159, "name": "Suan Long", "amenity": "fast_food", "lat": 47.3769492, "lon": 8.5397067, "radius": 1000}, {"id": 4424939160, "name": "M-panada", "amenity": "fast_food", "lat": 47.37762, "lon": 8.5387663, "radius": 1000}, {"id": 4424939163, "name": "UBS", "amenity": "atm", "lat": 47.3775317, "lon": 8.5389162, "radius": 1000}, {"id": 4424939164, "name": "Züri Bistro", "amenity": "fast_food", "lat": 47.3769816, "lon": 8.5411309, "radius": 1000}, {"id": 4424939168, "name": "Tchibo", "amenity": "cafe", "lat": 47.3776542, "lon": 8.538495, "radius": 1000}, {"id": 4496730804, "name": "Super Guud", "amenity": "fast_food", "lat": 47.3792749, "lon": 8.536619, "radius": 1000}, {"id": 4496731300, "name": "Brezelkönig", "amenity": "fast_food", "lat": 47.3789876, "lon": 8.5364584, "radius": 1000}, {"id": 4496761389, "name": "Burger King", "amenity": "fast_food", "lat": 47.3795918, "lon": 8.5370962, "radius": 1000}, {"id": 4554243927, "name": "PostFinance", "amenity": "atm", "lat": 47.379426, "lon": 8.537027, "radius": 1000}, {"id": 4579719494, "name": "Spitz", "amenity": "restaurant", "lat": 47.3789138, "lon": 8.5409931, "radius": 1000}, {"id": 4599535995, "name": "Corner 48", "amenity": "restaurant", "lat": 47.3803612, "lon": 8.5424142, "radius": 1000}, {"id": 4817455055, "name": "Maki Haus", "amenity": "restaurant", "lat": 47.37828, "lon": 8.5437936, "radius": 1000}, {"id": 4827130172, "name": "Kaimug", "amenity": "fast_food", "lat": 47.3786252, "lon": 8.5402781, "radius": 1000}, {"id": 4833061522, "name": "Dunkin'", "amenity": "fast_food", "lat": 47.3778169, "lon": 8.5392507, "radius": 1000}, {"id": 4833061525, "name": "Nordsee", "amenity": "fast_food", "lat": 47.3778032, "lon": 8.5398675, "radius": 1000}, {"id": 4833061526, "name": "Il Baretto", "amenity": "cafe", "lat": 47.3778169, "lon": 8.5398255, "radius": 1000}, {"id": 4833061534, "name": "Medbase Apotheke", "amenity": "pharmacy", "lat": 47.3783532, "lon": 8.5396557, "radius": 1000}, {"id": 4833061536, "name": "Maru", "amenity": "fast_food", "lat": 47.3781269, "lon": 8.5401993, "radius": 1000}, {"id": 4833061543, "name": "Subway", "amenity": "fast_food", "lat": 47.3786021, "lon": 8.5403751, "radius": 1000}, {"id": 4833061544, "name": "Starbucks", "amenity": "cafe", "lat": 47.37865, "lon": 8.5401987, "radius": 1000}, {"id": 4833061545, "name": "Brezelkönig", "amenity": "fast_food", "lat": 47.3786694, "lon": 8.5401179, "radius": 1000}, {"id": 4833061594, "name": "Le Café", "amenity": "cafe", "lat": 47.3778202, "lon": 8.5399275, "radius": 1000}, {"id": 4833061595, "name": "Time... Lounge", "amenity": "restaurant", "lat": 47.3777455, "lon": 8.5393944, "radius": 1000}, {"id": 4833061596, "name": "Rapido", "amenity": "fast_food", "lat": 47.3777337, "lon": 8.5393, "radius": 1000}, {"id": 4838594367, "name": "Espressino Due", "amenity": "cafe", "lat": 47.3775381, "lon": 8.5391086, "radius": 1000}, {"id": 4840731929, "name": "Postfinance", "amenity": "atm", "lat": 47.378928, "lon": 8.5388315, "radius": 1000}, {"id": 4841545849, "name": "Klubschule Migros Limmatplatz", "amenity": "school", "lat": 47.3857517, "lon": 8.531279, "radius": 1000}, {"id": 4843837956, "name": "Bancomat Raiffeisen", "amenity": "atm", "lat": 47.3782782, "lon": 8.5396772, "radius": 1000}, {"id": 4843837964, "name": "Wesley's Kitchen", "amenity": "fast_food", "lat": 47.3794641, "lon": 8.5372186, "radius": 1000}, {"id": 4889986286, "name": "Restaurant Rigiblick", "amenity": "restaurant", "lat": 47.3883565, "lon": 8.5532985, "radius": 1000}, {"id": 4891858476, "name": "Mensa Institut Minerva", "amenity": "restaurant", "lat": 47.3819656, "lon": 8.5455532, "radius": 1000}, {"id": 4892249174, "name": "Orient Catering", "amenity": "fast_food", "lat": 47.3789144, "lon": 8.5448353, "radius": 1000}, {"id": 4963589219, "name": "Klara‘s Kitchen", "amenity": "cafe", "lat": 47.3827596, "lon": 8.5437443, "radius": 1000}, {"id": 5002825178, "name": "Fachhochschule Graubünden Standort Zürich", "amenity": "university", "lat": 47.380495, "lon": 8.5369878, "radius": 1000}, {"id": 5119622513, "name": "Pasta Barn", "amenity": "fast_food", "lat": 47.3791284, "lon": 8.5365479, "radius": 1000}, {"id": 5119622514, "name": "Caffè Spettacolo", "amenity": "cafe", "lat": 47.3787392, "lon": 8.5398986, "radius": 1000}, {"id": 5142601754, "name": "IST Höhere Fachschule für Tourismus", "amenity": "school", "lat": 47.3821347, "lon": 8.5318509, "radius": 1000}, {"id": 5363744621, "name": "Panama", "amenity": "bar", "lat": 47.3849765, "lon": 8.5356587, "radius": 1000}, {"id": 5386900841, "name": "Dieci Pizzakurier", "amenity": "fast_food", "lat": 47.3827555, "lon": 8.5505487, "radius": 1000}, {"id": 5670095833, "name": "La Soupière", "amenity": "restaurant", "lat": 47.3769342, "lon": 8.5393403, "radius": 1000}, {"id": 5673051843, "name": "Café Gourmet", "amenity": "cafe", "lat": 47.3769757, "lon": 8.5393361, "radius": 1000}, {"id": 5938746755, "name": "Curry Corner", "amenity": "fast_food", "lat": 47.3833287, "lon": 8.541864, "radius": 1000}, {"id": 6070128841, "name": "Parkhaus Stampfenbach", "amenity": "parking", "lat": 47.3864863, "lon": 8.5390689, "radius": 1000}, {"id": 6205732851, "name": "Con Gusto", "amenity": "fast_food", "lat": 47.3919608, "lon": 8.5390827, "radius": 1000}, {"id": 6207463870, "name": "Bibliothek des Schweizerischen Instituts für Kinder- und Jugendmedien SIKJM", "amenity": "library", "lat": 47.3845291, "lon": 8.5397558, "radius": 1000}, {"id": 6551162308, "name": "Hitzberger", "amenity": "fast_food", "lat": 47.3782294, "lon": 8.5360587, "radius": 1000}, {"id": 6551162309, "name": "Kaimug", "amenity": "fast_food", "lat": 47.378223, "lon": 8.5360911, "radius": 1000}, {"id": 6574004298, "name": "Vito", "amenity": "fast_food", "lat": 47.3848528, "lon": 8.5322457, "radius": 1000}, {"id": 6680755386, "name": "Afghan Anar", "amenity": "restaurant", "lat": 47.3840078, "lon": 8.5318712, "radius": 1000}, {"id": 6765644326, "name": "Stadtkäserei", "amenity": "restaurant", "lat": 47.3802884, "lon": 8.5344583, "radius": 1000}, {"id": 6769845245, "name": "Zollstrasse 53", "amenity": "parking", "lat": 47.3805348, "lon": 8.533547, "radius": 1000}, {"id": 6872075030, "name": "Heisswein", "amenity": "restaurant", "lat": 47.3810005, "lon": 8.5353465, "radius": 1000}, {"id": 6872101830, "name": "Hidmona", "amenity": "bar", "lat": 47.3811384, "lon": 8.5347861, "radius": 1000}, {"id": 6969551971, "name": "Schigu Kafi", "amenity": "cafe", "lat": 47.3868032, "lon": 8.5363403, "radius": 1000}, {"id": 6989685409, "name": "Il Baretto", "amenity": "cafe", "lat": 47.3805056, "lon": 8.5341527, "radius": 1000}, {"id": 7055101045, "name": "Anoah", "amenity": "restaurant", "lat": 47.3848545, "lon": 8.5485426, "radius": 1000}, {"id": 7070435520, "name": "Natural Bites", "amenity": "cafe", "lat": 47.3803426, "lon": 8.5478344, "radius": 1000}, {"id": 7204648136, "name": "NA081", "amenity": "restaurant", "lat": 47.3818826, "lon": 8.5334773, "radius": 1000}, {"id": 7465666136, "name": "Zur Rose", "amenity": "pharmacy", "lat": 47.3855599, "lon": 8.5313722, "radius": 1000}, {"id": 7540140384, "name": "Nordsee", "amenity": "fast_food", "lat": 47.3769606, "lon": 8.540158, "radius": 1000}, {"id": 7655574678, "name": "Bistro Spitz", "amenity": "cafe", "lat": 47.3789633, "lon": 8.5409353, "radius": 1000}, {"id": 7942306421, "name": "Miró", "amenity": "cafe", "lat": 47.3773943, "lon": 8.5402226, "radius": 1000}, {"id": 8387042153, "name": "n/a", "amenity": "parking", "lat": 47.3805409, "lon": 8.5366477, "radius": 1000}, {"id": 8486430588, "name": "Dunkin'", "amenity": "fast_food", "lat": 47.3774459, "lon": 8.5400283, "radius": 1000}, {"id": 8497598414, "name": "ZüriPharm AG", "amenity": "pharmacy", "lat": 47.3783858, "lon": 8.5504388, "radius": 1000}, {"id": 9277633394, "name": "Oh My Greek!", "amenity": "fast_food", "lat": 47.379737, "lon": 8.5363362, "radius": 1000}, {"id": 9499319817, "name": "Mohini", "amenity": "restaurant", "lat": 47.3781881, "lon": 8.5441334, "radius": 1000}, {"id": 9635640296, "name": "Autonome Schule Zürich", "amenity": "school", "lat": 47.3846417, "lon": 8.5339166, "radius": 1000}, {"id": 9642595626, "name": "Stiftung m.a.c. – Sonderpädagogische Schule", "amenity": "school", "lat": 47.3854719, "lon": 8.5419658, "radius": 1000}, {"id": 9682468631, "name": "Dayschool Beckenhof", "amenity": "school", "lat": 47.3834916, "lon": 8.5413134, "radius": 1000}, {"id": 9694602779, "name": "Gesamtschule Unterstrass", "amenity": "school", "lat": 47.3925273, "lon": 8.5362781, "radius": 1000}, {"id": 9697408396, "name": "FfD Fachschule für Detailhandel", "amenity": "school", "lat": 47.3774632, "lon": 8.5440328, "radius": 1000}, {"id": 9697845464, "name": "Schule Minerva Zürich", "amenity": "school", "lat": 47.3818918, "lon": 8.5455529, "radius": 1000}, {"id": 9717546279, "name": "Neue Schule Zürich", "amenity": "school", "lat": 47.3835082, "lon": 8.5475639, "radius": 1000}, {"id": 9718122719, "name": "Lernatelier Tandem", "amenity": "school", "lat": 47.3805547, "lon": 8.5516899, "radius": 1000}, {"id": 9719866404, "name": "Schule Talenta Zürich", "amenity": "school", "lat": 47.3858578, "lon": 8.5418353, "radius": 1000}, {"id": 9726635896, "name": "Sekundarschule am Rigiplatz", "amenity": "school", "lat": 47.3858674, "lon": 8.5463793, "radius": 1000}, {"id": 9792386803, "name": "Vito", "amenity": "restaurant", "lat": 47.3783449, "lon": 8.5357764, "radius": 1000}, {"id": 10078000117, "name": "Tiny Fish", "amenity": "fast_food", "lat": 47.3784125, "lon": 8.5478096, "radius": 1000}, {"id": 10158245332, "name": "Museumscafé", "amenity": "restaurant", "lat": 47.3827433, "lon": 8.5357837, "radius": 1000}, {"id": 10578946341, "name": "Café Elena", "amenity": "cafe", "lat": 47.3781048, "lon": 8.5430318, "radius": 1000}, {"id": 10650748517, "name": "Café Bar Meierei", "amenity": "cafe", "lat": 47.3822549, "lon": 8.550719, "radius": 1000}, {"id": 10654227179, "name": "Restaurant Leonhard", "amenity": "restaurant", "lat": 47.3772897, "lon": 8.5459039, "radius": 1000}, {"id": 10831702421, "name": "DaPizi", "amenity": "restaurant", "lat": 47.3812322, "lon": 8.5331802, "radius": 1000}, {"id": 10860757271, "name": "Orient World", "amenity": "restaurant", "lat": 47.3788419, "lon": 8.545135, "radius": 1000}, {"id": 10893221699, "name": "Blooming Juice", "amenity": "fast_food", "lat": 47.3914598, "lon": 8.539107, "radius": 1000}, {"id": 10896827512, "name": "Sapa Canteen", "amenity": "restaurant", "lat": 47.3800211, "lon": 8.5422229, "radius": 1000}, {"id": 10949082348, "name": "differente", "amenity": "restaurant", "lat": 47.3881157, "lon": 8.5390656, "radius": 1000}, {"id": 10995816514, "name": "mi-te", "amenity": "restaurant", "lat": 47.3791998, "lon": 8.5479282, "radius": 1000}, {"id": 10995816516, "name": "Mesa Madrid", "amenity": "restaurant", "lat": 47.3833749, "lon": 8.5431961, "radius": 1000}, {"id": 11227223686, "name": "Bistro Pinto Take Away", "amenity": "restaurant", "lat": 47.3872577, "lon": 8.540021, "radius": 1000}, {"id": 11399918909, "name": "Da Marco", "amenity": "fast_food", "lat": 47.3844835, "lon": 8.5322947, "radius": 1000}, {"id": 11416682178, "name": "Yardbird", "amenity": "fast_food", "lat": 47.3774579, "lon": 8.5409554, "radius": 1000}, {"id": 11673717382, "name": "Bimbi's Take Away", "amenity": "restaurant", "lat": 47.3825112, "lon": 8.5414846, "radius": 1000}, {"id": 11778835755, "name": "Burger Boutique", "amenity": "fast_food", "lat": 47.3841513, "lon": 8.5481184, "radius": 1000}, {"id": 11800118612, "name": "betterview", "amenity": "clinic", "lat": 47.3768034, "lon": 8.5412212, "radius": 1000}, {"id": 11956514145, "name": "3 Sushi Momo", "amenity": "fast_food", "lat": 47.3839455, "lon": 8.5307226, "radius": 1000}, {"id": 11999562546, "name": "fink's", "amenity": "restaurant", "lat": 47.3817769, "lon": 8.5339618, "radius": 1000}, {"id": 12090984377, "name": "Edi", "amenity": "restaurant", "lat": 47.3886532, "lon": 8.5392721, "radius": 1000}, {"id": 12117995033, "name": "Lernstudio", "amenity": "school", "lat": 47.3819111, "lon": 8.5456909, "radius": 1000}, {"id": 12250681350, "name": "Bity Crypto ATM", "amenity": "atm", "lat": 47.3774466, "lon": 8.5385091, "radius": 1000}, {"id": 12250717975, "name": "Värdex Crypto ATM", "amenity": "atm", "lat": 47.3842118, "lon": 8.5310402, "radius": 1000}, {"id": 12307882205, "name": "n/a", "amenity": "parking", "lat": 47.3893458, "lon": 8.5348668, "radius": 1000}, {"id": 12662402629, "name": "MRI Bahnhofplatz", "amenity": "clinic", "lat": 47.3765927, "lon": 8.5407672, "radius": 1000}]}
{"address": "Niklaus Konrad-Strasse 4, 4500 Solothurn", "price": 2880, "property_id": 4002053936, "area": "115m²", "rooms": 4.5, "lat": 47.204513902108786, "lon": 7.539104019684887, "amenities": [{"id": 292225874, "name": "UBS", "amenity": "atm", "lat": 47.2048431, "lon": 7.5407604, "radius": 1000}, {"id": 301667716, "name": "Restaurant Sternen", "amenity": "restaurant", "lat": 47.2121965, "lon": 7.5449478, "radius": 1000}, {"id": 301668363, "name": "Efem Imbiss & Café", "amenity": "fast_food", "lat": 47.2046306, "lon": 7.5405994, "radius": 1000}, {"id": 301764729, "name": "Vorstadt Bistro", "amenity": "cafe", "lat": 47.2048838, "lon": 7.5408996, "radius": 1000}, {"id": 301764730, "name": "Medbase Apotheke Solothurn", "amenity": "pharmacy", "lat": 47.2051064, "lon": 7.5405056, "radius": 1000}, {"id": 302828546, "name": "Caffè Spettacolo", "amenity": "cafe", "lat": 47.2042463, "lon": 7.54277, "radius": 1000}, {"id": 302828561, "name": "Suteria", "amenity": "cafe", "lat": 47.2081063, "lon": 7.5381924, "radius": 1000}, {"id": 302828563, "name": "TopPharm Hirsch Apotheke", "amenity": "pharmacy", "lat": 47.207909, "lon": 7.5374217, "radius": 1000}, {"id": 302828572, "name": "Kaffehalle", "amenity": "cafe", "lat": 47.2081276, "lon": 7.5355274, "radius": 1000}, {"id": 415415009, "name": "Roter Turm", "amenity": "restaurant", "lat": 47.2074597, "lon": 7.5368962, "radius": 1000}, {"id": 830588129, "name": "Akropolis", "amenity": "restaurant", "lat": 47.2048882, "lon": 7.5389356, "radius": 1000}, {"id": 833710708, "name": "Die Grüne Fee", "amenity": "bar", "lat": 47.2074594, "lon": 7.5387601, "radius": 1000}, {"id": 939041589, "name": "Solo Imbiss", "amenity": "fast_food", "lat": 47.2048779, "lon": 7.5368448, "radius": 1000}, {"id": 939041596, "name": "Trattoria Napoli", "amenity": "restaurant", "lat": 47.2045375, "lon": 7.5362046, "radius": 1000}, {"id": 939041599, "name": "Notausgang", "amenity": "restaurant", "lat": 47.2044483, "lon": 7.5363896, "radius": 1000}, {"id": 939041612, "name": "The Dock", "amenity": "bar", "lat": 47.2051717, "lon": 7.5361348, "radius": 1000}, {"id": 939041616, "name": "Adler", "amenity": "restaurant", "lat": 47.2047763, "lon": 7.5361643, "radius": 1000}, {"id": 939041620, "name": "Altes Spital", "amenity": "restaurant", "lat": 47.2048314, "lon": 7.5354098, "radius": 1000}, {"id": 939041621, "name": "Sonne", "amenity": "restaurant", "lat": 47.2047854, "lon": 7.5363896, "radius": 1000}, {"id": 939041623, "name": "Vini-Al Grappolo", "amenity": "restaurant", "lat": 47.2049778, "lon": 7.5368094, "radius": 1000}, {"id": 939041634, "name": "Steinbock", "amenity": "pub", "lat": 47.2046387, "lon": 7.5379426, "radius": 1000}, {"id": 939041645, "name": "Fragale", "amenity": "restaurant", "lat": 47.2046861, "lon": 7.5375537, "radius": 1000}, {"id": 939041649, "name": "Fu-Lin", "amenity": "restaurant", "lat": 47.2037603, "lon": 7.5390531, "radius": 1000}, {"id": 939048277, "name": "Fryhof Bistro", "amenity": "pub", "lat": 47.2072632, "lon": 7.5350978, "radius": 1000}, {"id": 939048278, "name": "Du Commerce", "amenity": "restaurant", "lat": 47.2070915, "lon": 7.5352809, "radius": 1000}, {"id": 939048279, "name": "Locanda", "amenity": "restaurant", "lat": 47.2073702, "lon": 7.5359649, "radius": 1000}, {"id": 939048282, "name": "Zum Türk", "amenity": "bar", "lat": 47.2071206, "lon": 7.5367883, "radius": 1000}, {"id": 939048283, "name": "19th Alley", "amenity": "pub", "lat": 47.2072427, "lon": 7.5385103, "radius": 1000}, {"id": 939048288, "name": "Zur Grünen Ecke", "amenity": "restaurant", "lat": 47.2064017, "lon": 7.5358999, "radius": 1000}, {"id": 939048289, "name": "Wengihaus", "amenity": "restaurant", "lat": 47.206512, "lon": 7.5358683, "radius": 1000}, {"id": 939048290, "name": "Löwen", "amenity": "restaurant", "lat": 47.2069183, "lon": 7.5370136, "radius": 1000}, {"id": 939048292, "name": "Babylon", "amenity": "fast_food", "lat": 47.2072718, "lon": 7.5368205, "radius": 1000}, {"id": 939048293, "name": "Trattoria Pizzeria da Daniele", "amenity": "restaurant", "lat": 47.2073374, "lon": 7.5374508, "radius": 1000}, {"id": 939048295, "name": "Chicken Chaoticum", "amenity": "pub", "lat": 47.2082941, "lon": 7.5347806, "radius": 1000}, {"id": 939048297, "name": "Zum Stephan", "amenity": "restaurant", "lat": 47.207188, "lon": 7.5355626, "radius": 1000}, {"id": 939048298, "name": "Zunfthaus zu Wirthen", "amenity": "restaurant", "lat": 47.2075725, "lon": 7.5366033, "radius": 1000}, {"id": 939048299, "name": "Brasserie Federale", "amenity": "restaurant", "lat": 47.2077, "lon": 7.5367052, "radius": 1000}, {"id": 1305573211, "name": "McDonald's", "amenity": "fast_food", "lat": 47.2040461, "lon": 7.5415408, "radius": 1000}, {"id": 1305574961, "name": "Thai Sunshine", "amenity": "restaurant", "lat": 47.2047013, "lon": 7.5364428, "radius": 1000}, {"id": 1348493919, "name": "Salzhaus", "amenity": "restaurant", "lat": 47.206414, "lon": 7.536623, "radius": 1000}, {"id": 1348523756, "name": "Kreuz", "amenity": "restaurant", "lat": 47.2067438, "lon": 7.5376825, "radius": 1000}, {"id": 1348523758, "name": "Steiner", "amenity": "cafe", "lat": 47.2049949, "lon": 7.5407086, "radius": 1000}, {"id": 1348543899, "name": "Confiserie Hofer", "amenity": "cafe", "lat": 47.2065141, "lon": 7.5351797, "radius": 1000}, {"id": 1348543900, "name": "Migros Restaurant", "amenity": "restaurant", "lat": 47.2066385, "lon": 7.5334304, "radius": 1000}, {"id": 1360363823, "name": "Pittaria", "amenity": "fast_food", "lat": 47.2069204, "lon": 7.5379211, "radius": 1000}, {"id": 1445700155, "name": "n/a", "amenity": "parking", "lat": 47.2037855, "lon": 7.5398567, "radius": 1000}, {"id": 1612175339, "name": "Solheure", "amenity": "pub", "lat": 47.2070877, "lon": 7.5399342, "radius": 1000}, {"id": 1711878551, "name": "Kaufmännische Berufsschule", "amenity": "school", "lat": 47.2049253, "lon": 7.5382655, "radius": 1000}, {"id": 1711923340, "name": "Jägerstübli", "amenity": "restaurant", "lat": 47.2063927, "lon": 7.5354338, "radius": 1000}, {"id": 1711923342, "name": "NEST", "amenity": "cafe", "lat": 47.206079, "lon": 7.5356996, "radius": 1000}, {"id": 1711923360, "name": "Gallo Nero", "amenity": "restaurant", "lat": 47.2078324, "lon": 7.5365875, "radius": 1000}, {"id": 1711992336, "name": "Red John", "amenity": "pub", "lat": 47.2061179, "lon": 7.5358558, "radius": 1000}, {"id": 1711992359, "name": "Chutz", "amenity": "pub", "lat": 47.2061376, "lon": 7.5359472, "radius": 1000}, {"id": 1711992362, "name": "Cantina del Vino", "amenity": "bar", "lat": 47.2063339, "lon": 7.5365682, "radius": 1000}, {"id": 1713911589, "name": "Tavola Calda", "amenity": "fast_food", "lat": 47.2051584, "lon": 7.5409779, "radius": 1000}, {"id": 1713911594, "name": "Mediterane Leckereien", "amenity": "restaurant", "lat": 47.2064866, "lon": 7.5368386, "radius": 1000}, {"id": 1713911600, "name": "gassbar", "amenity": "bar", "lat": 47.2069995, "lon": 7.5371538, "radius": 1000}, {"id": 1715927529, "name": "Cantinetta Bindella", "amenity": "restaurant", "lat": 47.2073052, "lon": 7.5397437, "radius": 1000}, {"id": 1715927538, "name": "Amun Take-Away", "amenity": "fast_food", "lat": 47.2049508, "lon": 7.540494, "radius": 1000}, {"id": 1820083459, "name": "n/a", "amenity": "atm", "lat": 47.2083247, "lon": 7.5349187, "radius": 1000}, {"id": 1825231595, "name": "Kulturm", "amenity": "bar", "lat": 47.208557, "lon": 7.534694, "radius": 1000}, {"id": 1825232428, "name": "Jonny's Grill Bistro Bar", "amenity": "restaurant", "lat": 47.208657, "lon": 7.53491, "radius": 1000}, {"id": 1825234424, "name": "Barterre", "amenity": "bar", "lat": 47.208584, "lon": 7.535309, "radius": 1000}, {"id": 1831316797, "name": "Il Ponte del Sole", "amenity": "restaurant", "lat": 47.2049206, "lon": 7.5360605, "radius": 1000}, {"id": 1832954732, "name": "Berner Kantonalbank", "amenity": "bank", "lat": 47.2080958, "lon": 7.5356377, "radius": 1000}, {"id": 1833002623, "name": "Bank Cler", "amenity": "bank", "lat": 47.2072922, "lon": 7.5324641, "radius": 1000}, {"id": 2009081375, "name": "Raiffeisenbank Weissenstein", "amenity": "bank", "lat": 47.2082195, "lon": 7.5383002, "radius": 1000}, {"id": 2011278142, "name": "Barock Cafe", "amenity": "cafe", "lat": 47.2061416, "lon": 7.5361578, "radius": 1000}, {"id": 2336933387, "name": "Manora", "amenity": "restaurant", "lat": 47.2084144, "lon": 7.536277, "radius": 1000}, {"id": 2405737636, "name": "Postfinance", "amenity": "atm", "lat": 47.2079031, "lon": 7.5388512, "radius": 1000}, {"id": 2411862641, "name": "Hofer", "amenity": "cafe", "lat": 47.2080686, "lon": 7.5361749, "radius": 1000}, {"id": 2421227277, "name": "Bibliothek der Pädagogischen Hochschule", "amenity": "library", "lat": 47.212463, "lon": 7.5433011, "radius": 1000}, {"id": 2670017043, "name": "Hafebar", "amenity": "bar", "lat": 47.2056468, "lon": 7.5384611, "radius": 1000}, {"id": 2875320103, "name": "Il Peperoncino", "amenity": "restaurant", "lat": 47.2026083, "lon": 7.5468779, "radius": 1000}, {"id": 2992832602, "name": "Kaiser Wannee Thai", "amenity": "restaurant", "lat": 47.2074394, "lon": 7.5331005, "radius": 1000}, {"id": 3001196005, "name": "West Café", "amenity": "cafe", "lat": 47.2071334, "lon": 7.5322394, "radius": 1000}, {"id": 3077030019, "name": "Subway", "amenity": "fast_food", "lat": 47.2041251, "lon": 7.5416014, "radius": 1000}, {"id": 3077108372, "name": "Bieltor", "amenity": "parking", "lat": 47.2082027, "lon": 7.5344142, "radius": 1000}, {"id": 3294202313, "name": "Flora mini Beiz", "amenity": "restaurant", "lat": 47.2085584, "lon": 7.5364103, "radius": 1000}, {"id": 3294299949, "name": "Ambassador-Apotheke", "amenity": "pharmacy", "lat": 47.2073036, "lon": 7.5330791, "radius": 1000}, {"id": 3294299950, "name": "Confiserie Hofer", "amenity": "cafe", "lat": 47.2070057, "lon": 7.5329616, "radius": 1000}, {"id": 3294299951, "name": "Salento 11", "amenity": "restaurant", "lat": 47.206692, "lon": 7.5340197, "radius": 1000}, {"id": 3294299952, "name": "Sabsin's", "amenity": "fast_food", "lat": 47.206816, "lon": 7.5338192, "radius": 1000}, {"id": 3466147499, "name": "Migros Bank", "amenity": "bank", "lat": 47.2078919, "lon": 7.5372432, "radius": 1000}, {"id": 3466147503, "name": "lerns - Die Tagesschule", "amenity": "school", "lat": 47.2079556, "lon": 7.5374102, "radius": 1000}, {"id": 3473937432, "name": "McCafé", "amenity": "cafe", "lat": 47.2040292, "lon": 7.5416204, "radius": 1000}, {"id": 3519797888, "name": "Burristurm", "amenity": "restaurant", "lat": 47.2083494, "lon": 7.5347929, "radius": 1000}, {"id": 3519879172, "name": "n/a", "amenity": "atm", "lat": 47.2081971, "lon": 7.5383554, "radius": 1000}, {"id": 3585446195, "name": "U-Boot Stadtgrill", "amenity": "fast_food", "lat": 47.2083257, "lon": 7.5367629, "radius": 1000}, {"id": 3699461285, "name": "Pasha food", "amenity": "fast_food", "lat": 47.2084523, "lon": 7.5369045, "radius": 1000}, {"id": 3999473250, "name": "Chocola", "amenity": "cafe", "lat": 47.2070269, "lon": 7.5369052, "radius": 1000}, {"id": 3999541458, "name": "Thung Thong", "amenity": "restaurant", "lat": 47.2047057, "lon": 7.537415, "radius": 1000}, {"id": 4124143098, "name": "così Ristorante & Pizzeria", "amenity": "restaurant", "lat": 47.2047969, "lon": 7.5370633, "radius": 1000}, {"id": 4147259808, "name": "eifach", "amenity": "bar", "lat": 47.2071524, "lon": 7.5354488, "radius": 1000}, {"id": 4147259816, "name": "Mega Imbiss", "amenity": "fast_food", "lat": 47.2075071, "lon": 7.5387218, "radius": 1000}, {"id": 4147259821, "name": "n/a", "amenity": "atm", "lat": 47.2072691, "lon": 7.5364477, "radius": 1000}, {"id": 4147259823, "name": "Stadtcafé", "amenity": "cafe", "lat": 47.2078832, "lon": 7.5371486, "radius": 1000}, {"id": 4147259824, "name": "safran", "amenity": "restaurant", "lat": 47.2083582, "lon": 7.5330846, "radius": 1000}, {"id": 4147284551, "name": "UBS", "amenity": "bank", "lat": 47.2077551, "lon": 7.534313, "radius": 1000}, {"id": 4161285894, "name": "Aarebar", "amenity": "restaurant", "lat": 47.2064496, "lon": 7.536719, "radius": 1000}, {"id": 4161741461, "name": "Restaurant Thai Shop", "amenity": "restaurant", "lat": 47.2046512, "lon": 7.5355642, "radius": 1000}, {"id": 4248118390, "name": "The Shipyard's", "amenity": "pub", "lat": 47.2068945, "lon": 7.5375565, "radius": 1000}, {"id": 4266767138, "name": "Zum Chregu", "amenity": "restaurant", "lat": 47.2048129, "lon": 7.5358067, "radius": 1000}, {"id": 4266767142, "name": "Stalden", "amenity": "restaurant", "lat": 47.2067493, "lon": 7.535054, "radius": 1000}, {"id": 4266767477, "name": "Gelateria Italia", "amenity": "cafe", "lat": 47.2063547, "lon": 7.5334649, "radius": 1000}, {"id": 4266842689, "name": "Café Bar Landhaus", "amenity": "cafe", "lat": 47.2061982, "lon": 7.5363223, "radius": 1000}, {"id": 4266842690, "name": "Il Bar", "amenity": "cafe", "lat": 47.2062499, "lon": 7.536452, "radius": 1000}, {"id": 4273064056, "name": "H4", "amenity": "restaurant", "lat": 47.2058565, "lon": 7.5416093, "radius": 1000}, {"id": 4318161034, "name": "Stadtrösterei", "amenity": "cafe", "lat": 47.2049559, "lon": 7.5414198, "radius": 1000}, {"id": 4322755552, "name": "Nonna Rosetta", "amenity": "restaurant", "lat": 47.2044825, "lon": 7.535911, "radius": 1000}, {"id": 4422603878, "name": "Leopold's", "amenity": "restaurant", "lat": 47.2047568, "lon": 7.5311407, "radius": 1000}, {"id": 4422603879, "name": "Restaurant Leopold's", "amenity": "bar", "lat": 47.2047793, "lon": 7.5311262, "radius": 1000}, {"id": 4442375495, "name": "regiobank", "amenity": "bank", "lat": 47.2078348, "lon": 7.5332331, "radius": 1000}, {"id": 4809922536, "name": "Pizzeria", "amenity": "restaurant", "lat": 47.2016825, "lon": 7.529064, "radius": 1000}, {"id": 4987035195, "name": "bistro 9", "amenity": "restaurant", "lat": 47.1997461, "lon": 7.5385738, "radius": 1000}, {"id": 4987035196, "name": "n/a", "amenity": "restaurant", "lat": 47.1997673, "lon": 7.5402545, "radius": 1000}, {"id": 4987092811, "name": "La Couronne", "amenity": "restaurant", "lat": 47.2078934, "lon": 7.5385137, "radius": 1000}, {"id": 5536034940, "name": "Baseltor", "amenity": "restaurant", "lat": 47.2086202, "lon": 7.5393286, "radius": 1000}, {"id": 5536087902, "name": "Apple's", "amenity": "fast_food", "lat": 47.2083132, "lon": 7.536903, "radius": 1000}, {"id": 5536114601, "name": "Lüthy Buchcafé", "amenity": "cafe", "lat": 47.2079602, "lon": 7.535633, "radius": 1000}, {"id": 5629903675, "name": "Fryhof Lounge", "amenity": "bar", "lat": 47.2072973, "lon": 7.5351117, "radius": 1000}, {"id": 5785960651, "name": "n/a", "amenity": "atm", "lat": 47.2042566, "lon": 7.5387939, "radius": 1000}, {"id": 5786694127, "name": "Argileh", "amenity": "bar", "lat": 47.2046631, "lon": 7.5376706, "radius": 1000}, {"id": 5786802178, "name": "Credit Suisse", "amenity": "bank", "lat": 47.2064849, "lon": 7.5344414, "radius": 1000}, {"id": 5819101043, "name": "Mensa FHNW", "amenity": "fast_food", "lat": 47.2124438, "lon": 7.54302, "radius": 1000}, {"id": 5824700234, "name": "Baloise Bank SoBa", "amenity": "bank", "lat": 47.208886, "lon": 7.5338666, "radius": 1000}, {"id": 6343197763, "name": "Bibliomedia", "amenity": "library", "lat": 47.2081517, "lon": 7.5422953, "radius": 1000}, {"id": 6549447901, "name": "Zone 11", "amenity": "restaurant", "lat": 47.2113742, "lon": 7.5362214, "radius": 1000}, {"id": 6808065180, "name": "Baloise Bank SoBa", "amenity": "atm", "lat": 47.2082554, "lon": 7.5340769, "radius": 1000}, {"id": 6898797928, "name": "Extraball", "amenity": "restaurant", "lat": 47.2062195, "lon": 7.5301248, "radius": 1000}, {"id": 7298442702, "name": "n/a", "amenity": "atm", "lat": 47.2042644, "lon": 7.5422564, "radius": 1000}, {"id": 7574936353, "name": "Valiant", "amenity": "bank", "lat": 47.2117755, "lon": 7.5389663, "radius": 1000}, {"id": 7796754765, "name": "Flamme", "amenity": "fast_food", "lat": 47.2069028, "lon": 7.5372538, "radius": 1000}, {"id": 8149202110, "name": "n/a", "amenity": "parking", "lat": 47.1980848, "lon": 7.5444719, "radius": 1000}, {"id": 8237483378, "name": "Santas Oase", "amenity": "bar", "lat": 47.2061414, "lon": 7.5354487, "radius": 1000}, {"id": 8599900790, "name": "Happy End", "amenity": "bar", "lat": 47.2067574, "lon": 7.5339137, "radius": 1000}, {"id": 9363591360, "name": "n/a", "amenity": "fast_food", "lat": 47.2080937, "lon": 7.534725, "radius": 1000}, {"id": 9379748446, "name": "Panini Bar", "amenity": "fast_food", "lat": 47.2063648, "lon": 7.5352939, "radius": 1000}, {"id": 9526797654, "name": "n/a", "amenity": "fast_food", "lat": 47.2045897, "lon": 7.541447, "radius": 1000}, {"id": 9775359202, "name": "Weinstüberl & Weinverkauf", "amenity": "bar", "lat": 47.2053474, "lon": 7.5367652, "radius": 1000}, {"id": 10100509940, "name": "Oskar & Luise", "amenity": "restaurant", "lat": 47.2072569, "lon": 7.5357748, "radius": 1000}, {"id": 10795036094, "name": "Taverna Amphorea", "amenity": "restaurant", "lat": 47.2069614, "lon": 7.5349993, "radius": 1000}, {"id": 10893067316, "name": "Pfefferkorn", "amenity": "restaurant", "lat": 47.208274, "lon": 7.5378613, "radius": 1000}, {"id": 10961908105, "name": "n/a", "amenity": "fast_food", "lat": 47.2083162, "lon": 7.5369151, "radius": 1000}, {"id": 10979316428, "name": "n/a", "amenity": "atm", "lat": 47.206922, "lon": 7.532515, "radius": 1000}, {"id": 11017903309, "name": "one", "amenity": "bar", "lat": 47.207156, "lon": 7.5333255, "radius": 1000}, {"id": 11077590002, "name": "Albert Brötlibar", "amenity": "fast_food", "lat": 47.2067841, "lon": 7.5372086, "radius": 1000}, {"id": 11387813944, "name": "n/a", "amenity": "parking", "lat": 47.1998299, "lon": 7.5320215, "radius": 1000}, {"id": 11826535577, "name": "Zentralbibliothek", "amenity": "library", "lat": 47.2099586, "lon": 7.5292008, "radius": 1000}, {"id": 11844909931, "name": "Memo", "amenity": "fast_food", "lat": 47.2032608, "lon": 7.543415, "radius": 1000}, {"id": 12112631558, "name": "Solo Fresh & fast Crispy Chicken", "amenity": "restaurant", "lat": 47.2041652, "lon": 7.5388339, "radius": 1000}, {"id": 12613405657, "name": "Le Restaurant", "amenity": "restaurant", "lat": 47.2079783, "lon": 7.5385136, "radius": 1000}]}
{"address": "Hölzliweg 9, 8405 Winterthur", "price": 2880, "property_id": 4002014835, "area": "115m²", "rooms": 4.5, "lat": 47.4859972, "lon": 8.77093975, "amenities": [{"id": 632149361, "name": "Rössli", "amenity": "restaurant", "lat": 47.4822412, "lon": 8.7612677, "radius": 1000}, {"id": 651516563, "name": "Zürcher Kantonalbank", "amenity": "bank", "lat": 47.4844208, "lon": 8.7598959, "radius": 1000}, {"id": 1328945978, "name": "Amavita", "amenity": "pharmacy", "lat": 47.4851087, "lon": 8.7623802, "radius": 1000}, {"id": 1328945988, "name": "Mare et Monti", "amenity": "restaurant", "lat": 47.4849589, "lon": 8.7629776, "radius": 1000}, {"id": 1500785669, "name": "Shopping Seen", "amenity": "parking", "lat": 47.4847208, "lon": 8.7632508, "radius": 1000}, {"id": 1519474203, "name": "Migros Restaurant", "amenity": "restaurant", "lat": 47.4853872, "lon": 8.7627865, "radius": 1000}, {"id": 2058933113, "name": "n/a", "amenity": "parking", "lat": 47.4833928, "lon": 8.7601269, "radius": 1000}, {"id": 2457539648, "name": "Restaurant Kafi Burehus", "amenity": "restaurant", "lat": 47.4866133, "lon": 8.7594559, "radius": 1000}, {"id": 4095400162, "name": "Café Restaurant Urban", "amenity": "cafe", "lat": 47.4882213, "lon": 8.7590845, "radius": 1000}, {"id": 4350890743, "name": "Café Mélange", "amenity": "cafe", "lat": 47.4843034, "lon": 8.7641677, "radius": 1000}, {"id": 4395329792, "name": "Take Away Seen", "amenity": "fast_food", "lat": 47.4837102, "lon": 8.7606874, "radius": 1000}, {"id": 4395329797, "name": "Jimmy’s Bar", "amenity": "bar", "lat": 47.483154, "lon": 8.7609805, "radius": 1000}, {"id": 4395329798, "name": "Krone Pub", "amenity": "pub", "lat": 47.483071, "lon": 8.7610753, "radius": 1000}, {"id": 5380764624, "name": "Erb", "amenity": "cafe", "lat": 47.4858482, "lon": 8.7631807, "radius": 1000}, {"id": 5770385050, "name": "Seen Pizza - Kebab", "amenity": "fast_food", "lat": 47.4844248, "lon": 8.7628281, "radius": 1000}, {"id": 6610954916, "name": "n/a", "amenity": "parking", "lat": 47.4828941, "lon": 8.7621569, "radius": 1000}, {"id": 7817745786, "name": "Zentrum Eule", "amenity": "school", "lat": 47.4870042, "lon": 8.7647046, "radius": 1000}, {"id": 9565727837, "name": "Himmellounge", "amenity": "bar", "lat": 47.4927172, "lon": 8.7621295, "radius": 1000}, {"id": 9847569589, "name": "n/a", "amenity": "parking", "lat": 47.4821872, "lon": 8.7787059, "radius": 1000}, {"id": 11200227327, "name": "n/a", "amenity": "atm", "lat": 47.4850289, "lon": 8.7631583, "radius": 1000}, {"id": 12546601315, "name": "Post Apotheke", "amenity": "pharmacy", "lat": 47.4854996, "lon": 8.764709, "radius": 1000}, {"id": 12546601316, "name": "Top 1", "amenity": "restaurant", "lat": 47.4837338, "lon": 8.7601794, "radius": 1000}, {"id": 12583268649, "name": "Ginger Haus", "amenity": "restaurant", "lat": 47.4842096, "lon": 8.7597043, "radius": 1000}]}
{"address": "Weidmannstrasse 13, 8046 Zürich", "price": 2880, "property_id": 4001972648, "area": "115m²", "rooms": 4.5, "lat": 47.42325975, "lon": 8.502611041329322, "amenities": [{"id": 315314715, "name": "My Kebab", "amenity": "fast_food", "lat": 47.4210295, "lon": 8.501703, "radius": 1000}, {"id": 315559019, "name": "Postfinance", "amenity": "atm", "lat": 47.419347, "lon": 8.5078018, "radius": 1000}, {"id": 317005198, "name": "CS Bancomat", "amenity": "atm", "lat": 47.4197551, "lon": 8.5079146, "radius": 1000}, {"id": 317005817, "name": "Migros Restaurant", "amenity": "restaurant", "lat": 47.420226, "lon": 8.5085756, "radius": 1000}, {"id": 317005851, "name": "Treff", "amenity": "fast_food", "lat": 47.4200404, "lon": 8.5085041, "radius": 1000}, {"id": 765769912, "name": "Medbase Apotheke Zehntenhaus", "amenity": "pharmacy", "lat": 47.4193712, "lon": 8.5067513, "radius": 1000}, {"id": 1102461658, "name": "Einkaufscenter ZH Affoltern", "amenity": "parking", "lat": 47.4206623, "lon": 8.5080402, "radius": 1000}, {"id": 1975523704, "name": "Wirtschaft Unterdorf", "amenity": "restaurant", "lat": 47.4262082, "lon": 8.5054134, "radius": 1000}, {"id": 2133810173, "name": "KuBaA", "amenity": "bar", "lat": 47.4215582, "lon": 8.5058913, "radius": 1000}, {"id": 2663342789, "name": "Restaurant Büsi", "amenity": "restaurant", "lat": 47.4270313, "lon": 8.5102272, "radius": 1000}, {"id": 3725379463, "name": "Pizzeria Piazza", "amenity": "restaurant", "lat": 47.4194454, "lon": 8.5060346, "radius": 1000}, {"id": 3725397475, "name": "Ristorante Pizzeria da Enzo", "amenity": "restaurant", "lat": 47.4184517, "lon": 8.5058744, "radius": 1000}, {"id": 3725402887, "name": "Hachi Sushi", "amenity": "restaurant", "lat": 47.4193443, "lon": 8.5069373, "radius": 1000}, {"id": 3725780317, "name": "Zähnte Kafi", "amenity": "cafe", "lat": 47.4197973, "lon": 8.5067754, "radius": 1000}, {"id": 3729613512, "name": "Restaurant Spice Garden", "amenity": "restaurant", "lat": 47.4193772, "lon": 8.5062829, "radius": 1000}, {"id": 3782913102, "name": "n/a", "amenity": "parking", "lat": 47.420667, "lon": 8.5075365, "radius": 1000}, {"id": 4472523737, "name": "PBZ Bibliothek Affoltern", "amenity": "library", "lat": 47.4245881, "lon": 8.5109267, "radius": 1000}, {"id": 4838594381, "name": "Dropa Affoltern", "amenity": "pharmacy", "lat": 47.420051, "lon": 8.5081901, "radius": 1000}, {"id": 5174433233, "name": "Kafitreff GZ Affoltern", "amenity": "cafe", "lat": 47.4246154, "lon": 8.5110044, "radius": 1000}, {"id": 5377673114, "name": "Cinnamon Garden", "amenity": "restaurant", "lat": 47.4192953, "lon": 8.5052369, "radius": 1000}, {"id": 5377673115, "name": "Bancomat ZKB", "amenity": "atm", "lat": 47.4197363, "lon": 8.5050552, "radius": 1000}, {"id": 5390216945, "name": "Clubhaus TC Valsana", "amenity": "restaurant", "lat": 47.4235012, "lon": 8.4922155, "radius": 1000}, {"id": 9179370306, "name": "n/a", "amenity": "fast_food", "lat": 47.4292547, "lon": 8.5111259, "radius": 1000}, {"id": 9726557724, "name": "Privatschule A bis Z", "amenity": "school", "lat": 47.4257179, "lon": 8.5098522, "radius": 1000}, {"id": 10121414282, "name": "Up2You", "amenity": "fast_food", "lat": 47.419599, "lon": 8.5057955, "radius": 1000}, {"id": 11523655559, "name": "Da Bella Italia", "amenity": "restaurant", "lat": 47.4232082, "lon": 8.4994145, "radius": 1000}, {"id": 12059128556, "name": "Serendipity Viet Food", "amenity": "restaurant", "lat": 47.4231318, "lon": 8.499721, "radius": 1000}, {"id": 12146405973, "name": "Cho Cho Momo", "amenity": "restaurant", "lat": 47.4215944, "lon": 8.501763, "radius": 1000}, {"id": 12309295616, "name": "n/a", "amenity": "parking", "lat": 47.4191036, "lon": 8.5088216, "radius": 1000}]}
{"address": "Bavurtga 9 (Altbau), 7402 Bonaduz", "price": 2880, "property_id": 4001756784, "area": "115m²", "rooms": 4.5, "lat": null, "lon": null, "amenities": []}
{"address": "Ahornweg 23, 2542 Pieterlen", "price": 2880, "property_id": 4001669568, "area": "115m²", "rooms": 4.5, "lat": 47.17285930609854, "lon": 7.338240061537902, "amenities": [{"id": 2232534921, "name": "La Perla", "amenity": "restaurant", "lat": 47.1746758, "lon": 7.336839, "radius": 1000}, {"id": 2232538072, "name": "Ascot Pub", "amenity": "pub", "lat": 47.1752263, "lon": 7.3382981, "radius": 1000}, {"id": 8825552294, "name": "n/a", "amenity": "atm", "lat": 47.1746141, "lon": 7.3368858, "radius": 1000}]}
{"address": "Via Sasso Corbaro 23, 6593 Cadenazzo", "price": 2880, "property_id": 4001668530, "area": "115m²", "rooms": 4.5, "lat": 46.15130057952928, "lon": 8.944419531213565, "amenities": [{"id": 351962380, "name": "Ristorante Al Ponte", "amenity": "restaurant", "lat": 46.1522025, "lon": 8.9493151, "radius": 1000}, {"id": 363931468, "name": "Osteria Ronco", "amenity": "cafe", "lat": 46.1465396, "lon": 8.9411193, "radius": 1000}, {"id": 3169247143, "name": "Pharmacia Centrale", "amenity": "pharmacy", "lat": 46.1517314, "lon": 8.9461626, "radius": 1000}, {"id": 3262076051, "name": "Osteria Centrale", "amenity": "bar", "lat": 46.1506825, "lon": 8.9485094, "radius": 1000}, {"id": 3262076054, "name": "Bar Chiosco Gazebo", "amenity": "bar", "lat": 46.1523023, "lon": 8.9419857, "radius": 1000}, {"id": 3263056485, "name": "Raiffeisen", "amenity": "bank", "lat": 46.1518588, "lon": 8.9452132, "radius": 1000}, {"id": 5573060792, "name": "Pizza chez Boubou", "amenity": "restaurant", "lat": 46.1525202, "lon": 8.9399504, "radius": 1000}, {"id": 5834057649, "name": "Leilo Bar", "amenity": "pub", "lat": 46.1516511, "lon": 8.9458343, "radius": 1000}, {"id": 5835336601, "name": "Il Cantuccio", "amenity": "fast_food", "lat": 46.1524371, "lon": 8.9399602, "radius": 1000}, {"id": 5867564893, "name": "Biblioteca della Scuola Media di Cadenazzo", "amenity": "library", "lat": 46.1510167, "lon": 8.9418564, "radius": 1000}, {"id": 5926572180, "name": "Biblioteca comunale per ragazzi", "amenity": "library", "lat": 46.1504232, "lon": 8.9507171, "radius": 1000}, {"id": 10261258727, "name": "Pizzeria Bar CLUB", "amenity": "restaurant", "lat": 46.1507227, "lon": 8.9431726, "radius": 1000}]}
{"address": "Niklaus Konrad-Strasse 4, 4500 Solothurn", "price": 2880, "property_id": 4002053939, "area": "115m²", "rooms": 4.5, "lat": 47.204513902108786, "lon": 7.539104019684887, "amenities": [{"id": 292225874, "name": "UBS", "amenity": "atm", "lat": 47.2048431, "lon": 7.5407604, "radius": 1000}, {"id": 301667716, "name": "Restaurant Sternen", "amenity": "restaurant", "lat": 47.2121965, "lon": 7.5449478, "radius": 1000}, {"id": 301668363, "name": "Efem Imbiss & Café", "amenity": "fast_food", "lat": 47.2046306, "lon": 7.5405994, "radius": 1000}, {"id": 301764729, "name": "Vorstadt Bistro", "amenity": "cafe", "lat": 47.2048838, "lon": 7.5408996, "radius": 1000}, {"id": 301764730, "name": "Medbase Apotheke Solothurn", "amenity": "pharmacy", "lat": 47.2051064, "lon": 7.5405056, "radius": 1000}, {"id": 302828546, "name": "Caffè Spettacolo", "amenity": "cafe", "lat": 47.2042463, "lon": 7.54277, "radius": 1000}, {"id": 302828561, "name": "Suteria", "amenity": "cafe", "lat": 47.2081063, "lon": 7.5381924, "radius": 1000}, {"id": 302828563, "name": "TopPharm Hirsch Apotheke", "amenity": "pharmacy", "lat": 47.207909, "lon": 7.5374217, "radius": 1000}, {"id": 302828572, "name": "Kaffehalle", "amenity": "cafe", "lat": 47.2081276, "lon": 7.5355274, "radius": 1000}, {"id": 415415009, "name": "Roter Turm", "amenity": "restaurant", "lat": 47.2074597, "lon": 7.5368962, "radius": 1000}, {"id": 830588129, "name": "Akropolis", "amenity": "restaurant", "lat": 47.2048882, "lon": 7.5389356, "radius": 1000}, {"id": 833710708, "name": "Die Grüne Fee", "amenity": "bar", "lat": 47.2074594, "lon": 7.5387601, "radius": 1000}, {"id": 939041589, "name": "Solo Imbiss", "amenity": "fast_food", "lat": 47.2048779, "lon": 7.5368448, "radius": 1000}, {"id": 939041596, "name": "Trattoria Napoli", "amenity": "restaurant", "lat": 47.2045375, "lon": 7.5362046, "radius": 1000}, {"id": 939041599, "name": "Notausgang", "amenity": "restaurant", "lat": 47.2044483, "lon": 7.5363896, "radius": 1000}, {"id": 939041612, "name": "The Dock", "amenity": "bar", "lat": 47.2051717, "lon": 7.5361348, "radius": 1000}, {"id": 939041616, "name": "Adler", "amenity": "restaurant", "lat": 47.2047763, "lon": 7.5361643, "radius": 1000}, {"id": 939041620, "name": "Altes Spital", "amenity": "restaurant", "lat": 47.2048314, "lon": 7.5354098, "radius": 1000}, {"id": 939041621, "name": "Sonne", "amenity": "restaurant", "lat": 47.2047854, "lon": 7.5363896, "radius": 1000}, {"id": 939041623, "name": "Vini-Al Grappolo", "amenity": "restaurant", "lat": 47.2049778, "lon": 7.5368094, "radius": 1000}, {"id": 939041634, "name": "Steinbock", "amenity": "pub", "lat": 47.2046387, "lon": 7.5379426, "radius": 1000}, {"id": 939041645, "name": "Fragale", "amenity": "restaurant", "lat": 47.2046861, "lon": 7.5375537, "radius": 1000}, {"id": 939041649, "name": "Fu-Lin", "amenity": "restaurant", "lat": 47.2037603, "lon": 7.5390531, "radius": 1000}, {"id": 939048277, "name": "Fryhof Bistro", "amenity": "pub", "lat": 47.2072632, "lon": 7.5350978, "radius": 1000}, {"id": 939048278, "name": "Du Commerce", "amenity": "restaurant", "lat": 47.2070915, "lon": 7.5352809, "radius": 1000}, {"id": 939048279, "name": "Locanda", "amenity": "restaurant", "lat": 47.2073702, "lon": 7.5359649, "radius": 1000}, {"id": 939048282, "name": "Zum Türk", "amenity": "bar", "lat": 47.2071206, "lon": 7.5367883, "radius": 1000}, {"id": 939048283, "name": "19th Alley", "amenity": "pub", "lat": 47.2072427, "lon": 7.5385103, "radius": 1000}, {"id": 939048288, "name": "Zur Grünen Ecke", "amenity": "restaurant", "lat": 47.2064017, "lon": 7.5358999, "radius": 1000}, {"id": 939048289, "name": "Wengihaus", "amenity": "restaurant", "lat": 47.206512, "lon": 7.5358683, "radius": 1000}, {"id": 939048290, "name": "Löwen", "amenity": "restaurant", "lat": 47.2069183, "lon": 7.5370136, "radius": 1000}, {"id": 939048292, "name": "Babylon", "amenity": "fast_food", "lat": 47.2072718, "lon": 7.5368205, "radius": 1000}, {"id": 939048293, "name": "Trattoria Pizzeria da Daniele", "amenity": "restaurant", "lat": 47.2073374, "lon": 7.5374508, "radius": 1000}, {"id": 939048295, "name": "Chicken Chaoticum", "amenity": "pub", "lat": 47.2082941, "lon": 7.5347806, "radius": 1000}, {"id": 939048297, "name": "Zum Stephan", "amenity": "restaurant", "lat": 47.207188, "lon": 7.5355626, "radius": 1000}, {"id": 939048298, "name": "Zunfthaus zu Wirthen", "amenity": "restaurant", "lat": 47.2075725, "lon": 7.5366033, "radius": 1000}, {"id": 939048299, "name": "Brasserie Federale", "amenity": "restaurant", "lat": 47.2077, "lon": 7.5367052, "radius": 1000}, {"id": 1305573211, "name": "McDonald's", "amenity": "fast_food", "lat": 47.2040461, "lon": 7.5415408, "radius": 1000}, {"id": 1305574961, "name": "Thai Sunshine", "amenity": "restaurant", "lat": 47.2047013, "lon": 7.5364428, "radius": 1000}, {"id": 1348493919, "name": "Salzhaus", "amenity": "restaurant", "lat": 47.206414, "lon": 7.536623, "radius": 1000}, {"id": 1348523756, "name": "Kreuz", "amenity": "restaurant", "lat": 47.2067438, "lon": 7.5376825, "radius": 1000}, {"id": 1348523758, "name": "Steiner", "amenity": "cafe", "lat": 47.2049949, "lon": 7.5407086, "radius": 1000}, {"id": 1348543899, "name": "Confiserie Hofer", "amenity": "cafe", "lat": 47.2065141, "lon": 7.5351797, "radius": 1000}, {"id": 1348543900, "name": "Migros Restaurant", "amenity": "restaurant", "lat": 47.2066385, "lon": 7.5334304, "radius": 1000}, {"id": 1360363823, "name": "Pittaria", "amenity": "fast_food", "lat": 47.2069204, "lon": 7.5379211, "radius": 1000}, {"id": 1445700155, "name": "n/a", "amenity": "parking", "lat": 47.2037855, "lon": 7.5398567, "radius": 1000}, {"id": 1612175339, "name": "Solheure", "amenity": "pub", "lat": 47.2070877, "lon": 7.5399342, "radius": 1000}, {"id": 1711878551, "name": "Kaufmännische Berufsschule", "amenity": "school", "lat": 47.2049253, "lon": 7.5382655, "radius": 1000}, {"id": 1711923340, "name": "Jägerstübli", "amenity": "restaurant", "lat": 47.2063927, "lon": 7.5354338, "radius": 1000}, {"id": 1711923342, "name": "NEST", "amenity": "cafe", "lat": 47.206079, "lon": 7.5356996, "radius": 1000}, {"id": 1711923360, "name": "Gallo Nero", "amenity": "restaurant", "lat": 47.2078324, "lon": 7.5365875, "radius": 1000}, {"id": 1711992336, "name": "Red John", "amenity": "pub", "lat": 47.2061179, "lon": 7.5358558, "radius": 1000}, {"id": 1711992359, "name": "Chutz", "amenity": "pub", "lat": 47.2061376, "lon": 7.5359472, "radius": 1000}, {"id": 1711992362, "name": "Cantina del Vino", "amenity": "bar", "lat": 47.2063339, "lon": 7.5365682, "radius": 1000}, {"id": 1713911589, "name": "Tavola Calda", "amenity": "fast_food", "lat": 47.2051584, "lon": 7.5409779, "radius": 1000}, {"id": 1713911594, "name": "Mediterane Leckereien", "amenity": "restaurant", "lat": 47.2064866, "lon": 7.5368386, "radius": 1000}, {"id": 1713911600, "name": "gassbar", "amenity": "bar", "lat": 47.2069995, "lon": 7.5371538, "radius": 1000}, {"id": 1715927529, "name": "Cantinetta Bindella", "amenity": "restaurant", "lat": 47.2073052, "lon": 7.5397437, "radius": 1000}, {"id": 1715927538, "name": "Amun Take-Away", "amenity": "fast_food", "lat": 47.2049508, "lon": 7.540494, "radius": 1000}, {"id": 1820083459, "name": "n/a", "amenity": "atm", "lat": 47.2083247, "lon": 7.5349187, "radius": 1000}, {"id": 1825231595, "name": "Kulturm", "amenity": "bar", "lat": 47.208557, "lon": 7.534694, "radius": 1000}, {"id": 1825232428, "name": "Jonny's Grill Bistro Bar", "amenity": "restaurant", "lat": 47.208657, "lon": 7.53491, "radius": 1000}, {"id": 1825234424, "name": "Barterre", "amenity": "bar", "lat": 47.208584, "lon": 7.535309, "radius": 1000}, {"id": 1831316797, "name": "Il Ponte del Sole", "amenity": "restaurant", "lat": 47.2049206, "lon": 7.5360605, "radius": 1000}, {"id": 1832954732, "name": "Berner Kantonalbank", "amenity": "bank", "lat": 47.2080958, "lon": 7.5356377, "radius": 1000}, {"id": 1833002623, "name": "Bank Cler", "amenity": "bank", "lat": 47.2072922, "lon": 7.5324641, "radius": 1000}, {"id": 2009081375, "name": "Raiffeisenbank Weissenstein", "amenity": "bank", "lat": 47.2082195, "lon": 7.5383002, "radius": 1000}, {"id": 2011278142, "name": "Barock Cafe", "amenity": "cafe", "lat": 47.2061416, "lon": 7.5361578, "radius": 1000}, {"id": 2336933387, "name": "Manora", "amenity": "restaurant", "lat": 47.2084144, "lon": 7.536277, "radius": 1000}, {"id": 2405737636, "name": "Postfinance", "amenity": "atm", "lat": 47.2079031, "lon": 7.5388512, "radius": 1000}, {"id": 2411862641, "name": "Hofer", "amenity": "cafe", "lat": 47.2080686, "lon": 7.5361749, "radius": 1000}, {"id": 2421227277, "name": "Bibliothek der Pädagogischen Hochschule", "amenity": "library", "lat": 47.212463, "lon": 7.5433011, "radius": 1000}, {"id": 2670017043, "name": "Hafebar", "amenity": "bar", "lat": 47.2056468, "lon": 7.5384611, "radius": 1000}, {"id": 2875320103, "name": "Il Peperoncino", "amenity": "restaurant", "lat": 47.2026083, "lon": 7.5468779, "radius": 1000}, {"id": 2992832602, "name": "Kaiser Wannee Thai", "amenity": "restaurant", "lat": 47.2074394, "lon": 7.5331005, "radius": 1000}, {"id": 3001196005, "name": "West Café", "amenity": "cafe", "lat": 47.2071334, "lon": 7.5322394, "radius": 1000}, {"id": 3077030019, "name": "Subway", "amenity": "fast_food", "lat": 47.2041251, "lon": 7.5416014, "radius": 1000}, {"id": 3077108372, "name": "Bieltor", "amenity": "parking", "lat": 47.2082027, "lon": 7.5344142, "radius": 1000}, {"id": 3294202313, "name": "Flora mini Beiz", "amenity": "restaurant", "lat": 47.2085584, "lon": 7.5364103, "radius": 1000}, {"id": 3294299949, "name": "Ambassador-Apotheke", "amenity": "pharmacy", "lat": 47.2073036, "lon": 7.5330791, "radius": 1000}, {"id": 3294299950, "name": "Confiserie Hofer", "amenity": "cafe", "lat": 47.2070057, "lon": 7.5329616, "radius": 1000}, {"id": 3294299951, "name": "Salento 11", "amenity": "restaurant", "lat": 47.206692, "lon": 7.5340197, "radius": 1000}, {"id": 3294299952, "name": "Sabsin's", "amenity": "fast_food", "lat": 47.206816, "lon": 7.5338192, "radius": 1000}, {"id": 3466147499, "name": "Migros Bank", "amenity": "bank", "lat": 47.2078919, "lon": 7.5372432, "radius": 1000}, {"id": 3466147503, "name": "lerns - Die Tagesschule", "amenity": "school", "lat": 47.2079556, "lon": 7.5374102, "radius": 1000}, {"id": 3473937432, "name": "McCafé", "amenity": "cafe", "lat": 47.2040292, "lon": 7.5416204, "radius": 1000}, {"id": 3519797888, "name": "Burristurm", "amenity": "restaurant", "lat": 47.2083494, "lon": 7.5347929, "radius": 1000}, {"id": 3519879172, "name": "n/a", "amenity": "atm", "lat": 47.2081971, "lon": 7.5383554, "radius": 1000}, {"id": 3585446195, "name": "U-Boot Stadtgrill", "amenity": "fast_food", "lat": 47.2083257, "lon": 7.5367629, "radius": 1000}, {"id": 3699461285, "name": "Pasha food", "amenity": "fast_food", "lat": 47.2084523, "lon": 7.5369045, "radius": 1000}, {"id": 3999473250, "name": "Chocola", "amenity": "cafe", "lat": 47.2070269, "lon": 7.5369052, "radius": 1000}, {"id": 3999541458, "name": "Thung Thong", "amenity": "restaurant", "lat": 47.2047057, "lon": 7.537415, "radius": 1000}, {"id": 4124143098, "name": "così Ristorante & Pizzeria", "amenity": "restaurant", "lat": 47.2047969, "lon": 7.5370633, "radius": 1000}, {"id": 4147259808, "name": "eifach", "amenity": "bar", "lat": 47.2071524, "lon": 7.5354488, "radius": 1000}, {"id": 4147259816, "name": "Mega Imbiss", "amenity": "fast_food", "lat": 47.2075071, "lon": 7.5387218, "radius": 1000}, {"id": 4147259821, "name": "n/a", "amenity": "atm", "lat": 47.2072691, "lon": 7.5364477, "radius": 1000}, {"id": 4147259823, "name": "Stadtcafé", "amenity": "cafe", "lat": 47.2078832, "lon": 7.5371486, "radius": 1000}, {"id": 4147259824, "name": "safran", "amenity": "restaurant", "lat": 47.2083582, "lon": 7.5330846, "radius": 1000}, {"id": 4147284551, "name": "UBS", "amenity": "bank", "lat": 47.2077551, "lon": 7.534313, "radius": 1000}, {"id": 4161285894, "name": "Aarebar", "amenity": "restaurant", "lat": 47.2064496, "lon": 7.536719, "radius": 1000}, {"id": 4161741461, "name": "Restaurant Thai Shop", "amenity": "restaurant", "lat": 47.2046512, "lon": 7.5355642, "radius": 1000}, {"id": 4248118390, "name": "The Shipyard's", "amenity": "pub", "lat": 47.2068945, "lon": 7.5375565, "radius": 1000}, {"id": 4266767138, "name": "Zum Chregu", "amenity": "restaurant", "lat": 47.2048129, "lon": 7.5358067, "radius": 1000}, {"id": 4266767142, "name": "Stalden", "amenity": "restaurant", "lat": 47.2067493, "lon": 7.535054, "radius": 1000}, {"id": 4266767477, "name": "Gelateria Italia", "amenity": "cafe", "lat": 47.2063547, "lon": 7.5334649, "radius": 1000}, {"id": 4266842689, "name": "Café Bar Landhaus", "amenity": "cafe", "lat": 47.2061982, "lon": 7.5363223, "radius": 1000}, {"id": 4266842690, "name": "Il Bar", "amenity": "cafe", "lat": 47.2062499, "lon": 7.536452, "radius": 1000}, {"id": 4273064056, "name": "H4", "amenity": "restaurant", "lat": 47.2058565, "lon": 7.5416093, "radius": 1000}, {"id": 4318161034, "name": "Stadtrösterei", "amenity": "cafe", "lat": 47.2049559, "lon": 7.5414198, "radius": 1000}, {"id": 4322755552, "name": "Nonna Rosetta", "amenity": "restaurant", "lat": 47.2044825, "lon": 7.535911, "radius": 1000}, {"id": 4422603878, "name": "Leopold's", "amenity": "restaurant", "lat": 47.2047568, "lon": 7.5311407, "radius": 1000}, {"id": 4422603879, "name": "Restaurant Leopold's", "amenity": "bar", "lat": 47.2047793, "lon": 7.5311262, "radius": 1000}, {"id": 4442375495, "name": "regiobank", "amenity": "bank", "lat": 47.2078348, "lon": 7.5332331, "radius": 1000}, {"id": 4809922536, "name": "Pizzeria", "amenity": "restaurant", "lat": 47.2016825, "lon": 7.529064, "radius": 1000}, {"id": 4987035195, "name": "bistro 9", "amenity": "restaurant", "lat": 47.1997461, "lon": 7.5385738, "radius": 1000}, {"id": 4987035196, "name": "n/a", "amenity": "restaurant", "lat": 47.1997673, "lon": 7.5402545, "radius": 1000}, {"id": 4987092811, "name": "La Couronne", "amenity": "restaurant", "lat": 47.2078934, "lon": 7.5385137, "radius": 1000}, {"id": 5536034940, "name": "Baseltor", "amenity": "restaurant", "lat": 47.2086202, "lon": 7.5393286, "radius": 1000}, {"id": 5536087902, "name": "Apple's", "amenity": "fast_food", "lat": 47.2083132, "lon": 7.536903, "radius": 1000}, {"id": 5536114601, "name": "Lüthy Buchcafé", "amenity": "cafe", "lat": 47.2079602, "lon": 7.535633, "radius": 1000}, {"id": 5629903675, "name": "Fryhof Lounge", "amenity": "bar", "lat": 47.2072973, "lon": 7.5351117, "radius": 1000}, {"id": 5785960651, "name": "n/a", "amenity": "atm", "lat": 47.2042566, "lon": 7.5387939, "radius": 1000}, {"id": 5786694127, "name": "Argileh", "amenity": "bar", "lat": 47.2046631, "lon": 7.5376706, "radius": 1000}, {"id": 5786802178, "name": "Credit Suisse", "amenity": "bank", "lat": 47.2064849, "lon": 7.5344414, "radius": 1000}, {"id": 5819101043, "name": "Mensa FHNW", "amenity": "fast_food", "lat": 47.2124438, "lon": 7.54302, "radius": 1000}, {"id": 5824700234, "name": "Baloise Bank SoBa", "amenity": "bank", "lat": 47.208886, "lon": 7.5338666, "radius": 1000}, {"id": 6343197763, "name": "Bibliomedia", "amenity": "library", "lat": 47.2081517, "lon": 7.5422953, "radius": 1000}, {"id": 6549447901, "name": "Zone 11", "amenity": "restaurant", "lat": 47.2113742, "lon": 7.5362214, "radius": 1000}, {"id": 6808065180, "name": "Baloise Bank SoBa", "amenity": "atm", "lat": 47.2082554, "lon": 7.5340769, "radius": 1000}, {"id": 6898797928, "name": "Extraball", "amenity": "restaurant", "lat": 47.2062195, "lon": 7.5301248, "radius": 1000}, {"id": 7298442702, "name": "n/a", "amenity": "atm", "lat": 47.2042644, "lon": 7.5422564, "radius": 1000}, {"id": 7574936353, "name": "Valiant", "amenity": "bank", "lat": 47.2117755, "lon": 7.5389663, "radius": 1000}, {"id": 7796754765, "name": "Flamme", "amenity": "fast_food", "lat": 47.2069028, "lon": 7.5372538, "radius": 1000}, {"id": 8149202110, "name": "n/a", "amenity": "parking", "lat": 47.1980848, "lon": 7.5444719, "radius": 1000}, {"id": 8237483378, "name": "Santas Oase", "amenity": "bar", "lat": 47.2061414, "lon": 7.5354487, "radius": 1000}, {"id": 8599900790, "name": "Happy End", "amenity": "bar", "lat": 47.2067574, "lon": 7.5339137, "radius": 1000}, {"id": 9363591360, "name": "n/a", "amenity": "fast_food", "lat": 47.2080937, "lon": 7.534725, "radius": 1000}, {"id": 9379748446, "name": "Panini Bar", "amenity": "fast_food", "lat": 47.2063648, "lon": 7.5352939, "radius": 1000}, {"id": 9526797654, "name": "n/a", "amenity": "fast_food", "lat": 47.2045897, "lon": 7.541447, "radius": 1000}, {"id": 9775359202, "name": "Weinstüberl & Weinverkauf", "amenity": "bar", "lat": 47.2053474, "lon": 7.5367652, "radius": 1000}, {"id": 10100509940, "name": "Oskar & Luise", "amenity": "restaurant", "lat": 47.2072569, "lon": 7.5357748, "radius": 1000}, {"id": 10795036094, "name": "Taverna Amphorea", "amenity": "restaurant", "lat": 47.2069614, "lon": 7.5349993, "radius": 1000}, {"id": 10893067316, "name": "Pfefferkorn", "amenity": "restaurant", "lat": 47.208274, "lon": 7.5378613, "radius": 1000}, {"id": 10961908105, "name": "n/a", "amenity": "fast_food", "lat": 47.2083162, "lon": 7.5369151, "radius": 1000}, {"id": 10979316428, "name": "n/a", "amenity": "atm", "lat": 47.206922, "lon": 7.532515, "radius": 1000}, {"id": 11017903309, "name": "one", "amenity": "bar", "lat": 47.207156, "lon": 7.5333255, "radius": 1000}, {"id": 11077590002, "name": "Albert Brötlibar", "amenity": "fast_food", "lat": 47.2067841, "lon": 7.5372086, "radius": 1000}, {"id": 11387813944, "name": "n/a", "amenity": "parking", "lat": 47.1998299, "lon": 7.5320215, "radius": 1000}, {"id": 11826535577, "name": "Zentralbibliothek", "amenity": "library", "lat": 47.2099586, "lon": 7.5292008, "radius": 1000}, {"id": 11844909931, "name": "Memo", "amenity": "fast_food", "lat": 47.2032608, "lon": 7.543415, "radius": 1000}, {"id": 12112631558, "name": "Solo Fresh & fast Crispy Chicken", "amenity": "restaurant", "lat": 47.2041652, "lon": 7.5388339, "radius": 1000}, {"id": 12613405657, "name": "Le Restaurant", "amenity": "restaurant", "lat": 47.2079783, "lon": 7.5385136, "radius": 1000}]}
{"address": "Seeblickstr. 12, 9010 St. Gallen", "price": 2880, "property_id": 4002039822, "area": "115m²", "rooms": 4.5, "lat": 47.44059395, "lon": 9.377784349999999, "amenities": [{"id": 276171898, "name": "St. Galler Kantonalbank", "amenity": "atm", "lat": 47.4329589, "lon": 9.3835908, "radius": 1000}, {"id": 445368973, "name": "Schwyter Uni-Beck", "amenity": "cafe", "lat": 47.4328273, "lon": 9.3782718, "radius": 1000}, {"id": 445422751, "name": "Rotmontenhof", "amenity": "restaurant", "lat": 47.4370776, "lon": 9.3776357, "radius": 1000}, {"id": 660628243, "name": "Selbstbedienungsrestaurant Badi Rotmonten", "amenity": "fast_food", "lat": 47.4353605, "lon": 9.3741533, "radius": 1000}, {"id": 911971441, "name": "HSG Cafeteria B", "amenity": "cafe", "lat": 47.432265, "lon": 9.374793, "radius": 1000}, {"id": 7389408741, "name": "n/a", "amenity": "parking", "lat": 47.433004, "lon": 9.3761579, "radius": 1000}, {"id": 7393352244, "name": "Universitätsbibliothek St.Gallen", "amenity": "library", "lat": 47.4328793, "lon": 9.375203, "radius": 1000}, {"id": 7394616330, "name": "n/a", "amenity": "parking", "lat": 47.4380156, "lon": 9.3765338, "radius": 1000}, {"id": 7394684591, "name": "n/a", "amenity": "parking", "lat": 47.4371758, "lon": 9.3767964, "radius": 1000}, {"id": 12218885965, "name": "n/a", "amenity": "parking", "lat": 47.4395953, "lon": 9.3809115, "radius": 1000}, {"id": 12229092165, "name": "n/a", "amenity": "parking", "lat": 47.4394536, "lon": 9.3806368, "radius": 1000}, {"id": 12229092166, "name": "n/a", "amenity": "parking", "lat": 47.439389, "lon": 9.3805741, "radius": 1000}, {"id": 12462498191, "name": "n/a", "amenity": "parking", "lat": 47.4349081, "lon": 9.3843388, "radius": 1000}, {"id": 12466466000, "name": "n/a", "amenity": "parking", "lat": 47.4362459, "lon": 9.3868543, "radius": 1000}]}
{"address": "Bellerivestrasse 49, 8008 Zürich", "price": 2880, "property_id": 4002033013, "area": "115m²", "rooms": 4.5, "lat": 47.3566457, "lon": 8.551761367777775, "amenities": [{"id": 268411248, "name": "Hotel Seegarten", "amenity": "restaurant", "lat": 47.3613874, "lon": 8.549412, "radius": 1000}, {"id": 268420651, "name": "Ginger", "amenity": "restaurant", "lat": 47.3618394, "lon": 8.5506873, "radius": 1000}, {"id": 268421310, "name": "Tiffins", "amenity": "restaurant", "lat": 47.3618934, "lon": 8.551033, "radius": 1000}, {"id": 268421599, "name": "Suan Long", "amenity": "restaurant", "lat": 47.3630112, "lon": 8.5495281, "radius": 1000}, {"id": 268470209, "name": "Quaglinos", "amenity": "restaurant", "lat": 47.3641688, "lon": 8.5472235, "radius": 1000}, {"id": 268470293, "name": "Du Théatre", "amenity": "restaurant", "lat": 47.363996, "lon": 8.5473846, "radius": 1000}, {"id": 268470809, "name": "Co Chin Chin", "amenity": "restaurant", "lat": 47.3620903, "lon": 8.5508626, "radius": 1000}, {"id": 268471384, "name": "Amalfi", "amenity": "restaurant", "lat": 47.3606695, "lon": 8.5499916, "radius": 1000}, {"id": 268473118, "name": "Bimi", "amenity": "restaurant", "lat": 47.3637174, "lon": 8.5494425, "radius": 1000}, {"id": 268474433, "name": "Restaurant Pumpstation", "amenity": "restaurant", "lat": 47.3637531, "lon": 8.5462955, "radius": 1000}, {"id": 268474472, "name": "Drinx Bar db", "amenity": "pub", "lat": 47.3637126, "lon": 8.547619, "radius": 1000}, {"id": 268475658, "name": "Bohemia", "amenity": "restaurant", "lat": 47.364789, "lon": 8.5548938, "radius": 1000}, {"id": 268475809, "name": "Nooba", "amenity": "restaurant", "lat": 47.3651703, "lon": 8.554528, "radius": 1000}, {"id": 268482384, "name": "Yooji's", "amenity": "restaurant", "lat": 47.3582879, "lon": 8.5541672, "radius": 1000}, {"id": 268488025, "name": "Cafe Black", "amenity": "cafe", "lat": 47.3617349, "lon": 8.5485487, "radius": 1000}, {"id": 268488783, "name": "Parkhaus Utoquai", "amenity": "parking", "lat": 47.3617898, "lon": 8.5482086, "radius": 1000}, {"id": 268601209, "name": "Gesundheitszentrum für das Alter Wildbach", "amenity": "restaurant", "lat": 47.3575819, "lon": 8.5575836, "radius": 1000}, {"id": 268601323, "name": "Parkhaus Zürichhorn", "amenity": "parking", "lat": 47.3557489, "lon": 8.5531163, "radius": 1000}, {"id": 268601822, "name": "Parkhaus Feldegg", "amenity": "parking", "lat": 47.3603851, "lon": 8.5536988, "radius": 1000}, {"id": 268602010, "name": "Ländli", "amenity": "restaurant", "lat": 47.3627304, "lon": 8.5545618, "radius": 1000}, {"id": 268602187, "name": "Bistro", "amenity": "parking", "lat": 47.3631336, "lon": 8.5488848, "radius": 1000}, {"id": 270692604, "name": "NA081", "amenity": "restaurant", "lat": 47.3597536, "lon": 8.5524861, "radius": 1000}, {"id": 270795664, "name": "Alters- & Pflegewohnheim Neumünster", "amenity": "cafe", "lat": 47.3629817, "lon": 8.5594513, "radius": 1000}, {"id": 270795983, "name": "Restaurant Zauberberg", "amenity": "restaurant", "lat": 47.3632165, "lon": 8.5599915, "radius": 1000}, {"id": 270796284, "name": "Lin Lin", "amenity": "restaurant", "lat": 47.3623472, "lon": 8.5587815, "radius": 1000}, {"id": 270796495, "name": "ButchersTable", "amenity": "restaurant", "lat": 47.3615601, "lon": 8.5603652, "radius": 1000}, {"id": 270797381, "name": "Neumünster", "amenity": "restaurant", "lat": 47.3596206, "lon": 8.5585046, "radius": 1000}, {"id": 270798260, "name": "Strand-Restaurant Tiefenbrunnen", "amenity": "restaurant", "lat": 47.3519701, "lon": 8.5580482, "radius": 1000}, {"id": 270799706, "name": "Mühlebach", "amenity": "cafe", "lat": 47.3639923, "lon": 8.5517729, "radius": 1000}, {"id": 271226695, "name": "Royal Panda", "amenity": "restaurant", "lat": 47.3643316, "lon": 8.5545739, "radius": 1000}, {"id": 271672265, "name": "Silk", "amenity": "restaurant", "lat": 47.3643407, "lon": 8.5470929, "radius": 1000}, {"id": 273502894, "name": "Valentino", "amenity": "cafe", "lat": 47.3601706, "lon": 8.550781, "radius": 1000}, {"id": 275341574, "name": "Cheti's Curry", "amenity": "restaurant", "lat": 47.3650488, "lon": 8.5486637, "radius": 1000}, {"id": 485617147, "name": "Escoffier", "amenity": "restaurant", "lat": 47.3605504, "lon": 8.5524597, "radius": 1000}, {"id": 485617148, "name": "Stripped Pizza", "amenity": "restaurant", "lat": 47.3602524, "lon": 8.5521363, "radius": 1000}, {"id": 1291638554, "name": "Chinagarten Take Away", "amenity": "fast_food", "lat": 47.3545576, "lon": 8.5519589, "radius": 1000}, {"id": 1346131970, "name": "Apotheke am Kreuzplatz", "amenity": "pharmacy", "lat": 47.3650881, "lon": 8.5537692, "radius": 1000}, {"id": 1346131983, "name": "Pill Apotheke Neumünster", "amenity": "pharmacy", "lat": 47.3643816, "lon": 8.5549292, "radius": 1000}, {"id": 1356534283, "name": "Zürcher Kantonalbank", "amenity": "bank", "lat": 47.3646351, "lon": 8.5552253, "radius": 1000}, {"id": 1356701403, "name": "Postfinance", "amenity": "atm", "lat": 47.3641846, "lon": 8.5556849, "radius": 1000}, {"id": 1416153972, "name": "Postfinance", "amenity": "atm", "lat": 47.3577163, "lon": 8.5540421, "radius": 1000}, {"id": 1510019206, "name": "Misoga", "amenity": "restaurant", "lat": 47.3614068, "lon": 8.5608856, "radius": 1000}, {"id": 1710700206, "name": "Ristorante Frascati", "amenity": "restaurant", "lat": 47.3608803, "lon": 8.5478901, "radius": 1000}, {"id": 1728845231, "name": "D-Vino", "amenity": "pub", "lat": 47.3584615, "lon": 8.553987, "radius": 1000}, {"id": 1728953807, "name": "Sazio Osteria", "amenity": "restaurant", "lat": 47.3635603, "lon": 8.5495722, "radius": 1000}, {"id": 1750109103, "name": "CS Bancomat", "amenity": "atm", "lat": 47.3601542, "lon": 8.5524501, "radius": 1000}, {"id": 1768690515, "name": "Minerva Apotheke", "amenity": "pharmacy", "lat": 47.3614842, "lon": 8.5610538, "radius": 1000}, {"id": 1791263449, "name": "Raiffeisen", "amenity": "atm", "lat": 47.3653958, "lon": 8.5542918, "radius": 1000}, {"id": 2225137764, "name": "Credit Suisse", "amenity": "bank", "lat": 47.3652354, "lon": 8.5481418, "radius": 1000}, {"id": 2225269508, "name": "Lombard Odier & Cie", "amenity": "bank", "lat": 47.3642135, "lon": 8.5464473, "radius": 1000}, {"id": 2289568166, "name": "Darbar", "amenity": "restaurant", "lat": 47.3642732, "lon": 8.5548578, "radius": 1000}, {"id": 2289574750, "name": "Sazio Take Away", "amenity": "fast_food", "lat": 47.3635165, "lon": 8.5496085, "radius": 1000}, {"id": 2456775289, "name": "blindekuh", "amenity": "restaurant", "lat": 47.3583286, "lon": 8.5571633, "radius": 1000}, {"id": 3019152928, "name": "Wild Bowls", "amenity": "restaurant", "lat": 47.3636395, "lon": 8.5495067, "radius": 1000}, {"id": 3389526413, "name": "Studio Bellerive", "amenity": "restaurant", "lat": 47.3623277, "lon": 8.5475678, "radius": 1000}, {"id": 3389538257, "name": "Eden Kitchen & Bar", "amenity": "restaurant", "lat": 47.3627091, "lon": 8.5473718, "radius": 1000}, {"id": 3523102254, "name": "TopPharm Apotheke Höschgasse", "amenity": "pharmacy", "lat": 47.3577116, "lon": 8.5547536, "radius": 1000}, {"id": 3528789347, "name": "Confiserie Freytag", "amenity": "cafe", "lat": 47.357029, "lon": 8.5549279, "radius": 1000}, {"id": 3547784304, "name": "Cafeteria UZH Botanischer Garten", "amenity": "cafe", "lat": 47.3588123, "lon": 8.5595427, "radius": 1000}, {"id": 3551593268, "name": "Pill Apotheke Fröhlichstrasse", "amenity": "pharmacy", "lat": 47.355307, "lon": 8.557001, "radius": 1000}, {"id": 3554644444, "name": "Seefeldbar", "amenity": "bar", "lat": 47.3547507, "lon": 8.5571903, "radius": 1000}, {"id": 3558236013, "name": "Brasserie Seefeld", "amenity": "restaurant", "lat": 47.3526098, "lon": 8.5591926, "radius": 1000}, {"id": 4089670858, "name": "Bibliothek der Institute für Systematische Botanik und für Pflanzenbiologie", "amenity": "library", "lat": 47.3588388, "lon": 8.5595046, "radius": 1000}, {"id": 4472557764, "name": "PBZ Bibliothek Riesbach", "amenity": "library", "lat": 47.3592693, "lon": 8.5539566, "radius": 1000}, {"id": 4566888345, "name": "n/a", "amenity": "parking", "lat": 47.3511274, "lon": 8.5617765, "radius": 1000}, {"id": 4833061566, "name": "Pimp Your Pizza", "amenity": "fast_food", "lat": 47.3624078, "lon": 8.5611769, "radius": 1000}, {"id": 4833061567, "name": "Totò", "amenity": "restaurant", "lat": 47.3580896, "lon": 8.5538491, "radius": 1000}, {"id": 4833061571, "name": "Restaurant Kiosk", "amenity": "restaurant", "lat": 47.358135, "lon": 8.5478933, "radius": 1000}, {"id": 4833061574, "name": "Devil's Place", "amenity": "bar", "lat": 47.3641299, "lon": 8.5470627, "radius": 1000}, {"id": 4833061582, "name": "Conti", "amenity": "restaurant", "lat": 47.3645073, "lon": 8.5474123, "radius": 1000}, {"id": 4838594393, "name": "Benu", "amenity": "pharmacy", "lat": 47.3638878, "lon": 8.5488655, "radius": 1000}, {"id": 4872461936, "name": "Zentrum Neumünster", "amenity": "parking", "lat": 47.364095, "lon": 8.5546653, "radius": 1000}, {"id": 4880906379, "name": "Tibits", "amenity": "restaurant", "lat": 47.3649526, "lon": 8.5478868, "radius": 1000}, {"id": 4889986278, "name": "Bistro Horizont", "amenity": "cafe", "lat": 47.3602322, "lon": 8.5544097, "radius": 1000}, {"id": 4889986289, "name": "Lake Side", "amenity": "restaurant", "lat": 47.3527249, "lon": 8.5537217, "radius": 1000}, {"id": 4935627373, "name": "Iroquois", "amenity": "restaurant", "lat": 47.3582918, "lon": 8.5537364, "radius": 1000}, {"id": 4935627374, "name": "Metzg", "amenity": "restaurant", "lat": 47.355851, "lon": 8.556448, "radius": 1000}, {"id": 4935627376, "name": "Tüfenegg", "amenity": "restaurant", "lat": 47.3553163, "lon": 8.5541539, "radius": 1000}, {"id": 4935627377, "name": "Enoteca Riviera", "amenity": "restaurant", "lat": 47.3549625, "lon": 8.5550456, "radius": 1000}, {"id": 4935627380, "name": "Mura Omakase Restaurant", "amenity": "restaurant", "lat": 47.3545891, "lon": 8.5561613, "radius": 1000}, {"id": 4935627381, "name": "Miracle", "amenity": "restaurant", "lat": 47.3545311, "lon": 8.5560474, "radius": 1000}, {"id": 4935627392, "name": "Le Beaujolais", "amenity": "restaurant", "lat": 47.3554751, "lon": 8.5568172, "radius": 1000}, {"id": 4942450537, "name": "Credit Suisse", "amenity": "atm", "lat": 47.3651831, "lon": 8.5481025, "radius": 1000}, {"id": 4958366046, "name": "Pizzeria Capri", "amenity": "restaurant", "lat": 47.3604176, "lon": 8.5501478, "radius": 1000}, {"id": 4958366050, "name": "Tibits Bistro Zürich", "amenity": "restaurant", "lat": 47.3647473, "lon": 8.5475997, "radius": 1000}, {"id": 4958366051, "name": "Seehof", "amenity": "restaurant", "lat": 47.364315, "lon": 8.5477947, "radius": 1000}, {"id": 4958439555, "name": "Giusi's", "amenity": "restaurant", "lat": 47.3637686, "lon": 8.5545452, "radius": 1000}, {"id": 4996185541, "name": "Mame", "amenity": "cafe", "lat": 47.3641224, "lon": 8.5493423, "radius": 1000}, {"id": 5283791499, "name": "Güggeli-Express", "amenity": "fast_food", "lat": 47.3649133, "lon": 8.5545575, "radius": 1000}, {"id": 5344545424, "name": "Kornsilo", "amenity": "cafe", "lat": 47.3517143, "lon": 8.560923, "radius": 1000}, {"id": 5354821205, "name": "Raiffeisen", "amenity": "bank", "lat": 47.3654689, "lon": 8.554297, "radius": 1000}, {"id": 5431084536, "name": "Gainsbourg", "amenity": "bar", "lat": 47.3628263, "lon": 8.5491218, "radius": 1000}, {"id": 5677762209, "name": "GZ Riesbach Cafeteria", "amenity": "cafe", "lat": 47.359245, "lon": 8.5540563, "radius": 1000}, {"id": 5688147984, "name": "Kai Sushi", "amenity": "restaurant", "lat": 47.3629249, "lon": 8.5497941, "radius": 1000}, {"id": 5688147986, "name": "Joe & The Juice", "amenity": "cafe", "lat": 47.3628232, "lon": 8.5498902, "radius": 1000}, {"id": 5688147987, "name": "bubblish", "amenity": "cafe", "lat": 47.3630144, "lon": 8.5497095, "radius": 1000}, {"id": 5859687885, "name": "Japan saku", "amenity": "restaurant", "lat": 47.3643245, "lon": 8.5478329, "radius": 1000}, {"id": 5888416187, "name": "Hammam Salon", "amenity": "restaurant", "lat": 47.3569676, "lon": 8.5586356, "radius": 1000}, {"id": 5922544703, "name": "Razzia Bar", "amenity": "bar", "lat": 47.3609151, "lon": 8.5515444, "radius": 1000}, {"id": 7248149649, "name": "Zürcher Kantonalbank", "amenity": "atm", "lat": 47.3646253, "lon": 8.5553475, "radius": 1000}, {"id": 8124534023, "name": "La Muña", "amenity": "restaurant", "lat": 47.3628911, "lon": 8.5472553, "radius": 1000}, {"id": 8523455266, "name": "PUK - Kinder- und Jugendpsychiatrie", "amenity": "clinic", "lat": 47.362541, "lon": 8.5568696, "radius": 1000}, {"id": 8928205645, "name": "Fischerstube Zürihorn", "amenity": "restaurant", "lat": 47.3530226, "lon": 8.5505084, "radius": 1000}, {"id": 9151768393, "name": "Onkozentrum Zürich Seefeld", "amenity": "clinic", "lat": 47.3529907, "lon": 8.5586867, "radius": 1000}, {"id": 9178495731, "name": "Fischergarten", "amenity": "restaurant", "lat": 47.3529697, "lon": 8.5511478, "radius": 1000}, {"id": 9291427952, "name": "Blaue Ente", "amenity": "bar", "lat": 47.3517875, "lon": 8.5611622, "radius": 1000}, {"id": 9291427953, "name": "Blaue Ente", "amenity": "restaurant", "lat": 47.3519503, "lon": 8.5611316, "radius": 1000}, {"id": 9560861817, "name": "Fischerstube", "amenity": "restaurant", "lat": 47.3529891, "lon": 8.5510576, "radius": 1000}, {"id": 9593857220, "name": "Freie Evangelische Schule Zürich", "amenity": "school", "lat": 47.3649505, "lon": 8.5532551, "radius": 1000}, {"id": 9605979020, "name": "MODECO - Fachschule für Mode & Gestaltung", "amenity": "school", "lat": 47.3647361, "lon": 8.5529464, "radius": 1000}, {"id": 9626430086, "name": "n/a", "amenity": "parking", "lat": 47.3640629, "lon": 8.5495435, "radius": 1000}, {"id": 9726348419, "name": "Tandem IMS, Zürich", "amenity": "school", "lat": 47.3585537, "lon": 8.5542336, "radius": 1000}, {"id": 9752219318, "name": "Monocle Café", "amenity": "cafe", "lat": 47.3596826, "lon": 8.5507962, "radius": 1000}, {"id": 10152314163, "name": "The Studio", "amenity": "cafe", "lat": 47.3638328, "lon": 8.5478715, "radius": 1000}, {"id": 10828683803, "name": "Hegifret Kaffeefenster", "amenity": "cafe", "lat": 47.3617836, "lon": 8.5612343, "radius": 1000}, {"id": 11235345732, "name": "Resident Café & Eventlocation", "amenity": "cafe", "lat": 47.3627415, "lon": 8.548895, "radius": 1000}, {"id": 11579521243, "name": "Maison 33", "amenity": "cafe", "lat": 47.3572728, "lon": 8.5526229, "radius": 1000}, {"id": 11744871126, "name": "Kaisin", "amenity": "restaurant", "lat": 47.3639582, "lon": 8.5478294, "radius": 1000}, {"id": 11761779035, "name": "Kebab Grill Xolldi CCC", "amenity": "fast_food", "lat": 47.3642496, "lon": 8.5552806, "radius": 1000}, {"id": 11843562096, "name": "Spuntino", "amenity": "cafe", "lat": 47.3546706, "lon": 8.5576663, "radius": 1000}, {"id": 11966073409, "name": "Marfa", "amenity": "cafe", "lat": 47.3620459, "lon": 8.5609414, "radius": 1000}, {"id": 12561243401, "name": "Weera Pura", "amenity": "restaurant", "lat": 47.3571792, "lon": 8.5531184, "radius": 1000}, {"id": 12663326764, "name": "Razzia Restaurant", "amenity": "restaurant", "lat": 47.3608124, "lon": 8.5516525, "radius": 1000}]}
{"address": "Ludwigstr. 5, 9010 St. Gallen", "price": 2880, "property_id": 4002028634, "area": "115m²", "rooms": 4.5, "lat": 47.43990895, "lon": 9.377419517139657, "amenities": [{"id": 276171898, "name": "St. Galler Kantonalbank", "amenity": "atm", "lat": 47.4329589, "lon": 9.3835908, "radius": 1000}, {"id": 445368973, "name": "Schwyter Uni-Beck", "amenity": "cafe", "lat": 47.4328273, "lon": 9.3782718, "radius": 1000}, {"id": 445422751, "name": "Rotmontenhof", "amenity": "restaurant", "lat": 47.4370776, "lon": 9.3776357, "radius": 1000}, {"id": 660628243, "name": "Selbstbedienungsrestaurant Badi Rotmonten", "amenity": "fast_food", "lat": 47.4353605, "lon": 9.3741533, "radius": 1000}, {"id": 911971437, "name": "HSG Cafeteria A", "amenity": "cafe", "lat": 47.4317199, "lon": 9.3745076, "radius": 1000}, {"id": 911971441, "name": "HSG Cafeteria B", "amenity": "cafe", "lat": 47.432265, "lon": 9.374793, "radius": 1000}, {"id": 7389408741, "name": "n/a", "amenity": "parking", "lat": 47.433004, "lon": 9.3761579, "radius": 1000}, {"id": 7393350146, "name": "HSG Mensa", "amenity": "restaurant", "lat": 47.4312445, "lon": 9.3740872, "radius": 1000}, {"id": 7393352244, "name": "Universitätsbibliothek St.Gallen", "amenity": "library", "lat": 47.4328793, "lon": 9.375203, "radius": 1000}, {"id": 7394616330, "name": "n/a", "amenity": "parking", "lat": 47.4380156, "lon": 9.3765338, "radius": 1000}, {"id": 7394684591, "name": "n/a", "amenity": "parking", "lat": 47.4371758, "lon": 9.3767964, "radius": 1000}, {"id": 8380157467, "name": "Vin", "amenity": "fast_food", "lat": 47.4318581, "lon": 9.3816875, "radius": 1000}, {"id": 12218885965, "name": "n/a", "amenity": "parking", "lat": 47.4395953, "lon": 9.3809115, "radius": 1000}, {"id": 12229092165, "name": "n/a", "amenity": "parking", "lat": 47.4394536, "lon": 9.3806368, "radius": 1000}, {"id": 12229092166, "name": "n/a", "amenity": "parking", "lat": 47.439389, "lon": 9.3805741, "radius": 1000}, {"id": 12462498191, "name": "n/a", "amenity": "parking", "lat": 47.4349081, "lon": 9.3843388, "radius": 1000}, {"id": 12466466000, "name": "n/a", "amenity": "parking", "lat": 47.4362459, "lon": 9.3868543, "radius": 1000}, {"id": 12629023000, "name": "n/a", "amenity": "library", "lat": 47.4317197, "lon": 9.3754157, "radius": 1000}]}
{"address": "Via G. Brentani 16, 6900 Lugano", "price": 2880, "property_id": 4002028631, "area": "115m²", "rooms": 4.5, "lat": null, "lon": null, "amenities": []}
{"address": "Via G. Brentani 16, 6900 Lugano", "price": 2880, "property_id": 4002028630, "area": "115m²", "rooms": 4.5, "lat": null, "lon": null, "amenities": []}
{"address": "Guggistrasse 14 A, 6005 Luzern", "price": 2880, "property_id": 4002006119, "area": "115m²", "rooms": 4.5, "lat": 47.0442778, "lon": 8.2996906, "amenities": [{"id": 260019055, "name": "La vie en rose", "amenity": "cafe", "lat": 47.0488665, "lon": 8.3065612, "radius": 1000}, {"id": 260019056, "name": "Bahnhöfli", "amenity": "restaurant", "lat": 47.0501882, "lon": 8.3087802, "radius": 1000}, {"id": 311534836, "name": "Neustadt", "amenity": "restaurant", "lat": 47.0444975, "lon": 8.308674, "radius": 1000}, {"id": 330346226, "name": "Parterre", "amenity": "pub", "lat": 47.0447619, "lon": 8.3077395, "radius": 1000}, {"id": 506077428, "name": "Ampersand", "amenity": "restaurant", "lat": 47.0472189, "lon": 8.3078567, "radius": 1000}, {"id": 506655895, "name": "Prizzi", "amenity": "restaurant", "lat": 47.0436915, "lon": 8.3119807, "radius": 1000}, {"id": 506878641, "name": "Unterlachenhof", "amenity": "restaurant", "lat": 47.0435442, "lon": 8.3127816, "radius": 1000}, {"id": 506884229, "name": "Grottino 1313", "amenity": "restaurant", "lat": 47.04166, "lon": 8.3112416, "radius": 1000}, {"id": 506884232, "name": "Bar 59", "amenity": "bar", "lat": 47.0419574, "lon": 8.3108921, "radius": 1000}, {"id": 507040020, "name": "Oskar", "amenity": "restaurant", "lat": 47.0443317, "lon": 8.3086867, "radius": 1000}, {"id": 507040932, "name": "Bar Berlin", "amenity": "bar", "lat": 47.0439223, "lon": 8.3084694, "radius": 1000}, {"id": 507042120, "name": "Bolero", "amenity": "restaurant", "lat": 47.0462309, "lon": 8.3093801, "radius": 1000}, {"id": 507123357, "name": "Luzerner Kantonalbank", "amenity": "bank", "lat": 47.0494894, "lon": 8.306714, "radius": 1000}, {"id": 507123361, "name": "n/a", "amenity": "atm", "lat": 47.050308, "lon": 8.3090757, "radius": 1000}, {"id": 507123365, "name": "n/a", "amenity": "atm", "lat": 47.0507915, "lon": 8.307197, "radius": 1000}, {"id": 507123381, "name": "n/a", "amenity": "atm", "lat": 47.0464013, "lon": 8.3063568, "radius": 1000}, {"id": 507134987, "name": "Erdem Kebab", "amenity": "fast_food", "lat": 47.046039, "lon": 8.3099319, "radius": 1000}, {"id": 515660030, "name": "Militärgarten", "amenity": "restaurant", "lat": 47.0364246, "lon": 8.3027748, "radius": 1000}, {"id": 620927313, "name": "Crazy Cactus Tex-Mex", "amenity": "restaurant", "lat": 47.0528222, "lon": 8.2961902, "radius": 1000}, {"id": 621102495, "name": "n/a", "amenity": "parking", "lat": 47.045583, "lon": 8.309285, "radius": 1000}, {"id": 622117454, "name": "Haifischbar", "amenity": "pub", "lat": 47.0465099, "lon": 8.3043846, "radius": 1000}, {"id": 622289996, "name": "Café Bar Piccolino", "amenity": "cafe", "lat": 47.0494785, "lon": 8.3004231, "radius": 1000}, {"id": 644532757, "name": "Drei Könige", "amenity": "restaurant", "lat": 47.0494899, "lon": 8.3007794, "radius": 1000}, {"id": 644617980, "name": "Toscana", "amenity": "restaurant", "lat": 47.0500311, "lon": 8.3019634, "radius": 1000}, {"id": 646809722, "name": "Kasernenplatz", "amenity": "parking", "lat": 47.0508766, "lon": 8.2994715, "radius": 1000}, {"id": 646809725, "name": "Schützenmatte", "amenity": "parking", "lat": 47.0510797, "lon": 8.2989238, "radius": 1000}, {"id": 651966210, "name": "Pikante", "amenity": "restaurant", "lat": 47.049775, "lon": 8.3012857, "radius": 1000}, {"id": 766490610, "name": "Storchen", "amenity": "restaurant", "lat": 47.0522184, "lon": 8.3056315, "radius": 1000}, {"id": 1014207333, "name": "Brasserie Bodu", "amenity": "restaurant", "lat": 47.0518897, "lon": 8.3057843, "radius": 1000}, {"id": 1014513017, "name": "Bei Miguel", "amenity": "pub", "lat": 47.0475079, "lon": 8.302278, "radius": 1000}, {"id": 1068970629, "name": "Café Meyer", "amenity": "restaurant", "lat": 47.0454215, "lon": 8.3093691, "radius": 1000}, {"id": 1069059482, "name": "Helvetia", "amenity": "restaurant", "lat": 47.0459672, "lon": 8.3068468, "radius": 1000}, {"id": 1069059514, "name": "Zone 5", "amenity": "bar", "lat": 47.0452835, "lon": 8.3087593, "radius": 1000}, {"id": 1069059545, "name": "Weisses Schloss", "amenity": "restaurant", "lat": 47.045799, "lon": 8.3051527, "radius": 1000}, {"id": 1069059563, "name": "Salü", "amenity": "cafe", "lat": 47.0458283, "lon": 8.3064919, "radius": 1000}, {"id": 1069059583, "name": "Nachbar", "amenity": "bar", "lat": 47.0458738, "lon": 8.305106, "radius": 1000}, {"id": 1069059599, "name": "Houdini", "amenity": "cafe", "lat": 47.0458747, "lon": 8.3076142, "radius": 1000}, {"id": 1069132163, "name": "Madeleine", "amenity": "bar", "lat": 47.0517989, "lon": 8.2983325, "radius": 1000}, {"id": 1105364620, "name": "Bruch Brothers", "amenity": "pub", "lat": 47.0515689, "lon": 8.2994196, "radius": 1000}, {"id": 1119431811, "name": "Wirtshaus zum Eichhof", "amenity": "restaurant", "lat": 47.0399426, "lon": 8.3005903, "radius": 1000}, {"id": 1156333228, "name": "Hubbly Bubbly Lounge", "amenity": "bar", "lat": 47.0518303, "lon": 8.2980208, "radius": 1000}, {"id": 1232193102, "name": "Newborn", "amenity": "bar", "lat": 47.0452671, "lon": 8.3095636, "radius": 1000}, {"id": 1234120491, "name": "das weisse schaf", "amenity": "bar", "lat": 47.049463, "lon": 8.3088867, "radius": 1000}, {"id": 1234120927, "name": "La Bestia - Pizza Pizza", "amenity": "restaurant", "lat": 47.0492726, "lon": 8.3081284, "radius": 1000}, {"id": 1247399856, "name": "McDonald's", "amenity": "fast_food", "lat": 47.0496189, "lon": 8.3092221, "radius": 1000}, {"id": 1256049130, "name": "Bellini", "amenity": "restaurant", "lat": 47.0485758, "lon": 8.3087331, "radius": 1000}, {"id": 1291790574, "name": "Jodlerwirt", "amenity": "restaurant", "lat": 47.0501883, "lon": 8.3019741, "radius": 1000}, {"id": 1291790580, "name": "Il Cortile", "amenity": "restaurant", "lat": 47.0504102, "lon": 8.3021877, "radius": 1000}, {"id": 1292057374, "name": "Bruchbar", "amenity": "bar", "lat": 47.0516565, "lon": 8.2991774, "radius": 1000}, {"id": 1292171079, "name": "Asia Mr. Rung", "amenity": "restaurant", "lat": 47.0497268, "lon": 8.299415, "radius": 1000}, {"id": 1292171151, "name": "Bar 58", "amenity": "bar", "lat": 47.0496143, "lon": 8.3013741, "radius": 1000}, {"id": 1292267745, "name": "Alte Suidtersche Apotheke", "amenity": "pharmacy", "lat": 47.0502093, "lon": 8.3028748, "radius": 1000}, {"id": 1318518539, "name": "Wolf", "amenity": "restaurant", "lat": 47.0458038, "lon": 8.3063911, "radius": 1000}, {"id": 1327348697, "name": "Cara Mia Ristorante", "amenity": "restaurant", "lat": 47.0508958, "lon": 8.302812, "radius": 1000}, {"id": 1328185924, "name": "Negishi Sushi Bar", "amenity": "restaurant", "lat": 47.0498475, "lon": 8.3088526, "radius": 1000}, {"id": 1337471919, "name": "cabanas", "amenity": "restaurant", "lat": 47.0507787, "lon": 8.299628, "radius": 1000}, {"id": 1351224757, "name": "Daily Pizza", "amenity": "fast_food", "lat": 47.0482946, "lon": 8.3093839, "radius": 1000}, {"id": 1353731049, "name": "Bistro Meile", "amenity": "cafe", "lat": 47.0488511, "lon": 8.3022832, "radius": 1000}, {"id": 1353867475, "name": "Disco Pizza", "amenity": "fast_food", "lat": 47.0511592, "lon": 8.3013225, "radius": 1000}, {"id": 1353867478, "name": "Café Bar Lokal", "amenity": "cafe", "lat": 47.0514772, "lon": 8.301572, "radius": 1000}, {"id": 1359284591, "name": "Drei Könige", "amenity": "bar", "lat": 47.049542, "lon": 8.3008897, "radius": 1000}, {"id": 1423739997, "name": "Bistro du Théâtre", "amenity": "restaurant", "lat": 47.0501819, "lon": 8.306705, "radius": 1000}, {"id": 1423740022, "name": "Nefes Sisha Bar", "amenity": "bar", "lat": 47.0477079, "lon": 8.3031947, "radius": 1000}, {"id": 1423740027, "name": "Raiffeisen", "amenity": "bank", "lat": 47.0508324, "lon": 8.3078592, "radius": 1000}, {"id": 1423740032, "name": "Hanky Panky", "amenity": "bar", "lat": 47.0478726, "lon": 8.3079876, "radius": 1000}, {"id": 1423740034, "name": "La Baracca", "amenity": "restaurant", "lat": 47.0500866, "lon": 8.3067964, "radius": 1000}, {"id": 1423740035, "name": "Wirtschaft zur Ente", "amenity": "restaurant", "lat": 47.0503868, "lon": 8.3062934, "radius": 1000}, {"id": 1483240190, "name": "Opus", "amenity": "restaurant", "lat": 47.0507283, "lon": 8.3043592, "radius": 1000}, {"id": 1485039687, "name": "Parkhaus Flora", "amenity": "parking", "lat": 47.0502749, "lon": 8.3076751, "radius": 1000}, {"id": 1504787042, "name": "GourmIndia", "amenity": "restaurant", "lat": 47.052581, "lon": 8.2960532, "radius": 1000}, {"id": 1518396127, "name": "Moosmatt", "amenity": "restaurant", "lat": 47.0396733, "lon": 8.3037669, "radius": 1000}, {"id": 1518396150, "name": "Habibi's Cafe & Restaurant", "amenity": "restaurant", "lat": 47.0398264, "lon": 8.3045718, "radius": 1000}, {"id": 1573053872, "name": "Max", "amenity": "bar", "lat": 47.0488799, "lon": 8.3074642, "radius": 1000}, {"id": 1573053883, "name": "Hafenbar zur Metzgerhalle", "amenity": "pub", "lat": 47.0514568, "lon": 8.2998603, "radius": 1000}, {"id": 1573053899, "name": "Zentralbar", "amenity": "bar", "lat": 47.0489038, "lon": 8.3093457, "radius": 1000}, {"id": 1573053917, "name": "Ristorante Mamma Leone", "amenity": "restaurant", "lat": 47.0521364, "lon": 8.3033674, "radius": 1000}, {"id": 1573053939, "name": "Starbucks", "amenity": "cafe", "lat": 47.0497974, "lon": 8.3090982, "radius": 1000}, {"id": 1573054312, "name": "Pastarazzi", "amenity": "restaurant", "lat": 47.0497108, "lon": 8.3049239, "radius": 1000}, {"id": 1604641348, "name": "Mee Marathi", "amenity": "restaurant", "lat": 47.0505484, "lon": 8.3011839, "radius": 1000}, {"id": 1673659954, "name": "n/a", "amenity": "atm", "lat": 47.0511202, "lon": 8.3021099, "radius": 1000}, {"id": 1811149663, "name": "Barbès", "amenity": "restaurant", "lat": 47.045985, "lon": 8.30752, "radius": 1000}, {"id": 1812114919, "name": "Pfistern", "amenity": "restaurant", "lat": 47.0517969, "lon": 8.3058216, "radius": 1000}, {"id": 1814750677, "name": "Basilico", "amenity": "restaurant", "lat": 47.0470664, "lon": 8.3080462, "radius": 1000}, {"id": 1814750678, "name": "Da Luni", "amenity": "restaurant", "lat": 47.0470333, "lon": 8.3069406, "radius": 1000}, {"id": 1814750680, "name": "Korea Town", "amenity": "restaurant", "lat": 47.0475244, "lon": 8.3075926, "radius": 1000}, {"id": 1814750686, "name": "Wirtshaus Taube", "amenity": "restaurant", "lat": 47.0507215, "lon": 8.3031105, "radius": 1000}, {"id": 1820561921, "name": "point24", "amenity": "fast_food", "lat": 47.0464889, "lon": 8.307375, "radius": 1000}, {"id": 1821541393, "name": "Peperoncini", "amenity": "cafe", "lat": 47.0454377, "lon": 8.3037027, "radius": 1000}, {"id": 1931871414, "name": "Taburettli", "amenity": "cafe", "lat": 47.0490729, "lon": 8.3059069, "radius": 1000}, {"id": 1939714684, "name": "Boca Grande", "amenity": "bar", "lat": 47.0489776, "lon": 8.3067156, "radius": 1000}, {"id": 1939744074, "name": "Penthouse", "amenity": "bar", "lat": 47.0481586, "lon": 8.3055261, "radius": 1000}, {"id": 1939744077, "name": "Mekong", "amenity": "restaurant", "lat": 47.0481843, "lon": 8.3053784, "radius": 1000}, {"id": 1939744079, "name": "Arlecchino", "amenity": "cafe", "lat": 47.0467197, "lon": 8.3071913, "radius": 1000}, {"id": 1939744082, "name": "Khoua Vientiane", "amenity": "restaurant", "lat": 47.0477535, "lon": 8.3057646, "radius": 1000}, {"id": 1939744084, "name": "Coffeeshop", "amenity": "cafe", "lat": 47.0482409, "lon": 8.3055152, "radius": 1000}, {"id": 1939744089, "name": "Thai Garden", "amenity": "restaurant", "lat": 47.0480892, "lon": 8.3052711, "radius": 1000}, {"id": 1939744091, "name": "La Cucina", "amenity": "restaurant", "lat": 47.0479172, "lon": 8.3058605, "radius": 1000}, {"id": 1939744093, "name": "Kaffeekranz", "amenity": "cafe", "lat": 47.0482343, "lon": 8.3066261, "radius": 1000}, {"id": 1939780067, "name": "BACiO della MAMMA", "amenity": "restaurant", "lat": 47.0498815, "lon": 8.3080345, "radius": 1000}, {"id": 1939957748, "name": "Mövenpick Restaurant", "amenity": "restaurant", "lat": 47.0494411, "lon": 8.3064254, "radius": 1000}, {"id": 1948840778, "name": "Rossini", "amenity": "restaurant", "lat": 47.0507233, "lon": 8.3070246, "radius": 1000}, {"id": 1948870044, "name": "Daniele Winebar", "amenity": "restaurant", "lat": 47.0466019, "lon": 8.3063238, "radius": 1000}, {"id": 1948870049, "name": "Kaiten", "amenity": "restaurant", "lat": 47.0467537, "lon": 8.3061958, "radius": 1000}, {"id": 1948870050, "name": "Angkor Take Away", "amenity": "restaurant", "lat": 47.0468927, "lon": 8.3067295, "radius": 1000}, {"id": 1948870057, "name": "Stromboli", "amenity": "cafe", "lat": 47.0464101, "lon": 8.3064801, "radius": 1000}, {"id": 1948873443, "name": "Capitol", "amenity": "pub", "lat": 47.0459313, "lon": 8.3097953, "radius": 1000}, {"id": 1948873444, "name": "1178", "amenity": "bar", "lat": 47.0472238, "lon": 8.3088619, "radius": 1000}, {"id": 1948903137, "name": "Privatbank Reichmuth & Co.", "amenity": "bank", "lat": 47.0501823, "lon": 8.3025024, "radius": 1000}, {"id": 2000559963, "name": "Alfred Caffebar", "amenity": "cafe", "lat": 47.0451386, "lon": 8.3075077, "radius": 1000}, {"id": 2582215105, "name": "Klub Kegelbahn", "amenity": "pub", "lat": 47.052748, "lon": 8.2962946, "radius": 1000}, {"id": 2583452522, "name": "Vegitat", "amenity": "restaurant", "lat": 47.0422682, "lon": 8.3064155, "radius": 1000}, {"id": 2583452527, "name": "Kaiten", "amenity": "restaurant", "lat": 47.0427784, "lon": 8.3066577, "radius": 1000}, {"id": 2621103931, "name": "Matrix", "amenity": "bar", "lat": 47.0473207, "lon": 8.3073968, "radius": 1000}, {"id": 2696276410, "name": "Vivian", "amenity": "pharmacy", "lat": 47.0466239, "lon": 8.3083898, "radius": 1000}, {"id": 2704255918, "name": "Restaurant Allmend - Kegelsporthalle", "amenity": "restaurant", "lat": 47.0360968, "lon": 8.3035845, "radius": 1000}, {"id": 2710885478, "name": "La Terrazza", "amenity": "restaurant", "lat": 47.0516233, "lon": 8.3042486, "radius": 1000}, {"id": 2775226953, "name": "Heissi Marroni", "amenity": "fast_food", "lat": 47.051731, "lon": 8.3059, "radius": 1000}, {"id": 2781201637, "name": "Izakaya Nozomi", "amenity": "restaurant", "lat": 47.052695, "lon": 8.303972, "radius": 1000}, {"id": 3510791186, "name": "Heini", "amenity": "cafe", "lat": 47.0505393, "lon": 8.3090454, "radius": 1000}, {"id": 3545194707, "name": "Memories of Asia", "amenity": "restaurant", "lat": 47.0469071, "lon": 8.3091355, "radius": 1000}, {"id": 3562955898, "name": "El Rincón Argentino", "amenity": "restaurant", "lat": 47.0457467, "lon": 8.3060473, "radius": 1000}, {"id": 3562955900, "name": "Jeff's Burger", "amenity": "restaurant", "lat": 47.0470126, "lon": 8.3080407, "radius": 1000}, {"id": 3618126911, "name": "Sopranos", "amenity": "bar", "lat": 47.0521067, "lon": 8.3032251, "radius": 1000}, {"id": 3618126912, "name": "Soul Chicken", "amenity": "restaurant", "lat": 47.0524868, "lon": 8.3039568, "radius": 1000}, {"id": 3618126915, "name": "Baba oriental", "amenity": "restaurant", "lat": 47.049221, "lon": 8.3078698, "radius": 1000}, {"id": 3622682583, "name": "Cysat Apotheke", "amenity": "pharmacy", "lat": 47.0492114, "lon": 8.3061459, "radius": 1000}, {"id": 3622682584, "name": "Neustadt Apotheke", "amenity": "pharmacy", "lat": 47.0454013, "lon": 8.3069846, "radius": 1000}, {"id": 3657585281, "name": "n/a", "amenity": "atm", "lat": 47.0479337, "lon": 8.3045833, "radius": 1000}, {"id": 3657585285, "name": "Restaurant Fass", "amenity": "restaurant", "lat": 47.0462823, "lon": 8.3043652, "radius": 1000}, {"id": 3699596675, "name": "Café Nizza Bar", "amenity": "bar", "lat": 47.0482129, "lon": 8.305887, "radius": 1000}, {"id": 3699596676, "name": "Pinakarri", "amenity": "cafe", "lat": 47.048923, "lon": 8.3012699, "radius": 1000}, {"id": 3699596682, "name": "Thai Lanna", "amenity": "restaurant", "lat": 47.0476483, "lon": 8.3021402, "radius": 1000}, {"id": 3804157266, "name": "Volver", "amenity": "restaurant", "lat": 47.0426619, "lon": 8.3065889, "radius": 1000}, {"id": 3962549764, "name": "n/a", "amenity": "atm", "lat": 47.0494189, "lon": 8.3068078, "radius": 1000}, {"id": 3962600149, "name": "Restaurant Rathaus Brauerei", "amenity": "restaurant", "lat": 47.0518673, "lon": 8.306496, "radius": 1000}, {"id": 3975639459, "name": "Castle's language", "amenity": "school", "lat": 47.0497936, "lon": 8.3051072, "radius": 1000}, {"id": 3976421563, "name": "Waldstätterhof", "amenity": "restaurant", "lat": 47.0493261, "lon": 8.3091699, "radius": 1000}, {"id": 3976421659, "name": "by neville's indian dining", "amenity": "restaurant", "lat": 47.0464309, "lon": 8.3064424, "radius": 1000}, {"id": 3981886474, "name": "La Fenice", "amenity": "restaurant", "lat": 47.0524098, "lon": 8.3049294, "radius": 1000}, {"id": 3981886478, "name": "Twiny-Station", "amenity": "fast_food", "lat": 47.0521878, "lon": 8.3045272, "radius": 1000}, {"id": 4003343427, "name": "Hinicht", "amenity": "bar", "lat": 47.0468825, "lon": 8.3050851, "radius": 1000}, {"id": 4003553190, "name": "Casa N°1", "amenity": "restaurant", "lat": 47.0429195, "lon": 8.3038464, "radius": 1000}, {"id": 4004257615, "name": "n/a", "amenity": "parking", "lat": 47.046599, "lon": 8.3036954, "radius": 1000}, {"id": 4004257815, "name": "Western Union", "amenity": "bank", "lat": 47.0481082, "lon": 8.3028634, "radius": 1000}, {"id": 4004257915, "name": "Tandoori Indian", "amenity": "restaurant", "lat": 47.0480304, "lon": 8.3029513, "radius": 1000}, {"id": 4004258204, "name": "Eva Kebab", "amenity": "fast_food", "lat": 47.047824, "lon": 8.3029425, "radius": 1000}, {"id": 4004258900, "name": "kostbar", "amenity": "bar", "lat": 47.0466715, "lon": 8.3047733, "radius": 1000}, {"id": 4005592587, "name": "n/a", "amenity": "atm", "lat": 47.0494775, "lon": 8.306515, "radius": 1000}, {"id": 4036285591, "name": "Valiant", "amenity": "bank", "lat": 47.047833, "lon": 8.3046518, "radius": 1000}, {"id": 4043374991, "name": "Astoria", "amenity": "parking", "lat": 47.047852, "lon": 8.3054265, "radius": 1000}, {"id": 4046612772, "name": "Tavolino", "amenity": "restaurant", "lat": 47.0422482, "lon": 8.3061022, "radius": 1000}, {"id": 4097156591, "name": "Filou & Bengel", "amenity": "bar", "lat": 47.0489092, "lon": 8.3084321, "radius": 1000}, {"id": 4119726827, "name": "Vincafe La Barca", "amenity": "restaurant", "lat": 47.0517732, "lon": 8.3056651, "radius": 1000}, {"id": 4119726828, "name": "Schiff Bar", "amenity": "pub", "lat": 47.0516926, "lon": 8.3052967, "radius": 1000}, {"id": 4119726833, "name": "pizzeria Valentino", "amenity": "restaurant", "lat": 47.0516907, "lon": 8.304673, "radius": 1000}, {"id": 4120518873, "name": "Balances", "amenity": "restaurant", "lat": 47.0515458, "lon": 8.304745, "radius": 1000}, {"id": 4209111886, "name": "Raedwulf", "amenity": "pub", "lat": 47.0493831, "lon": 8.3025083, "radius": 1000}, {"id": 4209113529, "name": "La Terazza", "amenity": "restaurant", "lat": 47.0514272, "lon": 8.3043068, "radius": 1000}, {"id": 4209128492, "name": "Bar León", "amenity": "bar", "lat": 47.049503, "lon": 8.3023446, "radius": 1000}, {"id": 4209149906, "name": "Oh Wow! Thai Take Away", "amenity": "fast_food", "lat": 47.0519799, "lon": 8.3043273, "radius": 1000}, {"id": 4209158694, "name": "HSO Wirtschaftschule Schweiz", "amenity": "school", "lat": 47.0519413, "lon": 8.3041233, "radius": 1000}, {"id": 4209158695, "name": "Fondue House Du Pont", "amenity": "restaurant", "lat": 47.0517122, "lon": 8.3048965, "radius": 1000}, {"id": 4228789591, "name": "Terassen-café", "amenity": "cafe", "lat": 47.0504795, "lon": 8.3029585, "radius": 1000}, {"id": 4228812790, "name": "Restaurant Ammos", "amenity": "restaurant", "lat": 47.0509927, "lon": 8.3026263, "radius": 1000}, {"id": 4278117395, "name": "Bistro Krienbrüggli", "amenity": "bar", "lat": 47.0504639, "lon": 8.3027723, "radius": 1000}, {"id": 4278117397, "name": "Notenstein La Roche", "amenity": "bank", "lat": 47.0520537, "lon": 8.3028679, "radius": 1000}, {"id": 4278118098, "name": "Mill’Feuille", "amenity": "restaurant", "lat": 47.0518333, "lon": 8.303224, "radius": 1000}, {"id": 4278123391, "name": "Restaurant Ammos", "amenity": "restaurant", "lat": 47.050884, "lon": 8.302492, "radius": 1000}, {"id": 4278303295, "name": "Storchen", "amenity": "bar", "lat": 47.0522258, "lon": 8.3056629, "radius": 1000}, {"id": 4281894994, "name": "Rokka Café & Bar", "amenity": "restaurant", "lat": 47.0523176, "lon": 8.304705, "radius": 1000}, {"id": 4335163549, "name": "BAYTS", "amenity": "restaurant", "lat": 47.0417709, "lon": 8.305903, "radius": 1000}, {"id": 4403448368, "name": "Panda", "amenity": "fast_food", "lat": 47.0430564, "lon": 8.3118224, "radius": 1000}, {"id": 4403448379, "name": "Zur Werkstatt", "amenity": "restaurant", "lat": 47.0466662, "lon": 8.3093166, "radius": 1000}, {"id": 4484721293, "name": "Aurum", "amenity": "cafe", "lat": 47.049108, "lon": 8.3007613, "radius": 1000}, {"id": 4842509623, "name": "Asian Takeaway", "amenity": "restaurant", "lat": 47.03976, "lon": 8.3037657, "radius": 1000}, {"id": 4872027292, "name": "Tacuba", "amenity": "cafe", "lat": 47.038658, "lon": 8.3007294, "radius": 1000}, {"id": 5018129623, "name": "Made in Sud", "amenity": "fast_food", "lat": 47.0470738, "lon": 8.3038339, "radius": 1000}, {"id": 5092854082, "name": "Neubad Bistro", "amenity": "restaurant", "lat": 47.0412775, "lon": 8.3070569, "radius": 1000}, {"id": 5282412594, "name": "Gardist", "amenity": "bar", "lat": 47.0419264, "lon": 8.3053938, "radius": 1000}, {"id": 5428908522, "name": "Karls Kraut", "amenity": "restaurant", "lat": 47.0525099, "lon": 8.3015176, "radius": 1000}, {"id": 5577858833, "name": "Röntgeninstitut Medical Imaging Luzern", "amenity": "clinic", "lat": 47.0506304, "lon": 8.3069199, "radius": 1000}, {"id": 5600768221, "name": "Kaspar", "amenity": "bar", "lat": 47.0485107, "lon": 8.3063809, "radius": 1000}, {"id": 5695175222, "name": "La Bestia - Pizza Pizza", "amenity": "restaurant", "lat": 47.0492516, "lon": 8.3083775, "radius": 1000}, {"id": 5732675469, "name": "Falkens's Burger & Pizza", "amenity": "fast_food", "lat": 47.0490122, "lon": 8.3008805, "radius": 1000}, {"id": 5732675482, "name": "Sky Asia Take Away", "amenity": "fast_food", "lat": 47.0468952, "lon": 8.3081157, "radius": 1000}, {"id": 5734472024, "name": "Mashida", "amenity": "restaurant", "lat": 47.0523455, "lon": 8.3054625, "radius": 1000}, {"id": 5779570178, "name": "melissa‘s kitchen", "amenity": "cafe", "lat": 47.0486241, "lon": 8.3030225, "radius": 1000}, {"id": 5784576354, "name": "ViaExpress", "amenity": "bank", "lat": 47.0490943, "lon": 8.3053284, "radius": 1000}, {"id": 5784608753, "name": "Die Kneipe", "amenity": "pub", "lat": 47.0495838, "lon": 8.3013291, "radius": 1000}, {"id": 5796501954, "name": "Ravioli Bar", "amenity": "bar", "lat": 47.0487033, "lon": 8.3065774, "radius": 1000}, {"id": 5836796342, "name": "Dieci Pizzakurier", "amenity": "fast_food", "lat": 47.045078, "lon": 8.3036813, "radius": 1000}, {"id": 5859106086, "name": "Modomio", "amenity": "restaurant", "lat": 47.0526864, "lon": 8.3011319, "radius": 1000}, {"id": 5893245286, "name": "Don Feri", "amenity": "restaurant", "lat": 47.0426139, "lon": 8.3037411, "radius": 1000}, {"id": 5912237586, "name": "P&M Kurslokal", "amenity": "school", "lat": 47.0451363, "lon": 8.3098122, "radius": 1000}, {"id": 5912251485, "name": "Nour", "amenity": "restaurant", "lat": 47.0420619, "lon": 8.310772, "radius": 1000}, {"id": 5981208785, "name": "Kostgeberei", "amenity": "restaurant", "lat": 47.0418295, "lon": 8.3048778, "radius": 1000}, {"id": 6010337887, "name": "Pacifico", "amenity": "restaurant", "lat": 47.0490347, "lon": 8.3069359, "radius": 1000}, {"id": 6205585186, "name": "Indian Restaurant Luzern", "amenity": "restaurant", "lat": 47.0434863, "lon": 8.3038132, "radius": 1000}, {"id": 6417865487, "name": "Erwins Imbiss Stube", "amenity": "fast_food", "lat": 47.0403235, "lon": 8.3096012, "radius": 1000}, {"id": 6419146487, "name": "Mardi Gras", "amenity": "cafe", "lat": 47.0506531, "lon": 8.3030802, "radius": 1000}, {"id": 6419146489, "name": "Kaffee Kind", "amenity": "bar", "lat": 47.0525499, "lon": 8.2961114, "radius": 1000}, {"id": 6477069185, "name": "Holy Cow", "amenity": "fast_food", "lat": 47.0495893, "lon": 8.3082366, "radius": 1000}, {"id": 6496050486, "name": "The Blossom Alley", "amenity": "restaurant", "lat": 47.0494886, "lon": 8.3089632, "radius": 1000}, {"id": 6651536785, "name": "milano bar", "amenity": "bar", "lat": 47.048899, "lon": 8.305284, "radius": 1000}, {"id": 6651540085, "name": "small world Money Transfer", "amenity": "bank", "lat": 47.0490216, "lon": 8.3059563, "radius": 1000}, {"id": 6700463195, "name": "Mini Food", "amenity": "fast_food", "lat": 47.0480893, "lon": 8.302892, "radius": 1000}, {"id": 6886585085, "name": "Café Chapeau", "amenity": "cafe", "lat": 47.0504968, "lon": 8.3037452, "radius": 1000}, {"id": 6944692327, "name": "Pastarazzi", "amenity": "restaurant", "lat": 47.043666, "lon": 8.3063453, "radius": 1000}, {"id": 6944692329, "name": "Majorelle", "amenity": "cafe", "lat": 47.0444172, "lon": 8.3058223, "radius": 1000}, {"id": 7075250585, "name": "l‘arbre", "amenity": "bar", "lat": 47.0473095, "lon": 8.3067358, "radius": 1000}, {"id": 7099602886, "name": "ductus", "amenity": "cafe", "lat": 47.0507554, "lon": 8.2986771, "radius": 1000}, {"id": 7197807887, "name": "WIR Bank", "amenity": "bank", "lat": 47.0422371, "lon": 8.302409, "radius": 1000}, {"id": 7606484986, "name": "Café Nord", "amenity": "cafe", "lat": 47.0450638, "lon": 8.3065323, "radius": 1000}, {"id": 7658200285, "name": "Sauvage", "amenity": "restaurant", "lat": 47.0503087, "lon": 8.3030285, "radius": 1000}, {"id": 7666762522, "name": "Arepa", "amenity": "restaurant", "lat": 47.0429212, "lon": 8.3118453, "radius": 1000}, {"id": 7856693585, "name": "Kommod", "amenity": "restaurant", "lat": 47.0508255, "lon": 8.2999768, "radius": 1000}, {"id": 7935119891, "name": "Daruma", "amenity": "restaurant", "lat": 47.0500367, "lon": 8.3028382, "radius": 1000}, {"id": 7947457680, "name": "Wild Bowls", "amenity": "restaurant", "lat": 47.0494118, "lon": 8.3066396, "radius": 1000}, {"id": 8007326785, "name": "n/a", "amenity": "cafe", "lat": 47.0517108, "lon": 8.3047664, "radius": 1000}, {"id": 8109010670, "name": "Liebenau", "amenity": "bar", "lat": 47.0500065, "lon": 8.3029627, "radius": 1000}, {"id": 8213649717, "name": "Café Tacuba", "amenity": "cafe", "lat": 47.0475037, "lon": 8.3072101, "radius": 1000}, {"id": 8645066215, "name": "Café Vista", "amenity": "cafe", "lat": 47.0499625, "lon": 8.3054628, "radius": 1000}, {"id": 9105812367, "name": "Two Hands", "amenity": "cafe", "lat": 47.0460843, "lon": 8.3077308, "radius": 1000}, {"id": 9105819660, "name": "Glou", "amenity": "cafe", "lat": 47.0458862, "lon": 8.3066548, "radius": 1000}, {"id": 9127970245, "name": "meinRad", "amenity": "fast_food", "lat": 47.0400625, "lon": 8.3042059, "radius": 1000}, {"id": 9142809617, "name": "Krienbrüggli", "amenity": "restaurant", "lat": 47.0504808, "lon": 8.3027918, "radius": 1000}, {"id": 9198050996, "name": "Go Tacos", "amenity": "fast_food", "lat": 47.0458792, "lon": 8.3086228, "radius": 1000}, {"id": 9245783985, "name": "Kaffeekranz", "amenity": "cafe", "lat": 47.0436289, "lon": 8.3060778, "radius": 1000}, {"id": 9442245059, "name": "École française", "amenity": "school", "lat": 47.0465218, "lon": 8.2909991, "radius": 1000}, {"id": 9521436310, "name": "Parkhaus Hirzenmatt", "amenity": "parking", "lat": 47.0469387, "lon": 8.3066768, "radius": 1000}, {"id": 9725661139, "name": "Bibliothek der Hochschule Luzern", "amenity": "library", "lat": 47.0490943, "lon": 8.3086063, "radius": 1000}, {"id": 9770493141, "name": "Maison Bardot", "amenity": "bar", "lat": 47.0471224, "lon": 8.3075352, "radius": 1000}, {"id": 9853543000, "name": "n/a", "amenity": "parking", "lat": 47.0430242, "lon": 8.3125918, "radius": 1000}, {"id": 9853543001, "name": "n/a", "amenity": "parking", "lat": 47.0431095, "lon": 8.3121836, "radius": 1000}, {"id": 9853543002, "name": "n/a", "amenity": "parking", "lat": 47.0435004, "lon": 8.3124802, "radius": 1000}, {"id": 9853543003, "name": "n/a", "amenity": "parking", "lat": 47.0433923, "lon": 8.3126802, "radius": 1000}, {"id": 9853543005, "name": "n/a", "amenity": "parking", "lat": 47.0432389, "lon": 8.3127605, "radius": 1000}, {"id": 9853543007, "name": "n/a", "amenity": "parking", "lat": 47.0429779, "lon": 8.3126972, "radius": 1000}, {"id": 9853543008, "name": "n/a", "amenity": "parking", "lat": 47.0428239, "lon": 8.3125966, "radius": 1000}, {"id": 9964531359, "name": "Mairübe", "amenity": "restaurant", "lat": 47.0455094, "lon": 8.309363, "radius": 1000}, {"id": 9998231839, "name": "Asociación de Inválidos y Pensionistas Españoles de Lucerna", "amenity": "restaurant", "lat": 47.0448222, "lon": 8.3114812, "radius": 1000}, {"id": 10028756221, "name": "Brasserie Bodu", "amenity": "restaurant", "lat": 47.0519537, "lon": 8.3057274, "radius": 1000}, {"id": 10029186399, "name": "Chemineé", "amenity": "bar", "lat": 47.0508862, "lon": 8.3021112, "radius": 1000}, {"id": 10116032018, "name": "n/a", "amenity": "parking", "lat": 47.0471592, "lon": 8.3054565, "radius": 1000}, {"id": 10116032019, "name": "n/a", "amenity": "parking", "lat": 47.0472541, "lon": 8.3056869, "radius": 1000}, {"id": 10116032020, "name": "n/a", "amenity": "parking", "lat": 47.0472161, "lon": 8.3057343, "radius": 1000}, {"id": 10116032022, "name": "n/a", "amenity": "parking", "lat": 47.0469948, "lon": 8.3050399, "radius": 1000}, {"id": 10116032023, "name": "n/a", "amenity": "parking", "lat": 47.0466471, "lon": 8.3051742, "radius": 1000}, {"id": 10116032024, "name": "n/a", "amenity": "parking", "lat": 47.0464917, "lon": 8.3053149, "radius": 1000}, {"id": 10116032025, "name": "n/a", "amenity": "parking", "lat": 47.0463908, "lon": 8.305264, "radius": 1000}, {"id": 10116032026, "name": "n/a", "amenity": "parking", "lat": 47.0460496, "lon": 8.305142, "radius": 1000}, {"id": 10116032027, "name": "n/a", "amenity": "parking", "lat": 47.0459225, "lon": 8.3050267, "radius": 1000}, {"id": 10116032028, "name": "n/a", "amenity": "parking", "lat": 47.0459749, "lon": 8.3051544, "radius": 1000}, {"id": 10116032029, "name": "n/a", "amenity": "parking", "lat": 47.0460469, "lon": 8.3053398, "radius": 1000}, {"id": 10116032030, "name": "n/a", "amenity": "parking", "lat": 47.0458578, "lon": 8.3057303, "radius": 1000}, {"id": 10116032031, "name": "n/a", "amenity": "parking", "lat": 47.0460072, "lon": 8.3055963, "radius": 1000}, {"id": 10116032032, "name": "n/a", "amenity": "parking", "lat": 47.0460415, "lon": 8.3056885, "radius": 1000}, {"id": 10116032033, "name": "n/a", "amenity": "parking", "lat": 47.0459031, "lon": 8.3058049, "radius": 1000}, {"id": 10116032034, "name": "n/a", "amenity": "parking", "lat": 47.0457647, "lon": 8.305917, "radius": 1000}, {"id": 10116032035, "name": "n/a", "amenity": "parking", "lat": 47.0456963, "lon": 8.3054307, "radius": 1000}, {"id": 10116032037, "name": "n/a", "amenity": "parking", "lat": 47.0451353, "lon": 8.305739, "radius": 1000}, {"id": 10116032038, "name": "n/a", "amenity": "parking", "lat": 47.0444614, "lon": 8.3054399, "radius": 1000}, {"id": 10116032039, "name": "n/a", "amenity": "parking", "lat": 47.0449278, "lon": 8.306422, "radius": 1000}, {"id": 10116032040, "name": "n/a", "amenity": "parking", "lat": 47.0448517, "lon": 8.3065346, "radius": 1000}, {"id": 10116032041, "name": "n/a", "amenity": "parking", "lat": 47.0447144, "lon": 8.3061874, "radius": 1000}, {"id": 10147900612, "name": "n/a", "amenity": "parking", "lat": 47.0458188, "lon": 8.2871385, "radius": 1000}, {"id": 10606239342, "name": "Bildungszentrum Luzern", "amenity": "school", "lat": 47.0504929, "lon": 8.3090903, "radius": 1000}, {"id": 10649888805, "name": "Old City Take Away", "amenity": "fast_food", "lat": 47.0507268, "lon": 8.302389, "radius": 1000}, {"id": 10931462049, "name": "n/a", "amenity": "parking", "lat": 47.0418415, "lon": 8.312042, "radius": 1000}, {"id": 10931462050, "name": "n/a", "amenity": "parking", "lat": 47.0418895, "lon": 8.3120068, "radius": 1000}, {"id": 10931462051, "name": "n/a", "amenity": "parking", "lat": 47.04184, "lon": 8.3115676, "radius": 1000}, {"id": 10931462052, "name": "n/a", "amenity": "parking", "lat": 47.0419416, "lon": 8.3105646, "radius": 1000}, {"id": 10931462053, "name": "n/a", "amenity": "parking", "lat": 47.041706, "lon": 8.3102819, "radius": 1000}, {"id": 10931462054, "name": "n/a", "amenity": "parking", "lat": 47.041142, "lon": 8.3097369, "radius": 1000}, {"id": 10931462055, "name": "n/a", "amenity": "parking", "lat": 47.040681, "lon": 8.3099858, "radius": 1000}, {"id": 10931462056, "name": "n/a", "amenity": "parking", "lat": 47.0403041, "lon": 8.3092431, "radius": 1000}, {"id": 10983863623, "name": "n/a", "amenity": "atm", "lat": 47.0527457, "lon": 8.2961834, "radius": 1000}, {"id": 11034722043, "name": "Suite small plates & cocktails", "amenity": "bar", "lat": 47.0498465, "lon": 8.3088815, "radius": 1000}, {"id": 11064369023, "name": "n/a", "amenity": "parking", "lat": 47.047652, "lon": 8.3068071, "radius": 1000}, {"id": 11064369024, "name": "n/a", "amenity": "parking", "lat": 47.0477576, "lon": 8.3069284, "radius": 1000}, {"id": 11064369025, "name": "n/a", "amenity": "parking", "lat": 47.047603, "lon": 8.3065345, "radius": 1000}, {"id": 11064369026, "name": "n/a", "amenity": "parking", "lat": 47.0474157, "lon": 8.306077, "radius": 1000}, {"id": 11109086620, "name": "Raiffeisen", "amenity": "bank", "lat": 47.0508091, "lon": 8.3076161, "radius": 1000}, {"id": 11212318944, "name": "Yunnan Tea House", "amenity": "cafe", "lat": 47.0507583, "lon": 8.3025649, "radius": 1000}, {"id": 11283289566, "name": "Moderne Bar & Karussell", "amenity": "bar", "lat": 47.0484739, "lon": 8.3060088, "radius": 1000}, {"id": 11608216204, "name": "n/a", "amenity": "parking", "lat": 47.0421685, "lon": 8.3068721, "radius": 1000}, {"id": 11804249665, "name": "Abi's Luzern Kebab", "amenity": "restaurant", "lat": 47.0498138, "lon": 8.307015, "radius": 1000}, {"id": 12193139160, "name": "Taberna Latina", "amenity": "restaurant", "lat": 47.0433432, "lon": 8.3037722, "radius": 1000}, {"id": 12285530163, "name": "Burgerstube", "amenity": "restaurant", "lat": 47.0502939, "lon": 8.303115, "radius": 1000}, {"id": 12384207937, "name": "Café Tacuba Eichwald", "amenity": "cafe", "lat": 47.037062, "lon": 8.3013064, "radius": 1000}, {"id": 12613615219, "name": "Lumières", "amenity": "restaurant", "lat": 47.0516911, "lon": 8.2949868, "radius": 1000}, {"id": 12657003282, "name": "just a little brewpub", "amenity": "bar", "lat": 47.0497286, "lon": 8.3066015, "radius": 1000}, {"id": 12663198311, "name": "Incline Concept Store", "amenity": "restaurant", "lat": 47.0434264, "lon": 8.3065951, "radius": 1000}, {"id": 12673368901, "name": "Helen", "amenity": "restaurant", "lat": 47.0437605, "lon": 8.3084862, "radius": 1000}]}
