{"address": "Bläsiring 10, 4057 Basel", "price": 2880, "property_id": 4002065802, "area": "115m²", "rooms": 4.5, "lat": 47.5683969, "lon": 7.5871397, "amenities": [{"id": 71525383, "name": "Buvette Dreirosen", "amenity": "pub", "lat": 47.5694909, "lon": 7.5863581}, {"id": 71525563, "name": "Cloves", "amenity": "restaurant", "lat": 47.5692033, "lon": 7.5913551}, {"id": 71525579, "name": "DejaVu", "amenity": "pub", "lat": 47.5694062, "lon": 7.5901309}, {"id": 71525604, "name": "Eintracht", "amenity": "restaurant", "lat": 47.5675379, "lon": 7.5903738}, {"id": 71525611, "name": "Gatto Nero", "amenity": "restaurant", "lat": 47.5677788, "lon": 7.5906834}, {"id": 1028007577, "name": "Antik Café Bar", "amenity": "cafe", "lat": 47.5690588, "lon": 7.5902334}, {"id": 1517612070, "name": "Bläsi Apotheke", "amenity": "pharmacy", "lat": 47.5674348, "lon": 7.5903846}, {"id": 1518116717, "name": "n/a", "amenity": "parking", "lat": 47.566533, "lon": 7.5897838}, {"id": 1518116722, "name": "n/a", "amenity": "parking", "lat": 47.5665619, "lon": 7.5899064}, {"id": 1518116885, "name": "n/a", "amenity": "parking", "lat": 47.5670829, "lon": 7.5903386}, {"id": 1518116928, "name": "n/a", "amenity": "parking", "lat": 47.5672126, "lon": 7.5899315}, {"id": 1518116956, "name": "n/a", "amenity": "parking", "lat": 47.5673091, "lon": 7.5902186}, {"id": 1529984092, "name": "RiiBistro", "amenity": "restaurant", "lat": 47.5705632, "lon": 7.5868666}, {"id": 2381403698, "name": "Café frühling", "amenity": "cafe", "lat": 47.5677589, "lon": 7.5903535}, {"id": 2434421992, "name": "Kiosk", "amenity": "restaurant", "lat": 47.5713407, "lon": 7.5877225}, {"id": 2971278569, "name": "n/a", "amenity": "atm", "lat": 47.568672, "lon": 7.5897794}, {"id": 2984213160, "name": "Oetlinger-Buvette", "amenity": "bar", "lat": 47.5670666, "lon": 7.58652}, {"id": 3207784886, "name": "GGG Stadtbibliothek Bläsi", "amenity": "library", "lat": 47.5687038, "lon": 7.591119}, {"id": 3758773688, "name": "La Fourchette", "amenity": "restaurant", "lat": 47.5680679, "lon": 7.5905993}, {"id": 3758796724, "name": "Gemeinsam Café", "amenity": "cafe", "lat": 47.5698858, "lon": 7.5910258}, {"id": 7683239068, "name": "VITO Klybeck", "amenity": "restaurant", "lat": 47.5672076, "lon": 7.5908596}, {"id": 7683254632, "name": "Fujin Sushi bar", "amenity": "restaurant", "lat": 47.567279, "lon": 7.5908338}, {"id": 7747207685, "name": "Drei Rosen", "amenity": "restaurant", "lat": 47.570532, "lon": 7.5905079}, {"id": 7773338162, "name": "OFF", "amenity": "bar", "lat": 47.5693615, "lon": 7.5899974}, {"id": 7778233544, "name": "BrauBudeBasel", "amenity": "bar", "lat": 47.567672, "lon": 7.5918704}, {"id": 7809972322, "name": "Boo", "amenity": "restaurant", "lat": 47.5670345, "lon": 7.5909027}, {"id": 7809972323, "name": "The Kebab Factory", "amenity": "fast_food", "lat": 47.5680175, "lon": 7.5903641}, {"id": 7809972326, "name": "Savanna", "amenity": "restaurant", "lat": 47.5692168, "lon": 7.5912968}, {"id": 7995309310, "name": "Pizza Picassso", "amenity": "restaurant", "lat": 47.5694979, "lon": 7.5901783}, {"id": 8806220782, "name": "Dreirosen Apotheke", "amenity": "pharmacy", "lat": 47.5689793, "lon": 7.5906307}, {"id": 9007960432, "name": "Pizza Maestro", "amenity": "fast_food", "lat": 47.5656888, "lon": 7.5878454}, {"id": 9905309814, "name": "Choi Asian Garden", "amenity": "restaurant", "lat": 47.5658897, "lon": 7.5886535}, {"id": 10031814189, "name": "Singh Indische Spezialitäten", "amenity": "restaurant", "lat": 47.5659985, "lon": 7.588767}, {"id": 10031814202, "name": "Multi Kitchen Markthalle Feldberg", "amenity": "fast_food", "lat": 47.5656705, "lon": 7.5877496}, {"id": 10031814204, "name": "Messo Burger", "amenity": "fast_food", "lat": 47.5656439, "lon": 7.5876608}, {"id": 11876754508, "name": "daniska", "amenity": "cafe", "lat": 47.5654942, "lon": 7.5880503}]}
{"address": "Erlenmattstr. 75, 4058 Basel", "price": 2880, "property_id": 4002039809, "area": "115m²", "rooms": 4.5, "lat": 47.5705088, "lon": 7.6031744, "amenities": [{"id": 2800631394, "name": "Qbarana Lounge Bar", "amenity": "bar", "lat": 47.5687669, "lon": 7.6018111}, {"id": 6239202286, "name": "Magical Cafe", "amenity": "cafe", "lat": 47.5699745, "lon": 7.5993614}, {"id": 6927157603, "name": "Coop Vitality", "amenity": "pharmacy", "lat": 47.5697544, "lon": 7.6036227}, {"id": 7206798585, "name": "Finkmüller Erlenmatt Ost", "amenity": "cafe", "lat": 47.5720995, "lon": 7.6014317}, {"id": 7762245664, "name": "SILO soulfood.", "amenity": "restaurant", "lat": 47.5720403, "lon": 7.6020549}, {"id": 7778233543, "name": "Matt & Elly Brewery & Kitchen", "amenity": "restaurant", "lat": 47.56969, "lon": 7.6034296}, {"id": 8125259187, "name": "Quartiertreffpunkt Gleis 58", "amenity": "restaurant", "lat": 47.5721088, "lon": 7.6001771}, {"id": 8126685107, "name": "Primarschulhaus Erlenmatt", "amenity": "school", "lat": 47.5689989, "lon": 7.6004078}, {"id": 10140233773, "name": "ROBA BUONA", "amenity": "restaurant", "lat": 47.5719494, "lon": 7.6016523}]}
{"address": "Käferholzstrasse 60, 8057 Zürich", "price": 2880, "property_id": 4001947102, "area": "115m²", "rooms": 4.5, "lat": 47.402542600000004, "lon": 8.532090116551142, "isochrone": {"features": [{"properties": {"fill-opacity": 0.33, "fillColor": "#bf4040", "opacity": 0.33, "fill": "#bf4040", "fillOpacity": 0.33, "color": "#bf4040", "contour": 5, "metric": "time"}, "geometry": {"coordinates": [[[8.53309, 47.405551], [8.532077, 47.404556], [8.531384, 47.404837], [8.529347, 47.404543], [8.528808, 47.403543], [8.52981, 47.401543], [8.53309, 47.399305], [8.53639, 47.400243], [8.537242, 47.402694], [8.537007, 47.403543], [8.53582, 47.404273], [8.53509, 47.405477], [8.53309, 47.405551]]], "type": "Polygon"}, "type": "Feature"}], "type": "FeatureCollection"}, "amenities": [{"id": 480352081, "name": "Fallender Brunnenhof", "amenity": "restaurant", "lat": 47.402817, "lon": 8.5355605}, {"id": 1592426153, "name": "Barcelona Restaurant", "amenity": "restaurant", "lat": 47.4020484, "lon": 8.5353195}, {"id": 2479519173, "name": "Wehntal-Apotheke", "amenity": "pharmacy", "lat": 47.402496, "lon": 8.5358866}, {"id": 2514418477, "name": "Jeunesse", "amenity": "restaurant", "lat": 47.4041372, "lon": 8.5342275}, {"id": 3778147856, "name": "n/a", "amenity": "parking", "lat": 47.4005916, "lon": 8.5322197}]}
{"address": "Fahrnstrasse 25, 9402 Mörschwil", "price": 2880, "property_id": 4002080979, "area": "115m²", "rooms": 4.5, "lat": 47.4639669, "lon": 9.432168388679248, "isochrone": {"features": [{"properties": {"fill-opacity": 0.33, "fillColor": "#bf4040", "opacity": 0.33, "fill": "#bf4040", "fillOpacity": 0.33, "color": "#bf4040", "contour": 5, "metric": "time"}, "geometry": {"coordinates": [[[9.427168, 47.46697], [9.426915, 47.465967], [9.427879, 47.465677], [9.428617, 47.464416], [9.430265, 47.464063], [9.431522, 47.46232], [9.432803, 47.461967], [9.433298, 47.461097], [9.434168, 47.460749], [9.435168, 47.461447], [9.436168, 47.461485], [9.436327, 47.462967], [9.435646, 47.463445], [9.433168, 47.463754], [9.431766, 47.464565], [9.431515, 47.465313], [9.429853, 47.466652], [9.42775, 47.466548], [9.427168, 47.46697]]], "type": "Polygon"}, "type": "Feature"}], "type": "FeatureCollection"}, "amenities": [{"id": 12211342033, "name": "n/a", "amenity": "parking", "lat": 47.4628197, "lon": 9.4336961}]}
{"address": "Herrenhof 868, 9240 Niederglatt", "price": 2880, "property_id": 4002077676, "area": "115m²", "rooms": 4.5, "lat": 47.4240752, "lon": 9.1598683, "isochrone": {"features": [{"properties": {"fill-opacity": 0.33, "fillColor": "#bf4040", "opacity": 0.33, "fill": "#bf4040", "fillOpacity": 0.33, "color": "#bf4040", "contour": 5, "metric": "time"}, "geometry": {"coordinates": [[[9.157868, 47.428295], [9.157178, 47.428075], [9.157403, 47.427075], [9.156367, 47.426075], [9.156717, 47.425075], [9.155419, 47.423075], [9.159033, 47.42224], [9.160868, 47.420975], [9.163469, 47.422075], [9.16248, 47.423075], [9.164868, 47.42335], [9.165551, 47.424075], [9.165595, 47.425075], [9.164868, 47.425461], [9.163868, 47.424636], [9.160868, 47.42488], [9.160868, 47.425562], [9.162107, 47.426075], [9.161041, 47.427248], [9.158515, 47.427721], [9.157868, 47.428295]]], "type": "Polygon"}, "type": "Feature"}], "type": "FeatureCollection"}, "amenities": []}
{"address": "Muttenzerstrasse 129, 4127 Birsfelden", "price": 2880, "property_id": 4002059199, "area": "115m²", "rooms": 4.5, "lat": 47.5447189, "lon": 7.62688715, "isochrone": {"features": [{"properties": {"fill-opacity": 0.33, "fillColor": "#bf4040", "opacity": 0.33, "fill": "#bf4040", "fillOpacity": 0.33, "color": "#bf4040", "contour": 5, "metric": "time"}, "geometry": {"coordinates": [[[7.624887, 47.548849], [7.623093, 47.547719], [7.624313, 47.547145], [7.626273, 47.545105], [7.626513, 47.543719], [7.625887, 47.542912], [7.623669, 47.542719], [7.626225, 47.542057], [7.629887, 47.542133], [7.630828, 47.543719], [7.629887, 47.546618], [7.62844, 47.547719], [7.625887, 47.548191], [7.624887, 47.548849]]], "type": "Polygon"}, "type": "Feature"}], "type": "FeatureCollection"}, "amenities": [{"id": 1784585430, "name": "n/a", "amenity": "parking", "lat": 47.5473354, "lon": 7.6280863}, {"id": 1784604154, "name": "n/a", "amenity": "parking", "lat": 47.5470183, "lon": 7.6268063}, {"id": 9562305189, "name": "cafe flora mangia e bevi", "amenity": "restaurant", "lat": 47.5478024, "lon": 7.6267679}]}
{"address": "Volkmarstrasse 15, 8006 Zürich", "price": 2880, "property_id": 4002058756, "area": "115m²", "rooms": 4.5, "lat": 47.38532765, "lon": 8.543725200223658, "isochrone": {"features": [{"properties": {"fill-opacity": 0.33, "fillColor": "#bf4040", "opacity": 0.33, "fill": "#bf4040", "fillOpacity": 0.33, "color": "#bf4040", "contour": 5, "metric": "time"}, "geometry": {"coordinates": [[[8.543725, 47.38836], [8.542725, 47.388104], [8.541725, 47.388651], [8.540658, 47.388328], [8.538407, 47.385328], [8.540071, 47.382674], [8.541725, 47.381193], [8.542725, 47.380967], [8.545725, 47.38179], [8.546456, 47.383328], [8.546207, 47.384328], [8.547474, 47.385579], [8.54753, 47.386328], [8.546726, 47.387328], [8.545725, 47.387378], [8.543725, 47.38836]]], "type": "Polygon"}, "type": "Feature"}], "type": "FeatureCollection"}, "amenities": [{"id": 365838427, "name": "Pizzeria Corallo", "amenity": "restaurant", "lat": 47.3865398, "lon": 8.5414596}, {"id": 365838929, "name": "Kreis 6", "amenity": "restaurant", "lat": 47.3861132, "lon": 8.5452851}, {"id": 504487282, "name": "The Lemon Grass", "amenity": "fast_food", "lat": 47.3857427, "lon": 8.539683}, {"id": 552929127, "name": "Drei Stuben", "amenity": "restaurant", "lat": 47.3832538, "lon": 8.5416447}, {"id": 552932425, "name": "Pizzeria Veneziana", "amenity": "restaurant", "lat": 47.383118, "lon": 8.5413332}, {"id": 792593930, "name": "Sorell Rex", "amenity": "cafe", "lat": 47.3847859, "lon": 8.5431484}, {"id": 1357158514, "name": "Habib Bank", "amenity": "bank", "lat": 47.3817572, "lon": 8.5435756}, {"id": 2452626421, "name": "Fux und Haas", "amenity": "fast_food", "lat": 47.3857229, "lon": 8.5395166}, {"id": 2509647639, "name": "Janni Pizza Kurier", "amenity": "fast_food", "lat": 47.3866392, "lon": 8.539917}, {"id": 2904973400, "name": "Zam Dapor", "amenity": "restaurant", "lat": 47.3857107, "lon": 8.5420014}, {"id": 4891858476, "name": "Mensa Institut Minerva", "amenity": "restaurant", "lat": 47.3819656, "lon": 8.5455532}, {"id": 4963589219, "name": "Klara‘s Kitchen", "amenity": "cafe", "lat": 47.3827596, "lon": 8.5437443}, {"id": 5938746755, "name": "Curry Corner", "amenity": "fast_food", "lat": 47.3833287, "lon": 8.541864}, {"id": 6207463870, "name": "Bibliothek des Schweizerischen Instituts für Kinder- und Jugendmedien SIKJM", "amenity": "library", "lat": 47.3845291, "lon": 8.5397558}, {"id": 9642595626, "name": "Stiftung m.a.c. – Sonderpädagogische Schule", "amenity": "school", "lat": 47.3854719, "lon": 8.5419658}, {"id": 9682468631, "name": "Dayschool Beckenhof", "amenity": "school", "lat": 47.3834916, "lon": 8.5413134}, {"id": 9719866404, "name": "Schule Talenta Zürich", "amenity": "school", "lat": 47.3858578, "lon": 8.5418353}, {"id": 9726635896, "name": "Sekundarschule am Rigiplatz", "amenity": "school", "lat": 47.3858674, "lon": 8.5463793}, {"id": 10995816516, "name": "Mesa Madrid", "amenity": "restaurant", "lat": 47.3833749, "lon": 8.5431961}, {"id": 11227223686, "name": "Bistro Pinto Take Away", "amenity": "restaurant", "lat": 47.3872577, "lon": 8.540021}, {"id": 11673717382, "name": "Bimbi's Take Away", "amenity": "restaurant", "lat": 47.3825112, "lon": 8.5414846}]}
{"address": "Niklaus Konrad-Strasse 4, 4500 Solothurn", "price": 2880, "property_id": 4002053936, "area": "115m²", "rooms": 4.5, "lat": 47.204513902108786, "lon": 7.539104019684887, "isochrone": {"features": [{"properties": {"fill-opacity": 0.33, "fillColor": "#bf4040", "opacity": 0.33, "fill": "#bf4040", "fillOpacity": 0.33, "color": "#bf4040", "contour": 5, "metric": "time"}, "geometry": {"coordinates": [[[7.539104, 47.207731], [7.538327, 47.207291], [7.538159, 47.206459], [7.534764, 47.205854], [7.535341, 47.204277], [7.53481, 47.202514], [7.537252, 47.201662], [7.541233, 47.201514], [7.543146, 47.203514], [7.544837, 47.204514], [7.54437, 47.205514], [7.542104, 47.207124], [7.540104, 47.206293], [7.539709, 47.207514], [7.539104, 47.207731]]], "type": "Polygon"}, "type": "Feature"}], "type": "FeatureCollection"}, "amenities": [{"id": 292225874, "name": "UBS", "amenity": "atm", "lat": 47.2048431, "lon": 7.5407604}, {"id": 301668363, "name": "Efem Imbiss & Café", "amenity": "fast_food", "lat": 47.2046306, "lon": 7.5405994}, {"id": 301764729, "name": "Vorstadt Bistro", "amenity": "cafe", "lat": 47.2048838, "lon": 7.5408996}, {"id": 301764730, "name": "Medbase Apotheke Solothurn", "amenity": "pharmacy", "lat": 47.2051064, "lon": 7.5405056}, {"id": 302828546, "name": "Caffè Spettacolo", "amenity": "cafe", "lat": 47.2042463, "lon": 7.54277}, {"id": 830588129, "name": "Akropolis", "amenity": "restaurant", "lat": 47.2048882, "lon": 7.5389356}, {"id": 833710708, "name": "Die Grüne Fee", "amenity": "bar", "lat": 47.2074594, "lon": 7.5387601}, {"id": 939041589, "name": "Solo Imbiss", "amenity": "fast_food", "lat": 47.2048779, "lon": 7.5368448}, {"id": 939041596, "name": "Trattoria Napoli", "amenity": "restaurant", "lat": 47.2045375, "lon": 7.5362046}, {"id": 939041599, "name": "Notausgang", "amenity": "restaurant", "lat": 47.2044483, "lon": 7.5363896}, {"id": 939041612, "name": "The Dock", "amenity": "bar", "lat": 47.2051717, "lon": 7.5361348}, {"id": 939041616, "name": "Adler", "amenity": "restaurant", "lat": 47.2047763, "lon": 7.5361643}, {"id": 939041620, "name": "Altes Spital", "amenity": "restaurant", "lat": 47.2048314, "lon": 7.5354098}, {"id": 939041621, "name": "Sonne", "amenity": "restaurant", "lat": 47.2047854, "lon": 7.5363896}, {"id": 939041623, "name": "Vini-Al Grappolo", "amenity": "restaurant", "lat": 47.2049778, "lon": 7.5368094}, {"id": 939041634, "name": "Steinbock", "amenity": "pub", "lat": 47.2046387, "lon": 7.5379426}, {"id": 939041645, "name": "Fragale", "amenity": "restaurant", "lat": 47.2046861, "lon": 7.5375537}, {"id": 939041649, "name": "Fu-Lin", "amenity": "restaurant", "lat": 47.2037603, "lon": 7.5390531}, {"id": 939048283, "name": "19th Alley", "amenity": "pub", "lat": 47.2072427, "lon": 7.5385103}, {"id": 1305573211, "name": "McDonald's", "amenity": "fast_food", "lat": 47.2040461, "lon": 7.5415408}, {"id": 1305574961, "name": "Thai Sunshine", "amenity": "restaurant", "lat": 47.2047013, "lon": 7.5364428}, {"id": 1348523758, "name": "Steiner", "amenity": "cafe", "lat": 47.2049949, "lon": 7.5407086}, {"id": 1445700155, "name": "n/a", "amenity": "parking", "lat": 47.2037855, "lon": 7.5398567}, {"id": 1711878551, "name": "Kaufmännische Berufsschule", "amenity": "school", "lat": 47.2049253, "lon": 7.5382655}, {"id": 1713911589, "name": "Tavola Calda", "amenity": "fast_food", "lat": 47.2051584, "lon": 7.5409779}, {"id": 1715927529, "name": "Cantinetta Bindella", "amenity": "restaurant", "lat": 47.2073052, "lon": 7.5397437}, {"id": 1715927538, "name": "Amun Take-Away", "amenity": "fast_food", "lat": 47.2049508, "lon": 7.540494}, {"id": 1831316797, "name": "Il Ponte del Sole", "amenity": "restaurant", "lat": 47.2049206, "lon": 7.5360605}, {"id": 2670017043, "name": "Hafebar", "amenity": "bar", "lat": 47.2056468, "lon": 7.5384611}, {"id": 3077030019, "name": "Subway", "amenity": "fast_food", "lat": 47.2041251, "lon": 7.5416014}, {"id": 3473937432, "name": "McCafé", "amenity": "cafe", "lat": 47.2040292, "lon": 7.5416204}, {"id": 3999541458, "name": "Thung Thong", "amenity": "restaurant", "lat": 47.2047057, "lon": 7.537415}, {"id": 4124143098, "name": "così Ristorante & Pizzeria", "amenity": "restaurant", "lat": 47.2047969, "lon": 7.5370633}, {"id": 4147259816, "name": "Mega Imbiss", "amenity": "fast_food", "lat": 47.2075071, "lon": 7.5387218}, {"id": 4161741461, "name": "Restaurant Thai Shop", "amenity": "restaurant", "lat": 47.2046512, "lon": 7.5355642}, {"id": 4266767138, "name": "Zum Chregu", "amenity": "restaurant", "lat": 47.2048129, "lon": 7.5358067}, {"id": 4273064056, "name": "H4", "amenity": "restaurant", "lat": 47.2058565, "lon": 7.5416093}, {"id": 4318161034, "name": "Stadtrösterei", "amenity": "cafe", "lat": 47.2049559, "lon": 7.5414198}, {"id": 4322755552, "name": "Nonna Rosetta", "amenity": "restaurant", "lat": 47.2044825, "lon": 7.535911}, {"id": 5785960651, "name": "n/a", "amenity": "atm", "lat": 47.2042566, "lon": 7.5387939}, {"id": 5786694127, "name": "Argileh", "amenity": "bar", "lat": 47.2046631, "lon": 7.5376706}, {"id": 7298442702, "name": "n/a", "amenity": "atm", "lat": 47.2042644, "lon": 7.5422564}, {"id": 9526797654, "name": "n/a", "amenity": "fast_food", "lat": 47.2045897, "lon": 7.541447}, {"id": 9775359202, "name": "Weinstüberl & Weinverkauf", "amenity": "bar", "lat": 47.2053474, "lon": 7.5367652}, {"id": 12112631558, "name": "Solo Fresh & fast Crispy Chicken", "amenity": "restaurant", "lat": 47.2041652, "lon": 7.5388339}]}
{"address": "Hölzliweg 9, 8405 Winterthur", "price": 2880, "property_id": 4002014835, "area": "115m²", "rooms": 4.5, "lat": 47.4859972, "lon": 8.77093975, "isochrone": {"features": [{"properties": {"fill-opacity": 0.33, "fillColor": "#bf4040", "opacity": 0.33, "fill": "#bf4040", "fillOpacity": 0.33, "color": "#bf4040", "contour": 5, "metric": "time"}, "geometry": {"coordinates": [[[8.77194, 47.488024], [8.77094, 47.488597], [8.76894, 47.488774], [8.767526, 47.488411], [8.766553, 47.487384], [8.765693, 47.484997], [8.766266, 47.484323], [8.767704, 47.483762], [8.769252, 47.483685], [8.76994, 47.484099], [8.770294, 47.482997], [8.77194, 47.482232], [8.772729, 47.483997], [8.772603, 47.486997], [8.77194, 47.488024]]], "type": "Polygon"}, "type": "Feature"}], "type": "FeatureCollection"}, "amenities": []}
{"address": "Weidmannstrasse 13, 8046 Zürich", "price": 2880, "property_id": 4001972648, "area": "115m²", "rooms": 4.5, "lat": 47.42325975, "lon": 8.502611041329322, "isochrone": {"features": [{"properties": {"fill-opacity": 0.33, "fillColor": "#bf4040", "opacity": 0.33, "fill": "#bf4040", "fillOpacity": 0.33, "color": "#bf4040", "contour": 5, "metric": "time"}, "geometry": {"coordinates": [[[8.501611, 47.426289], [8.498818, 47.42526], [8.497488, 47.42426], [8.497745, 47.42326], [8.500263, 47.42226], [8.501611, 47.42047], [8.50366, 47.420211], [8.506842, 47.42126], [8.506561, 47.42226], [8.507402, 47.42426], [8.505611, 47.42585], [8.503829, 47.425042], [8.502611, 47.425069], [8.502494, 47.426142], [8.501611, 47.426289]]], "type": "Polygon"}, "type": "Feature"}], "type": "FeatureCollection"}, "amenities": [{"id": 315314715, "name": "My Kebab", "amenity": "fast_food", "lat": 47.4210295, "lon": 8.501703}, {"id": 2133810173, "name": "KuBaA", "amenity": "bar", "lat": 47.4215582, "lon": 8.5058913}, {"id": 11523655559, "name": "Da Bella Italia", "amenity": "restaurant", "lat": 47.4232082, "lon": 8.4994145}, {"id": 12059128556, "name": "Serendipity Viet Food", "amenity": "restaurant", "lat": 47.4231318, "lon": 8.499721}, {"id": 12146405973, "name": "Cho Cho Momo", "amenity": "restaurant", "lat": 47.4215944, "lon": 8.501763}]}
{"address": "Bavurtga 9 (Altbau), 7402 Bonaduz", "price": 2880, "property_id": 4001756784, "area": "115m²", "rooms": 4.5, "lat": null, "lon": null, "amenities": []}
{"address": "Ahornweg 23, 2542 Pieterlen", "price": 2880, "property_id": 4001669568, "area": "115m²", "rooms": 4.5, "lat": 47.17285930609854, "lon": 7.338240061537902, "isochrone": {"features": [{"properties": {"fill-opacity": 0.33, "fillColor": "#bf4040", "opacity": 0.33, "fill": "#bf4040", "fillOpacity": 0.33, "color": "#bf4040", "contour": 5, "metric": "time"}, "geometry": {"coordinates": [[[7.34024, 47.174994], [7.33824, 47.175706], [7.33724, 47.175112], [7.33624, 47.175292], [7.334917, 47.174859], [7.333875, 47.173859], [7.333638, 47.172859], [7.334577, 47.170859], [7.33824, 47.170156], [7.34124, 47.170491], [7.342622, 47.171477], [7.343201, 47.171859], [7.343339, 47.172859], [7.341898, 47.173517], [7.341144, 47.174859], [7.34024, 47.174994]]], "type": "Polygon"}, "type": "Feature"}], "type": "FeatureCollection"}, "amenities": [{"id": 2232534921, "name": "La Perla", "amenity": "restaurant", "lat": 47.1746758, "lon": 7.336839}, {"id": 2232538072, "name": "Ascot Pub", "amenity": "pub", "lat": 47.1752263, "lon": 7.3382981}, {"id": 8825552294, "name": "n/a", "amenity": "atm", "lat": 47.1746141, "lon": 7.3368858}]}
{"address": "Via Sasso Corbaro 23, 6593 Cadenazzo", "price": 2880, "property_id": 4001668530, "area": "115m²", "rooms": 4.5, "lat": 46.15130057952928, "lon": 8.944419531213565, "isochrone": {"features": [{"properties": {"fill-opacity": 0.33, "fillColor": "#bf4040", "opacity": 0.33, "fill": "#bf4040", "fillOpacity": 0.33, "color": "#bf4040", "contour": 5, "metric": "time"}, "geometry": {"coordinates": [[[8.94842, 46.152472], [8.94042, 46.152802], [8.93973, 46.152301], [8.94151, 46.150301], [8.940876, 46.149301], [8.94242, 46.148079], [8.944883, 46.147838], [8.947261, 46.149301], [8.94689, 46.150301], [8.94842, 46.151224], [8.948788, 46.152301], [8.94842, 46.152472]]], "type": "Polygon"}, "type": "Feature"}], "type": "FeatureCollection"}, "amenities": [{"id": 3169247143, "name": "Pharmacia Centrale", "amenity": "pharmacy", "lat": 46.1517314, "lon": 8.9461626}, {"id": 3262076054, "name": "Bar Chiosco Gazebo", "amenity": "bar", "lat": 46.1523023, "lon": 8.9419857}, {"id": 3263056485, "name": "Raiffeisen", "amenity": "bank", "lat": 46.1518588, "lon": 8.9452132}, {"id": 5834057649, "name": "Leilo Bar", "amenity": "pub", "lat": 46.1516511, "lon": 8.9458343}, {"id": 5835336601, "name": "Il Cantuccio", "amenity": "fast_food", "lat": 46.1524371, "lon": 8.9399602}, {"id": 5867564893, "name": "Biblioteca della Scuola Media di Cadenazzo", "amenity": "library", "lat": 46.1510167, "lon": 8.9418564}, {"id": 10261258727, "name": "Pizzeria Bar CLUB", "amenity": "restaurant", "lat": 46.1507227, "lon": 8.9431726}]}
{"address": "Niklaus Konrad-Strasse 4, 4500 Solothurn", "price": 2880, "property_id": 4002053939, "area": "115m²", "rooms": 4.5, "lat": 47.204513902108786, "lon": 7.539104019684887, "isochrone": {"features": [{"properties": {"fill-opacity": 0.33, "fillColor": "#bf4040", "opacity": 0.33, "fill": "#bf4040", "fillOpacity": 0.33, "color": "#bf4040", "contour": 5, "metric": "time"}, "geometry": {"coordinates": [[[7.539104, 47.207731], [7.538327, 47.207291], [7.538159, 47.206459], [7.534764, 47.205854], [7.535341, 47.204277], [7.53481, 47.202514], [7.537252, 47.201662], [7.541233, 47.201514], [7.543146, 47.203514], [7.544837, 47.204514], [7.54437, 47.205514], [7.542104, 47.207124], [7.540104, 47.206293], [7.539709, 47.207514], [7.539104, 47.207731]]], "type": "Polygon"}, "type": "Feature"}], "type": "FeatureCollection"}, "amenities": [{"id": 292225874, "name": "UBS", "amenity": "atm", "lat": 47.2048431, "lon": 7.5407604}, {"id": 301668363, "name": "Efem Imbiss & Café", "amenity": "fast_food", "lat": 47.2046306, "lon": 7.5405994}, {"id": 301764729, "name": "Vorstadt Bistro", "amenity": "cafe", "lat": 47.2048838, "lon": 7.5408996}, {"id": 301764730, "name": "Medbase Apotheke Solothurn", "amenity": "pharmacy", "lat": 47.2051064, "lon": 7.5405056}, {"id": 302828546, "name": "Caffè Spettacolo", "amenity": "cafe", "lat": 47.2042463, "lon": 7.54277}, {"id": 830588129, "name": "Akropolis", "amenity": "restaurant", "lat": 47.2048882, "lon": 7.5389356}, {"id": 833710708, "name": "Die Grüne Fee", "amenity": "bar", "lat": 47.2074594, "lon": 7.5387601}, {"id": 939041589, "name": "Solo Imbiss", "amenity": "fast_food", "lat": 47.2048779, "lon": 7.5368448}, {"id": 939041596, "name": "Trattoria Napoli", "amenity": "restaurant", "lat": 47.2045375, "lon": 7.5362046}, {"id": 939041599, "name": "Notausgang", "amenity": "restaurant", "lat": 47.2044483, "lon": 7.5363896}, {"id": 939041612, "name": "The Dock", "amenity": "bar", "lat": 47.2051717, "lon": 7.5361348}, {"id": 939041616, "name": "Adler", "amenity": "restaurant", "lat": 47.2047763, "lon": 7.5361643}, {"id": 939041620, "name": "Altes Spital", "amenity": "restaurant", "lat": 47.2048314, "lon": 7.5354098}, {"id": 939041621, "name": "Sonne", "amenity": "restaurant", "lat": 47.2047854, "lon": 7.5363896}, {"id": 939041623, "name": "Vini-Al Grappolo", "amenity": "restaurant", "lat": 47.2049778, "lon": 7.5368094}, {"id": 939041634, "name": "Steinbock", "amenity": "pub", "lat": 47.2046387, "lon": 7.5379426}, {"id": 939041645, "name": "Fragale", "amenity": "restaurant", "lat": 47.2046861, "lon": 7.5375537}, {"id": 939041649, "name": "Fu-Lin", "amenity": "restaurant", "lat": 47.2037603, "lon": 7.5390531}, {"id": 939048283, "name": "19th Alley", "amenity": "pub", "lat": 47.2072427, "lon": 7.5385103}, {"id": 1305573211, "name": "McDonald's", "amenity": "fast_food", "lat": 47.2040461, "lon": 7.5415408}, {"id": 1305574961, "name": "Thai Sunshine", "amenity": "restaurant", "lat": 47.2047013, "lon": 7.5364428}, {"id": 1348523758, "name": "Steiner", "amenity": "cafe", "lat": 47.2049949, "lon": 7.5407086}, {"id": 1445700155, "name": "n/a", "amenity": "parking", "lat": 47.2037855, "lon": 7.5398567}, {"id": 1711878551, "name": "Kaufmännische Berufsschule", "amenity": "school", "lat": 47.2049253, "lon": 7.5382655}, {"id": 1713911589, "name": "Tavola Calda", "amenity": "fast_food", "lat": 47.2051584, "lon": 7.5409779}, {"id": 1715927529, "name": "Cantinetta Bindella", "amenity": "restaurant", "lat": 47.2073052, "lon": 7.5397437}, {"id": 1715927538, "name": "Amun Take-Away", "amenity": "fast_food", "lat": 47.2049508, "lon": 7.540494}, {"id": 1831316797, "name": "Il Ponte del Sole", "amenity": "restaurant", "lat": 47.2049206, "lon": 7.5360605}, {"id": 2670017043, "name": "Hafebar", "amenity": "bar", "lat": 47.2056468, "lon": 7.5384611}, {"id": 3077030019, "name": "Subway", "amenity": "fast_food", "lat": 47.2041251, "lon": 7.5416014}, {"id": 3473937432, "name": "McCafé", "amenity": "cafe", "lat": 47.2040292, "lon": 7.5416204}, {"id": 3999541458, "name": "Thung Thong", "amenity": "restaurant", "lat": 47.2047057, "lon": 7.537415}, {"id": 4124143098, "name": "così Ristorante & Pizzeria", "amenity": "restaurant", "lat": 47.2047969, "lon": 7.5370633}, {"id": 4147259816, "name": "Mega Imbiss", "amenity": "fast_food", "lat": 47.2075071, "lon": 7.5387218}, {"id": 4161741461, "name": "Restaurant Thai Shop", "amenity": "restaurant", "lat": 47.2046512, "lon": 7.5355642}, {"id": 4266767138, "name": "Zum Chregu", "amenity": "restaurant", "lat": 47.2048129, "lon": 7.5358067}, {"id": 4273064056, "name": "H4", "amenity": "restaurant", "lat": 47.2058565, "lon": 7.5416093}, {"id": 4318161034, "name": "Stadtrösterei", "amenity": "cafe", "lat": 47.2049559, "lon": 7.5414198}, {"id": 4322755552, "name": "Nonna Rosetta", "amenity": "restaurant", "lat": 47.2044825, "lon": 7.535911}, {"id": 5785960651, "name": "n/a", "amenity": "atm", "lat": 47.2042566, "lon": 7.5387939}, {"id": 5786694127, "name": "Argileh", "amenity": "bar", "lat": 47.2046631, "lon": 7.5376706}, {"id": 7298442702, "name": "n/a", "amenity": "atm", "lat": 47.2042644, "lon": 7.5422564}, {"id": 9526797654, "name": "n/a", "amenity": "fast_food", "lat": 47.2045897, "lon": 7.541447}, {"id": 9775359202, "name": "Weinstüberl & Weinverkauf", "amenity": "bar", "lat": 47.2053474, "lon": 7.5367652}, {"id": 12112631558, "name": "Solo Fresh & fast Crispy Chicken", "amenity": "restaurant", "lat": 47.2041652, "lon": 7.5388339}]}
{"address": "Seeblickstr. 12, 9010 St. Gallen", "price": 2880, "property_id": 4002039822, "area": "115m²", "rooms": 4.5, "lat": 47.44059395, "lon": 9.377784349999999, "isochrone": {"features": [{"properties": {"fill-opacity": 0.33, "fillColor": "#bf4040", "opacity": 0.33, "fill": "#bf4040", "fillOpacity": 0.33, "color": "#bf4040", "contour": 5, "metric": "time"}, "geometry": {"coordinates": [[[9.379784, 47.442868], [9.374784, 47.443169], [9.374653, 47.442725], [9.372575, 47.442594], [9.373159, 47.441594], [9.372553, 47.440362], [9.374159, 47.438968], [9.374789, 47.437599], [9.376784, 47.4368], [9.380784, 47.437529], [9.382784, 47.439115], [9.383784, 47.439027], [9.384286, 47.439594], [9.382642, 47.440452], [9.38076, 47.44257], [9.379784, 47.442868]]], "type": "Polygon"}, "type": "Feature"}], "type": "FeatureCollection"}, "amenities": [{"id": 445422751, "name": "Rotmontenhof", "amenity": "restaurant", "lat": 47.4370776, "lon": 9.3776357}, {"id": 7394616330, "name": "n/a", "amenity": "parking", "lat": 47.4380156, "lon": 9.3765338}, {"id": 7394684591, "name": "n/a", "amenity": "parking", "lat": 47.4371758, "lon": 9.3767964}, {"id": 12218885965, "name": "n/a", "amenity": "parking", "lat": 47.4395953, "lon": 9.3809115}, {"id": 12229092165, "name": "n/a", "amenity": "parking", "lat": 47.4394536, "lon": 9.3806368}, {"id": 12229092166, "name": "n/a", "amenity": "parking", "lat": 47.439389, "lon": 9.3805741}]}
{"address": "Bellerivestrasse 49, 8008 Zürich", "price": 2880, "property_id": 4002033013, "area": "115m²", "rooms": 4.5, "lat": 47.3566457, "lon": 8.551761367777775, "isochrone": {"features": [{"properties": {"fill-opacity": 0.33, "fillColor": "#bf4040", "opacity": 0.33, "fill": "#bf4040", "fillOpacity": 0.33, "color": "#bf4040", "contour": 5, "metric": "time"}, "geometry": {"coordinates": [[[8.551761, 47.360176], [8.548761, 47.360017], [8.54747, 47.357646], [8.548295, 47.355179], [8.550668, 47.353552], [8.552761, 47.352992], [8.554052, 47.353355], [8.555474, 47.354646], [8.556612, 47.358496], [8.551761, 47.360176]]], "type": "Polygon"}, "type": "Feature"}], "type": "FeatureCollection"}, "amenities": [{"id": 268482384, "name": "Yooji's", "amenity": "restaurant", "lat": 47.3582879, "lon": 8.5541672}, {"id": 268601323, "name": "Parkhaus Zürichhorn", "amenity": "parking", "lat": 47.3557489, "lon": 8.5531163}, {"id": 270692604, "name": "NA081", "amenity": "restaurant", "lat": 47.3597536, "lon": 8.5524861}, {"id": 1291638554, "name": "Chinagarten Take Away", "amenity": "fast_food", "lat": 47.3545576, "lon": 8.5519589}, {"id": 1416153972, "name": "Postfinance", "amenity": "atm", "lat": 47.3577163, "lon": 8.5540421}, {"id": 1728845231, "name": "D-Vino", "amenity": "pub", "lat": 47.3584615, "lon": 8.553987}, {"id": 3523102254, "name": "TopPharm Apotheke Höschgasse", "amenity": "pharmacy", "lat": 47.3577116, "lon": 8.5547536}, {"id": 3528789347, "name": "Confiserie Freytag", "amenity": "cafe", "lat": 47.357029, "lon": 8.5549279}, {"id": 4472557764, "name": "PBZ Bibliothek Riesbach", "amenity": "library", "lat": 47.3592693, "lon": 8.5539566}, {"id": 4833061567, "name": "Totò", "amenity": "restaurant", "lat": 47.3580896, "lon": 8.5538491}, {"id": 4833061571, "name": "Restaurant Kiosk", "amenity": "restaurant", "lat": 47.358135, "lon": 8.5478933}, {"id": 4935627373, "name": "Iroquois", "amenity": "restaurant", "lat": 47.3582918, "lon": 8.5537364}, {"id": 4935627376, "name": "Tüfenegg", "amenity": "restaurant", "lat": 47.3553163, "lon": 8.5541539}, {"id": 4935627377, "name": "Enoteca Riviera", "amenity": "restaurant", "lat": 47.3549625, "lon": 8.5550456}, {"id": 5677762209, "name": "GZ Riesbach Cafeteria", "amenity": "cafe", "lat": 47.359245, "lon": 8.5540563}, {"id": 9726348419, "name": "Tandem IMS, Zürich", "amenity": "school", "lat": 47.3585537, "lon": 8.5542336}, {"id": 9752219318, "name": "Monocle Café", "amenity": "cafe", "lat": 47.3596826, "lon": 8.5507962}, {"id": 11579521243, "name": "Maison 33", "amenity": "cafe", "lat": 47.3572728, "lon": 8.5526229}, {"id": 12561243401, "name": "Weera Pura", "amenity": "restaurant", "lat": 47.3571792, "lon": 8.5531184}]}
{"address": "Ludwigstr. 5, 9010 St. Gallen", "price": 2880, "property_id": 4002028634, "area": "115m²", "rooms": 4.5, "lat": 47.43990895, "lon": 9.377419517139657, "isochrone": {"features": [{"properties": {"fill-opacity": 0.33, "fillColor": "#bf4040", "opacity": 0.33, "fill": "#bf4040", "fillOpacity": 0.33, "color": "#bf4040", "contour": 5, "metric": "time"}, "geometry": {"coordinates": [[[9.37942, 47.442969], [9.37742, 47.442559], [9.376377, 47.442952], [9.374651, 47.442678], [9.37366, 47.441909], [9.373357, 47.440847], [9.374433, 47.439922], [9.374658, 47.438671], [9.374021, 47.438511], [9.37342, 47.43926], [9.372675, 47.437909], [9.37642, 47.435834], [9.37842, 47.436016], [9.384385, 47.439909], [9.37942, 47.442969]]], "type": "Polygon"}, "type": "Feature"}], "type": "FeatureCollection"}, "amenities": [{"id": 445422751, "name": "Rotmontenhof", "amenity": "restaurant", "lat": 47.4370776, "lon": 9.3776357}, {"id": 7394616330, "name": "n/a", "amenity": "parking", "lat": 47.4380156, "lon": 9.3765338}, {"id": 7394684591, "name": "n/a", "amenity": "parking", "lat": 47.4371758, "lon": 9.3767964}, {"id": 12218885965, "name": "n/a", "amenity": "parking", "lat": 47.4395953, "lon": 9.3809115}, {"id": 12229092165, "name": "n/a", "amenity": "parking", "lat": 47.4394536, "lon": 9.3806368}, {"id": 12229092166, "name": "n/a", "amenity": "parking", "lat": 47.439389, "lon": 9.3805741}]}
{"address": "Via G. Brentani 16, 6900 Lugano", "price": 2880, "property_id": 4002028631, "area": "115m²", "rooms": 4.5, "lat": null, "lon": null, "amenities": []}
{"address": "Via G. Brentani 16, 6900 Lugano", "price": 2880, "property_id": 4002028630, "area": "115m²", "rooms": 4.5, "lat": null, "lon": null, "amenities": []}
{"address": "Guggistrasse 14 A, 6005 Luzern", "price": 2880, "property_id": 4002006119, "area": "115m²", "rooms": 4.5, "lat": 47.0442778, "lon": 8.2996906, "isochrone": {"features": [{"properties": {"fill-opacity": 0.33, "fillColor": "#bf4040", "opacity": 0.33, "fill": "#bf4040", "fillOpacity": 0.33, "color": "#bf4040", "contour": 5, "metric": "time"}, "geometry": {"coordinates": [[[8.300691, 47.047283], [8.299691, 47.047671], [8.298691, 47.047507], [8.297531, 47.046438], [8.297466, 47.044278], [8.296592, 47.043179], [8.297764, 47.041278], [8.30059, 47.040378], [8.304704, 47.043278], [8.304331, 47.045919], [8.303631, 47.046337], [8.302691, 47.045953], [8.301691, 47.047175], [8.300691, 47.047283]]], "type": "Polygon"}, "type": "Feature"}], "type": "FeatureCollection"}, "amenities": [{"id": 1821541393, "name": "Peperoncini", "amenity": "cafe", "lat": 47.0454377, "lon": 8.3037027}, {"id": 4003553190, "name": "Casa N°1", "amenity": "restaurant", "lat": 47.0429195, "lon": 8.3038464}, {"id": 5836796342, "name": "Dieci Pizzakurier", "amenity": "fast_food", "lat": 47.045078, "lon": 8.3036813}, {"id": 5893245286, "name": "Don Feri", "amenity": "restaurant", "lat": 47.0426139, "lon": 8.3037411}, {"id": 6205585186, "name": "Indian Restaurant Luzern", "amenity": "restaurant", "lat": 47.0434863, "lon": 8.3038132}, {"id": 7197807887, "name": "WIR Bank", "amenity": "bank", "lat": 47.0422371, "lon": 8.302409}, {"id": 12193139160, "name": "Taberna Latina", "amenity": "restaurant", "lat": 47.0433432, "lon": 8.3037722}]}
