{"address": "Bläsiring 10, 4057 Basel", "price": 2880, "property_id": 4002065802, "area": "115m²", "rooms": 4.5, "lat": 47.5683969, "lon": 7.5871397, "amenities": [{"id": 71525383, "name": "Buvette Dreirosen", "amenity": "pub", "lat": 47.5694909, "lon": 7.5863581}, {"id": 71525550, "name": "Restaurant Zum Wilde Maa", "amenity": "restaurant", "lat": 47.5679494, "lon": 7.595093}, {"id": 71525553, "name": "Firenze", "amenity": "restaurant", "lat": 47.5692427, "lon": 7.5944428}, {"id": 71525557, "name": "Kiki Bar", "amenity": "pub", "lat": 47.5692456, "lon": 7.5941997}, {"id": 71525563, "name": "Cloves", "amenity": "restaurant", "lat": 47.5692033, "lon": 7.5913551}, {"id": 71525570, "name": "Senat Maki's", "amenity": "cafe", "lat": 47.5692456, "lon": 7.5938822}, {"id": 71525579, "name": "DejaVu", "amenity": "pub", "lat": 47.5694062, "lon": 7.5901309}, {"id": 71525588, "name": "Pizzeria Breisacherhof", "amenity": "restaurant", "lat": 47.5698877, "lon": 7.5916214}, {"id": 71525604, "name": "Eintracht", "amenity": "restaurant", "lat": 47.5675379, "lon": 7.5903738}, {"id": 71525611, "name": "Gatto Nero", "amenity": "restaurant", "lat": 47.5677788, "lon": 7.5906834}, {"id": 75940582, "name": "Zum Goldenen Fass", "amenity": "restaurant", "lat": 47.5656669, "lon": 7.5956372}, {"id": 75940590, "name": "Europe", "amenity": "parking", "lat": 47.5632757, "lon": 7.5968304}, {"id": 122336608, "name": "Delfin", "amenity": "restaurant", "lat": 47.5665578, "lon": 7.5917694}, {"id": 122336670, "name": "Chez Donati", "amenity": "restaurant", "lat": 47.5642081, "lon": 7.5841104}, {"id": 122337395, "name": "Parterre One", "amenity": "restaurant", "lat": 47.5637639, "lon": 7.591176}, {"id": 122337399, "name": "Brauerei Fischerstube", "amenity": "restaurant", "lat": 47.5592957, "lon": 7.5932323}, {"id": 122626753, "name": "Cargo Bar", "amenity": "pub", "lat": 47.5641143, "lon": 7.5843179}, {"id": 138310840, "name": "Brombi", "amenity": "restaurant", "lat": 47.5705197, "lon": 7.5962519}, {"id": 252822642, "name": "All' Angolo", "amenity": "pub", "lat": 47.5781695, "lon": 7.5899427}, {"id": 252822644, "name": "Stern Kebab", "amenity": "restaurant", "lat": 47.5777086, "lon": 7.5896646}, {"id": 252822645, "name": "Inselhof", "amenity": "restaurant", "lat": 47.577336, "lon": 7.5894898}, {"id": 252822647, "name": "Platanenhof", "amenity": "restaurant", "lat": 47.5758199, "lon": 7.5885972}, {"id": 252822648, "name": "nokta", "amenity": "cafe", "lat": 47.5758885, "lon": 7.5890687}, {"id": 254097107, "name": "Da Graziella", "amenity": "cafe", "lat": 47.5664559, "lon": 7.5928691}, {"id": 258890774, "name": "Depot 14", "amenity": "restaurant", "lat": 47.5772125, "lon": 7.5914239}, {"id": 262502093, "name": "Acero", "amenity": "cafe", "lat": 47.5659948, "lon": 7.5941398}, {"id": 315128008, "name": "Sport Pub Milan", "amenity": "pub", "lat": 47.5689609, "lon": 7.5948146}, {"id": 428476539, "name": "capri bar", "amenity": "pub", "lat": 47.5771733, "lon": 7.591024}, {"id": 481975100, "name": "Basler Kantonalbank", "amenity": "bank", "lat": 47.56148, "lon": 7.5925982}, {"id": 584740931, "name": "Basler Kantonalbank", "amenity": "bank", "lat": 47.5605854, "lon": 7.5869883}, {"id": 585023412, "name": "Klybeck Apotheke", "amenity": "pharmacy", "lat": 47.5656841, "lon": 7.591063}, {"id": 585046279, "name": "Didi Bar", "amenity": "cafe", "lat": 47.5656436, "lon": 7.5934442}, {"id": 585047863, "name": "Saint Tropez", "amenity": "cafe", "lat": 47.5651584, "lon": 7.5940531}, {"id": 585055185, "name": "Clara", "amenity": "cafe", "lat": 47.5644905, "lon": 7.592551}, {"id": 585056537, "name": "Klybeck Casino", "amenity": "restaurant", "lat": 47.5644661, "lon": 7.5916896}, {"id": 585133165, "name": "Lauch", "amenity": "restaurant", "lat": 47.5632537, "lon": 7.592183}, {"id": 586277088, "name": "Punta Cana", "amenity": "restaurant", "lat": 47.5633753, "lon": 7.5962178}, {"id": 586281979, "name": "Bali", "amenity": "restaurant", "lat": 47.5627493, "lon": 7.5966598}, {"id": 586283598, "name": "Rheinfelder Hof", "amenity": "restaurant", "lat": 47.562527, "lon": 7.5967588}, {"id": 590084594, "name": "Hong Kong", "amenity": "restaurant", "lat": 47.5651063, "lon": 7.5981445}, {"id": 591435646, "name": "Holzschopf", "amenity": "restaurant", "lat": 47.5621229, "lon": 7.5947687}, {"id": 796765566, "name": "Isbilir", "amenity": "fast_food", "lat": 47.5671452, "lon": 7.5952952}, {"id": 1028007577, "name": "Antik Café Bar", "amenity": "cafe", "lat": 47.5690588, "lon": 7.5902334}, {"id": 1409829319, "name": "UBS", "amenity": "bank", "lat": 47.561964, "lon": 7.5934456}, {"id": 1409829321, "name": "n/a", "amenity": "atm", "lat": 47.5618131, "lon": 7.5929422}, {"id": 1430898779, "name": "Bon Gout", "amenity": "restaurant", "lat": 47.566215, "lon": 7.5913795}, {"id": 1430901108, "name": "Taste of Mykonos", "amenity": "restaurant", "lat": 47.5660236, "lon": 7.5909437}, {"id": 1517612070, "name": "Bläsi Apotheke", "amenity": "pharmacy", "lat": 47.5674348, "lon": 7.5903846}, {"id": 1518116717, "name": "n/a", "amenity": "parking", "lat": 47.566533, "lon": 7.5897838}, {"id": 1518116722, "name": "n/a", "amenity": "parking", "lat": 47.5665619, "lon": 7.5899064}, {"id": 1518116885, "name": "n/a", "amenity": "parking", "lat": 47.5670829, "lon": 7.5903386}, {"id": 1518116928, "name": "n/a", "amenity": "parking", "lat": 47.5672126, "lon": 7.5899315}, {"id": 1518116956, "name": "n/a", "amenity": "parking", "lat": 47.5673091, "lon": 7.5902186}, {"id": 1520062898, "name": "Alpenblick", "amenity": "bar", "lat": 47.5659372, "lon": 7.5909695}, {"id": 1529984092, "name": "RiiBistro", "amenity": "restaurant", "lat": 47.5705632, "lon": 7.5868666}, {"id": 1576603312, "name": "EG Lounge", "amenity": "bar", "lat": 47.5636906, "lon": 7.5910618}, {"id": 1579334179, "name": "WSJ-209", "amenity": "parking", "lat": 47.5715949, "lon": 7.5814966}, {"id": 1592876743, "name": "Don Pincho", "amenity": "restaurant", "lat": 47.5645204, "lon": 7.5840604}, {"id": 1667377095, "name": "St. Johann Apotheke", "amenity": "pharmacy", "lat": 47.5644741, "lon": 7.5838729}, {"id": 1668864827, "name": "Café Siesta", "amenity": "cafe", "lat": 47.5690053, "lon": 7.5965148}, {"id": 1668864832, "name": "Musical Bar", "amenity": "pub", "lat": 47.5690036, "lon": 7.5973736}, {"id": 1769276555, "name": "Royal Grill", "amenity": "fast_food", "lat": 47.5668682, "lon": 7.5953324}, {"id": 1936085288, "name": "Henry's", "amenity": "bar", "lat": 47.5627057, "lon": 7.5912762}, {"id": 1936094990, "name": "Restaurant zur Linde", "amenity": "restaurant", "lat": 47.5593624, "lon": 7.5931568}, {"id": 2381403698, "name": "Café frühling", "amenity": "cafe", "lat": 47.5677589, "lon": 7.5903535}, {"id": 2434421992, "name": "Kiosk", "amenity": "restaurant", "lat": 47.5713407, "lon": 7.5877225}, {"id": 2559593325, "name": "Efringerhof", "amenity": "restaurant", "lat": 47.5673371, "lon": 7.5963892}, {"id": 2609287302, "name": "UB Medizin", "amenity": "library", "lat": 47.560048, "lon": 7.5871287}, {"id": 2616015642, "name": "Vogesenstube", "amenity": "restaurant", "lat": 47.5688305, "lon": 7.5795549}, {"id": 2616015647, "name": "Bistro Munarts", "amenity": "restaurant", "lat": 47.5693206, "lon": 7.5791429}, {"id": 2616020991, "name": "Pizza Point", "amenity": "restaurant", "lat": 47.5684632, "lon": 7.5802632}, {"id": 2616596286, "name": "Europa Apotheke", "amenity": "pharmacy", "lat": 47.5695378, "lon": 7.5792118}, {"id": 2663868065, "name": "Volta Pizza & Kebap Haus", "amenity": "fast_food", "lat": 47.5683075, "lon": 7.5800741}, {"id": 2663868078, "name": "Humor Labor Pello", "amenity": "restaurant", "lat": 47.5669753, "lon": 7.5792029}, {"id": 2700988691, "name": "24 Stunden Apotheke Basel", "amenity": "pharmacy", "lat": 47.5610509, "lon": 7.5856914}, {"id": 2971278565, "name": "n/a", "amenity": "atm", "lat": 47.5612665, "lon": 7.5934854}, {"id": 2971278566, "name": "n/a", "amenity": "atm", "lat": 47.5623556, "lon": 7.5941072}, {"id": 2971278567, "name": "n/a", "amenity": "atm", "lat": 47.5623902, "lon": 7.5941275}, {"id": 2971278569, "name": "n/a", "amenity": "atm", "lat": 47.568672, "lon": 7.5897794}, {"id": 2971278570, "name": "n/a", "amenity": "atm", "lat": 47.5711378, "lon": 7.5774614}, {"id": 2984213160, "name": "Oetlinger-Buvette", "amenity": "bar", "lat": 47.5670666, "lon": 7.58652}, {"id": 2984329486, "name": "Volkshaus Basel", "amenity": "bar", "lat": 47.5610858, "lon": 7.5936202}, {"id": 2987527171, "name": "KABAR", "amenity": "bar", "lat": 47.5636143, "lon": 7.5908456}, {"id": 3077292533, "name": "Tapeo Tapas Bar La Terraza", "amenity": "restaurant", "lat": 47.566436, "lon": 7.597422}, {"id": 3207784678, "name": "Musical Grill", "amenity": "fast_food", "lat": 47.5687224, "lon": 7.597405}, {"id": 3207784739, "name": "Rössli", "amenity": "restaurant", "lat": 47.5700863, "lon": 7.596641}, {"id": 3207784771, "name": "Thai Café", "amenity": "restaurant", "lat": 47.5698504, "lon": 7.5973694}, {"id": 3207784808, "name": "Nordbar", "amenity": "bar", "lat": 47.5704484, "lon": 7.5955243}, {"id": 3207784844, "name": "Che que lomo", "amenity": "restaurant", "lat": 47.5705566, "lon": 7.594893}, {"id": 3207784886, "name": "GGG Stadtbibliothek Bläsi", "amenity": "library", "lat": 47.5687038, "lon": 7.591119}, {"id": 3207784899, "name": "Habesha", "amenity": "restaurant", "lat": 47.5701487, "lon": 7.596197}, {"id": 3208776967, "name": "8Bar", "amenity": "pub", "lat": 47.5603488, "lon": 7.5916665}, {"id": 3208777028, "name": "Urban Greek", "amenity": "restaurant", "lat": 47.5658332, "lon": 7.5956113}, {"id": 3208777122, "name": "Brauerzunft", "amenity": "restaurant", "lat": 47.5604591, "lon": 7.5917922}, {"id": 3208777203, "name": "Consum", "amenity": "bar", "lat": 47.5602389, "lon": 7.5920448}, {"id": 3208777648, "name": "Dönerstop", "amenity": "fast_food", "lat": 47.5617299, "lon": 7.5929437}, {"id": 3208777742, "name": "Lu", "amenity": "fast_food", "lat": 47.5662885, "lon": 7.5918563}, {"id": 3220396501, "name": "Carambolage", "amenity": "bar", "lat": 47.5683278, "lon": 7.6004231}, {"id": 3220397149, "name": "CHiCKPEA", "amenity": "restaurant", "lat": 47.5673966, "lon": 7.6009155}, {"id": 3728369338, "name": "Nua", "amenity": "restaurant", "lat": 47.5660088, "lon": 7.5975782}, {"id": 3751874033, "name": "Vegitat", "amenity": "fast_food", "lat": 47.5656938, "lon": 7.5913352}, {"id": 3758773688, "name": "La Fourchette", "amenity": "restaurant", "lat": 47.5680679, "lon": 7.5905993}, {"id": 3758796724, "name": "Gemeinsam Café", "amenity": "cafe", "lat": 47.5698858, "lon": 7.5910258}, {"id": 3787636235, "name": "kebab Square", "amenity": "fast_food", "lat": 47.5622375, "lon": 7.5945797}, {"id": 3888881365, "name": "Le S", "amenity": "restaurant", "lat": 47.5690986, "lon": 7.5993385}, {"id": 3888976547, "name": "Matthäus Apotheke", "amenity": "pharmacy", "lat": 47.5688536, "lon": 7.5965248}, {"id": 3890667961, "name": "CaPuccini", "amenity": "cafe", "lat": 47.5629082, "lon": 7.597009}, {"id": 3901556434, "name": "zem alte Schluuch", "amenity": "restaurant", "lat": 47.5608684, "lon": 7.5915059}, {"id": 3972102127, "name": "Friends Bar", "amenity": "bar", "lat": 47.5663064, "lon": 7.5907055}, {"id": 4031079476, "name": "The Kitchen Focacceria", "amenity": "fast_food", "lat": 47.5684475, "lon": 7.5796802}, {"id": 4031085803, "name": "Vegitat", "amenity": "fast_food", "lat": 47.5682433, "lon": 7.5801469}, {"id": 4031088875, "name": "Volta Bräu", "amenity": "bar", "lat": 47.5709666, "lon": 7.5795463}, {"id": 4031101008, "name": "Escape Bar", "amenity": "bar", "lat": 47.5704112, "lon": 7.5780681}, {"id": 4064658548, "name": "Valentino's Place", "amenity": "restaurant", "lat": 47.5658489, "lon": 7.590881}, {"id": 4064658549, "name": "Flore", "amenity": "bar", "lat": 47.5648065, "lon": 7.5912772}, {"id": 4064660679, "name": "Didi Offensiv - Fussballkulturbar", "amenity": "bar", "lat": 47.5656871, "lon": 7.5893309}, {"id": 4144545589, "name": "Lily's", "amenity": "restaurant", "lat": 47.5612047, "lon": 7.5940058}, {"id": 4150413389, "name": "Basso", "amenity": "restaurant", "lat": 47.5734205, "lon": 7.5834511}, {"id": 4166045869, "name": "Internetcafé Planet13", "amenity": "cafe", "lat": 47.56559, "lon": 7.5913444}, {"id": 4166171865, "name": "Bancomat", "amenity": "atm", "lat": 47.5768009, "lon": 7.5920451}, {"id": 4166185589, "name": "Hüningen Grill", "amenity": "restaurant", "lat": 47.5782831, "lon": 7.5899176}, {"id": 4264494738, "name": "Johanniter Café - Bar", "amenity": "bar", "lat": 47.5645288, "lon": 7.5834065}, {"id": 4273041689, "name": "Zur Mägd", "amenity": "restaurant", "lat": 47.5638092, "lon": 7.5841218}, {"id": 4371220437, "name": "Flora Buvette", "amenity": "fast_food", "lat": 47.5638697, "lon": 7.5879839}, {"id": 4377182496, "name": "New Bombay am Rhein", "amenity": "restaurant", "lat": 47.5616693, "lon": 7.5861934}, {"id": 4377355190, "name": "Sri Veda", "amenity": "restaurant", "lat": 47.564904, "lon": 7.5835395}, {"id": 4377355191, "name": "Rhy Imbiss", "amenity": "restaurant", "lat": 47.5644225, "lon": 7.5834944}, {"id": 4377355289, "name": "Somara", "amenity": "fast_food", "lat": 47.5643678, "lon": 7.5835345}, {"id": 4377359796, "name": "Ackermannshof", "amenity": "restaurant", "lat": 47.5631097, "lon": 7.5846236}, {"id": 4417769694, "name": "Portofino Basel", "amenity": "restaurant", "lat": 47.5610761, "lon": 7.5871271}, {"id": 4601259258, "name": "Zuggerbegg Bubeck", "amenity": "cafe", "lat": 47.5625028, "lon": 7.5966029}, {"id": 4601267408, "name": "Zum Schmale Wurf", "amenity": "restaurant", "lat": 47.5602748, "lon": 7.5916791}, {"id": 4665834588, "name": "Astro Fries", "amenity": "fast_food", "lat": 47.5664318, "lon": 7.5925697}, {"id": 4701573904, "name": "Roter Bären", "amenity": "restaurant", "lat": 47.5616814, "lon": 7.5915271}, {"id": 4714567615, "name": "SMUK Café Bar", "amenity": "cafe", "lat": 47.567226, "lon": 7.5958963}, {"id": 4749555721, "name": "Avant-Gouz", "amenity": "restaurant", "lat": 47.5677168, "lon": 7.5948728}, {"id": 4895556124, "name": "RENÉE", "amenity": "bar", "lat": 47.5625934, "lon": 7.5914003}, {"id": 4974951772, "name": "Krishna", "amenity": "restaurant", "lat": 47.5681757, "lon": 7.580543}, {"id": 4975887622, "name": "MamaEat", "amenity": "fast_food", "lat": 47.5636831, "lon": 7.5825906}, {"id": 5001393667, "name": "Grand Café Bar", "amenity": "cafe", "lat": 47.5619853, "lon": 7.5952695}, {"id": 5016417015, "name": "RhyWyera", "amenity": "restaurant", "lat": 47.561092, "lon": 7.5905972}, {"id": 5130247921, "name": "Klara", "amenity": "fast_food", "lat": 47.562429, "lon": 7.5955042}, {"id": 5157189625, "name": "ZA ZAA - Libanesisches Restaurant", "amenity": "restaurant", "lat": 47.5603036, "lon": 7.5851995}, {"id": 5248674577, "name": "Grenzwert", "amenity": "bar", "lat": 47.5618747, "lon": 7.5915805}, {"id": 5261023566, "name": "feministische bibliothek @spit", "amenity": "library", "lat": 47.5684445, "lon": 7.6009464}, {"id": 5419675922, "name": "Grotto", "amenity": "bar", "lat": 47.5621814, "lon": 7.5917655}, {"id": 5419683121, "name": "Muusfalle", "amenity": "bar", "lat": 47.5621534, "lon": 7.5916868}, {"id": 5419684821, "name": "Captain Cook Bar", "amenity": "bar", "lat": 47.562287, "lon": 7.5914878}, {"id": 5426983920, "name": "roots", "amenity": "restaurant", "lat": 47.56981, "lon": 7.5830455}, {"id": 5477492770, "name": "Zum Eck", "amenity": "bar", "lat": 47.5633475, "lon": 7.5830139}, {"id": 5698898524, "name": "Centro USB", "amenity": "restaurant", "lat": 47.5615953, "lon": 7.581705}, {"id": 5698904086, "name": "Centrino USB", "amenity": "cafe", "lat": 47.5615943, "lon": 7.5818416}, {"id": 5698913601, "name": "Giardino USB", "amenity": "cafe", "lat": 47.5621303, "lon": 7.583033}, {"id": 5744306322, "name": "Pizzeria Fiorentina", "amenity": "restaurant", "lat": 47.560758, "lon": 7.5873603}, {"id": 5820380004, "name": "Löwenapotheke", "amenity": "pharmacy", "lat": 47.5609333, "lon": 7.5917459}, {"id": 5983175585, "name": "Landesstelle", "amenity": "bar", "lat": 47.5781619, "lon": 7.5858575}, {"id": 6056389765, "name": "Bity Crypto ATM", "amenity": "atm", "lat": 47.5627511, "lon": 7.5923442}, {"id": 6239202286, "name": "Magical Cafe", "amenity": "cafe", "lat": 47.5699745, "lon": 7.5993614}, {"id": 6318613814, "name": "Ufer7", "amenity": "restaurant", "lat": 47.5610452, "lon": 7.5906378}, {"id": 6388624275, "name": "LA", "amenity": "restaurant", "lat": 47.5628093, "lon": 7.5848459}, {"id": 6780075813, "name": "Saner Apotheke", "amenity": "pharmacy", "lat": 47.5610331, "lon": 7.5920108}, {"id": 6780081106, "name": "Greifen Apotheke", "amenity": "pharmacy", "lat": 47.5621355, "lon": 7.5930825}, {"id": 6780094234, "name": "n/a", "amenity": "atm", "lat": 47.5661075, "lon": 7.5909485}, {"id": 6868688829, "name": "Barfly", "amenity": "bar", "lat": 47.5627654, "lon": 7.584874}, {"id": 6923434369, "name": "Zum Johann", "amenity": "bar", "lat": 47.5676265, "lon": 7.5807154}, {"id": 7003029881, "name": "Casa Piccola Italia", "amenity": "restaurant", "lat": 47.570009, "lon": 7.5974416}, {"id": 7261553186, "name": "Pink Pizza", "amenity": "fast_food", "lat": 47.576299, "lon": 7.5888736}, {"id": 7450557434, "name": "Manora", "amenity": "restaurant", "lat": 47.5610983, "lon": 7.592742}, {"id": 7450557435, "name": "Starbucks Claraplatz", "amenity": "cafe", "lat": 47.5614183, "lon": 7.5932853}, {"id": 7465675393, "name": "Zur Rose", "amenity": "pharmacy", "lat": 47.56163, "lon": 7.5920695}, {"id": 7483122924, "name": "Amavita Rheinbrücke", "amenity": "pharmacy", "lat": 47.561403, "lon": 7.5922099}, {"id": 7486388780, "name": "Medbase Apotheke Vogesen", "amenity": "pharmacy", "lat": 47.568252, "lon": 7.5792322}, {"id": 7529438648, "name": "Burger Meister", "amenity": "fast_food", "lat": 47.5620203, "lon": 7.593601}, {"id": 7554138216, "name": "Dunkin'", "amenity": "fast_food", "lat": 47.5613474, "lon": 7.5921901}, {"id": 7572625269, "name": "Bank-now", "amenity": "bank", "lat": 47.5624781, "lon": 7.5957236}, {"id": 7575316871, "name": "Basler Kantonalbank", "amenity": "bank", "lat": 47.5768242, "lon": 7.5921062}, {"id": 7673740691, "name": "Migros Restaurant", "amenity": "restaurant", "lat": 47.5618305, "lon": 7.5925019}, {"id": 7683239068, "name": "VITO Klybeck", "amenity": "restaurant", "lat": 47.5672076, "lon": 7.5908596}, {"id": 7683254632, "name": "Fujin Sushi bar", "amenity": "restaurant", "lat": 47.567279, "lon": 7.5908338}, {"id": 7747174184, "name": "Pizzeria Da Pia", "amenity": "restaurant", "lat": 47.5709099, "lon": 7.5920312}, {"id": 7747207685, "name": "Drei Rosen", "amenity": "restaurant", "lat": 47.570532, "lon": 7.5905079}, {"id": 7773338162, "name": "OFF", "amenity": "bar", "lat": 47.5693615, "lon": 7.5899974}, {"id": 7778233544, "name": "BrauBudeBasel", "amenity": "bar", "lat": 47.567672, "lon": 7.5918704}, {"id": 7784095493, "name": "Globâle", "amenity": "restaurant", "lat": 47.562871, "lon": 7.5937258}, {"id": 7784095495, "name": "Whisky Bar", "amenity": "cafe", "lat": 47.5647535, "lon": 7.592706}, {"id": 7784095496, "name": "Concordia", "amenity": "restaurant", "lat": 47.5655363, "lon": 7.5920557}, {"id": 7784095498, "name": "Rouine", "amenity": "bar", "lat": 47.5666217, "lon": 7.5924914}, {"id": 7784095499, "name": "Hammer Apotheke", "amenity": "pharmacy", "lat": 47.567587, "lon": 7.5952345}, {"id": 7784095500, "name": "pusat cafe bar", "amenity": "bar", "lat": 47.5678995, "lon": 7.5948047}, {"id": 7784409617, "name": "Star Grill", "amenity": "fast_food", "lat": 47.5627955, "lon": 7.5919442}, {"id": 7806623582, "name": "Hoffmann's Bagel", "amenity": "fast_food", "lat": 47.5671995, "lon": 7.596898}, {"id": 7806657986, "name": "Lyz Bar & Lounge", "amenity": "bar", "lat": 47.5702979, "lon": 7.5782148}, {"id": 7809972322, "name": "Boo", "amenity": "restaurant", "lat": 47.5670345, "lon": 7.5909027}, {"id": 7809972323, "name": "The Kebab Factory", "amenity": "fast_food", "lat": 47.5680175, "lon": 7.5903641}, {"id": 7809972326, "name": "Savanna", "amenity": "restaurant", "lat": 47.5692168, "lon": 7.5912968}, {"id": 7871792488, "name": "Du Pont", "amenity": "restaurant", "lat": 47.560565, "lon": 7.5910314}, {"id": 7995309310, "name": "Pizza Picassso", "amenity": "restaurant", "lat": 47.5694979, "lon": 7.5901783}, {"id": 8010710188, "name": "Chanthaburi", "amenity": "restaurant", "lat": 47.56648, "lon": 7.5916548}, {"id": 8012279898, "name": "Sultan Saray", "amenity": "fast_food", "lat": 47.5664562, "lon": 7.5914046}, {"id": 8012279900, "name": "VeggEast", "amenity": "fast_food", "lat": 47.565946, "lon": 7.5897567}, {"id": 8041311738, "name": "Ta Cave", "amenity": "bar", "lat": 47.5624283, "lon": 7.5909908}, {"id": 8063487485, "name": "Herz", "amenity": "bar", "lat": 47.5623438, "lon": 7.5953325}, {"id": 8126685107, "name": "Primarschulhaus Erlenmatt", "amenity": "school", "lat": 47.5689989, "lon": 7.6004078}, {"id": 8500247484, "name": "Pizzeria La Perla", "amenity": "restaurant", "lat": 47.5653483, "lon": 7.595655}, {"id": 8537314356, "name": "Sottosopra", "amenity": "restaurant", "lat": 47.5622551, "lon": 7.595159}, {"id": 8729246504, "name": "Clarahuus", "amenity": "parking", "lat": 47.5622393, "lon": 7.5921052}, {"id": 8806220782, "name": "Dreirosen Apotheke", "amenity": "pharmacy", "lat": 47.5689793, "lon": 7.5906307}, {"id": 8909393066, "name": "PaSiWo", "amenity": "restaurant", "lat": 47.5633469, "lon": 7.5921254}, {"id": 8909431468, "name": "Finkmüller", "amenity": "cafe", "lat": 47.5658557, "lon": 7.5912746}, {"id": 8911103620, "name": "Mezzo", "amenity": "restaurant", "lat": 47.5685381, "lon": 7.5804652}, {"id": 8990082842, "name": "Basler Kebabhaus", "amenity": "fast_food", "lat": 47.5636317, "lon": 7.5962772}, {"id": 9006466009, "name": "Küsne Kebab", "amenity": "fast_food", "lat": 47.5620904, "lon": 7.5931393}, {"id": 9006499388, "name": "Clarastübli", "amenity": "restaurant", "lat": 47.5626048, "lon": 7.5962248}, {"id": 9007960432, "name": "Pizza Maestro", "amenity": "fast_food", "lat": 47.5656888, "lon": 7.5878454}, {"id": 9274893539, "name": "Verde", "amenity": "restaurant", "lat": 47.562012, "lon": 7.595332}, {"id": 9350106079, "name": "Empanadas", "amenity": "restaurant", "lat": 47.5629072, "lon": 7.5918759}, {"id": 9350684616, "name": "Blaupause", "amenity": "bar", "lat": 47.5602047, "lon": 7.5929324}, {"id": 9350752818, "name": "CTR Chicken", "amenity": "fast_food", "lat": 47.5606881, "lon": 7.5941021}, {"id": 9350766919, "name": "Gabri's Pasta", "amenity": "restaurant", "lat": 47.5592231, "lon": 7.5932539}, {"id": 9350766920, "name": "Schall und Rauch Bar", "amenity": "bar", "lat": 47.5599894, "lon": 7.5922865}, {"id": 9350766921, "name": "Sonne", "amenity": "restaurant", "lat": 47.5600427, "lon": 7.5922305}, {"id": 9350906407, "name": "Three Ladies", "amenity": "cafe", "lat": 47.5621986, "lon": 7.5856935}, {"id": 9381876059, "name": "Cafe St. Johan", "amenity": "cafe", "lat": 47.5685235, "lon": 7.5798515}, {"id": 9381912099, "name": "Lotus Garden", "amenity": "restaurant", "lat": 47.5665142, "lon": 7.5808066}, {"id": 9482868955, "name": "Detto Pronto", "amenity": "fast_food", "lat": 47.5705037, "lon": 7.5952502}, {"id": 9748222017, "name": "Aktienmühle", "amenity": "cafe", "lat": 47.5759624, "lon": 7.5913195}, {"id": 9832402717, "name": "Restaurant Thai Family", "amenity": "restaurant", "lat": 47.5630636, "lon": 7.5964143}, {"id": 9880875589, "name": "n/a", "amenity": "atm", "lat": 47.5624821, "lon": 7.5832677}, {"id": 9905309814, "name": "Choi Asian Garden", "amenity": "restaurant", "lat": 47.5658897, "lon": 7.5886535}, {"id": 9932434117, "name": "The Siam Delicious", "amenity": "fast_food", "lat": 47.5662091, "lon": 7.5912098}, {"id": 10002231723, "name": "n/a", "amenity": "parking", "lat": 47.5640107, "lon": 7.5817884}, {"id": 10002233136, "name": "n/a", "amenity": "parking", "lat": 47.5641071, "lon": 7.5821849}, {"id": 10004623701, "name": "Castel Rosso", "amenity": "restaurant", "lat": 47.5609622, "lon": 7.5942114}, {"id": 10031814189, "name": "Singh Indische Spezialitäten", "amenity": "restaurant", "lat": 47.5659985, "lon": 7.588767}, {"id": 10031814202, "name": "Multi Kitchen Markthalle Feldberg", "amenity": "fast_food", "lat": 47.5656705, "lon": 7.5877496}, {"id": 10031814204, "name": "Messo Burger", "amenity": "fast_food", "lat": 47.5656439, "lon": 7.5876608}, {"id": 10031838986, "name": "walther bistrobar", "amenity": "restaurant", "lat": 47.5629813, "lon": 7.5890317}, {"id": 10031838987, "name": "Bar Amber", "amenity": "bar", "lat": 47.5623417, "lon": 7.5895046}, {"id": 10114569528, "name": "Café Bar Treffpunkt", "amenity": "bar", "lat": 47.5692057, "lon": 7.5795769}, {"id": 10114569529, "name": "Libelle", "amenity": "restaurant", "lat": 47.5706283, "lon": 7.57748}, {"id": 10288188203, "name": "Grenzwert", "amenity": "bar", "lat": 47.5618775, "lon": 7.5916103}, {"id": 10606713507, "name": "Lu", "amenity": "fast_food", "lat": 47.5663068, "lon": 7.5918813}, {"id": 10727661989, "name": "zur Waage", "amenity": "pharmacy", "lat": 47.5775031, "lon": 7.5895486}, {"id": 10736299805, "name": "n/a", "amenity": "restaurant", "lat": 47.567018, "lon": 7.5792944}, {"id": 10745141574, "name": "Sommerresidenz", "amenity": "bar", "lat": 47.5775769, "lon": 7.5865236}, {"id": 10745159212, "name": "Jani's", "amenity": "fast_food", "lat": 47.5780989, "lon": 7.5898522}, {"id": 10791215705, "name": "Humor Labor Pello", "amenity": "restaurant", "lat": 47.5669191, "lon": 7.5791756}, {"id": 10837881905, "name": "Burgermeister", "amenity": "fast_food", "lat": 47.5620296, "lon": 7.5937789}, {"id": 10884236353, "name": "Fass Bar", "amenity": "pub", "lat": 47.5657565, "lon": 7.5956208}, {"id": 10935222399, "name": "Johanniter", "amenity": "restaurant", "lat": 47.5687887, "lon": 7.5815176}, {"id": 11413486821, "name": "Brasserie", "amenity": "restaurant", "lat": 47.5604879, "lon": 7.5877111}, {"id": 11413486822, "name": "Le Cheval Blanc", "amenity": "restaurant", "lat": 47.5605777, "lon": 7.5875977}, {"id": 11427348301, "name": "Pizza Pronta", "amenity": "fast_food", "lat": 47.5682571, "lon": 7.5798928}, {"id": 11770989356, "name": "Burek King", "amenity": "fast_food", "lat": 47.562112, "lon": 7.5939893}, {"id": 11876754508, "name": "daniska", "amenity": "cafe", "lat": 47.5654942, "lon": 7.5880503}, {"id": 12000710869, "name": "Chanthabury", "amenity": "restaurant", "lat": 47.566474, "lon": 7.5916367}, {"id": 12017251394, "name": "Saint Louis Buvette", "amenity": "restaurant", "lat": 47.5669332, "lon": 7.5831382}, {"id": 12374353061, "name": "Värdex Crypto ATM", "amenity": "atm", "lat": 47.5710044, "lon": 7.5768627}, {"id": 12374357989, "name": "Värdex Crypto ATM", "amenity": "atm", "lat": 47.5661956, "lon": 7.5900746}, {"id": 12601771057, "name": "Hafechäs", "amenity": "restaurant", "lat": 47.5774166, "lon": 7.5869328}]}
{"address": "Erlenmattstr. 75, 4058 Basel", "price": 2880, "property_id": 4002039809, "area": "115m²", "rooms": 4.5, "lat": 47.5705088, "lon": 7.6031744, "amenities": [{"id": 71525550, "name": "Restaurant Zum Wilde Maa", "amenity": "restaurant", "lat": 47.5679494, "lon": 7.595093}, {"id": 71525553, "name": "Firenze", "amenity": "restaurant", "lat": 47.5692427, "lon": 7.5944428}, {"id": 71525557, "name": "Kiki Bar", "amenity": "pub", "lat": 47.5692456, "lon": 7.5941997}, {"id": 71525563, "name": "Cloves", "amenity": "restaurant", "lat": 47.5692033, "lon": 7.5913551}, {"id": 71525570, "name": "Senat Maki's", "amenity": "cafe", "lat": 47.5692456, "lon": 7.5938822}, {"id": 71525588, "name": "Pizzeria Breisacherhof", "amenity": "restaurant", "lat": 47.5698877, "lon": 7.5916214}, {"id": 75940582, "name": "Zum Goldenen Fass", "amenity": "restaurant", "lat": 47.5656669, "lon": 7.5956372}, {"id": 122336608, "name": "Delfin", "amenity": "restaurant", "lat": 47.5665578, "lon": 7.5917694}, {"id": 138310840, "name": "Brombi", "amenity": "restaurant", "lat": 47.5705197, "lon": 7.5962519}, {"id": 254097107, "name": "Da Graziella", "amenity": "cafe", "lat": 47.5664559, "lon": 7.5928691}, {"id": 262502093, "name": "Acero", "amenity": "cafe", "lat": 47.5659948, "lon": 7.5941398}, {"id": 266810611, "name": "Zur Schwarzen Kunst", "amenity": "restaurant", "lat": 47.5761915, "lon": 7.5974297}, {"id": 273223637, "name": "Vogelsangschulhaus", "amenity": "school", "lat": 47.5633774, "lon": 7.6084402}, {"id": 276546395, "name": "n/a", "amenity": "parking", "lat": 47.5698379, "lon": 7.6131159}, {"id": 315128008, "name": "Sport Pub Milan", "amenity": "pub", "lat": 47.5689609, "lon": 7.5948146}, {"id": 493149217, "name": "Basler Kantonalbank", "amenity": "bank", "lat": 47.5664339, "lon": 7.6066374}, {"id": 529593919, "name": "Maulbeergrill", "amenity": "fast_food", "lat": 47.5676143, "lon": 7.6023449}, {"id": 585046279, "name": "Didi Bar", "amenity": "cafe", "lat": 47.5656436, "lon": 7.5934442}, {"id": 585047863, "name": "Saint Tropez", "amenity": "cafe", "lat": 47.5651584, "lon": 7.5940531}, {"id": 590051414, "name": "Thai Family", "amenity": "restaurant", "lat": 47.5653158, "lon": 7.605048}, {"id": 590084594, "name": "Hong Kong", "amenity": "restaurant", "lat": 47.5651063, "lon": 7.5981445}, {"id": 592182051, "name": "Café Charlotte", "amenity": "cafe", "lat": 47.5648516, "lon": 7.6033861}, {"id": 796765566, "name": "Isbilir", "amenity": "fast_food", "lat": 47.5671452, "lon": 7.5952952}, {"id": 1668864827, "name": "Café Siesta", "amenity": "cafe", "lat": 47.5690053, "lon": 7.5965148}, {"id": 1668864832, "name": "Musical Bar", "amenity": "pub", "lat": 47.5690036, "lon": 7.5973736}, {"id": 1668865164, "name": "Schule für Gestaltung", "amenity": "school", "lat": 47.5636426, "lon": 7.6062991}, {"id": 1769276555, "name": "Royal Grill", "amenity": "fast_food", "lat": 47.5668682, "lon": 7.5953324}, {"id": 2549405062, "name": "Basler Kantonalbank", "amenity": "atm", "lat": 47.5638499, "lon": 7.5993087}, {"id": 2559593325, "name": "Efringerhof", "amenity": "restaurant", "lat": 47.5673371, "lon": 7.5963892}, {"id": 2800631394, "name": "Qbarana Lounge Bar", "amenity": "bar", "lat": 47.5687669, "lon": 7.6018111}, {"id": 3077292533, "name": "Tapeo Tapas Bar La Terraza", "amenity": "restaurant", "lat": 47.566436, "lon": 7.597422}, {"id": 3207784678, "name": "Musical Grill", "amenity": "fast_food", "lat": 47.5687224, "lon": 7.597405}, {"id": 3207784739, "name": "Rössli", "amenity": "restaurant", "lat": 47.5700863, "lon": 7.596641}, {"id": 3207784771, "name": "Thai Café", "amenity": "restaurant", "lat": 47.5698504, "lon": 7.5973694}, {"id": 3207784808, "name": "Nordbar", "amenity": "bar", "lat": 47.5704484, "lon": 7.5955243}, {"id": 3207784844, "name": "Che que lomo", "amenity": "restaurant", "lat": 47.5705566, "lon": 7.594893}, {"id": 3207784886, "name": "GGG Stadtbibliothek Bläsi", "amenity": "library", "lat": 47.5687038, "lon": 7.591119}, {"id": 3207784899, "name": "Habesha", "amenity": "restaurant", "lat": 47.5701487, "lon": 7.596197}, {"id": 3208777028, "name": "Urban Greek", "amenity": "restaurant", "lat": 47.5658332, "lon": 7.5956113}, {"id": 3220396501, "name": "Carambolage", "amenity": "bar", "lat": 47.5683278, "lon": 7.6004231}, {"id": 3220397133, "name": "Cafe 360", "amenity": "pub", "lat": 47.5676417, "lon": 7.6024174}, {"id": 3220397149, "name": "CHiCKPEA", "amenity": "restaurant", "lat": 47.5673966, "lon": 7.6009155}, {"id": 3224586205, "name": "The Chennai Kings", "amenity": "restaurant", "lat": 47.5682478, "lon": 7.6052881}, {"id": 3224586250, "name": "Happy Wok", "amenity": "restaurant", "lat": 47.568157, "lon": 7.6054465}, {"id": 3728369338, "name": "Nua", "amenity": "restaurant", "lat": 47.5660088, "lon": 7.5975782}, {"id": 3758796724, "name": "Gemeinsam Café", "amenity": "cafe", "lat": 47.5698858, "lon": 7.5910258}, {"id": 3888881365, "name": "Le S", "amenity": "restaurant", "lat": 47.5690986, "lon": 7.5993385}, {"id": 3888976547, "name": "Matthäus Apotheke", "amenity": "pharmacy", "lat": 47.5688536, "lon": 7.5965248}, {"id": 3889420248, "name": "Bar Rouge", "amenity": "bar", "lat": 47.5644556, "lon": 7.6019009}, {"id": 3890667652, "name": "Boo Messeplatz", "amenity": "restaurant", "lat": 47.5642735, "lon": 7.5983857}, {"id": 3890667653, "name": "namamen Japanese Ramenbar Messe", "amenity": "restaurant", "lat": 47.5637483, "lon": 7.5996043}, {"id": 3890667654, "name": "Käfer Stube", "amenity": "restaurant", "lat": 47.5634011, "lon": 7.5999219}, {"id": 3900491567, "name": "n/a", "amenity": "atm", "lat": 47.5638698, "lon": 7.5992961}, {"id": 4110058268, "name": "Zytigs-stübli", "amenity": "cafe", "lat": 47.569695, "lon": 7.608954}, {"id": 4611892646, "name": "BKB", "amenity": "atm", "lat": 47.5672735, "lon": 7.607176}, {"id": 4665834588, "name": "Astro Fries", "amenity": "fast_food", "lat": 47.5664318, "lon": 7.5925697}, {"id": 4714567615, "name": "SMUK Café Bar", "amenity": "cafe", "lat": 47.567226, "lon": 7.5958963}, {"id": 4749555721, "name": "Avant-Gouz", "amenity": "restaurant", "lat": 47.5677168, "lon": 7.5948728}, {"id": 5261023566, "name": "feministische bibliothek @spit", "amenity": "library", "lat": 47.5684445, "lon": 7.6009464}, {"id": 5550633691, "name": "Bar du Nord", "amenity": "bar", "lat": 47.568121, "lon": 7.6065499}, {"id": 5588337360, "name": "Tiefgarage", "amenity": "parking", "lat": 47.5687073, "lon": 7.6111903}, {"id": 5588338976, "name": "Tiefgarage", "amenity": "parking", "lat": 47.5694527, "lon": 7.6105904}, {"id": 5588339495, "name": "n/a", "amenity": "parking", "lat": 47.570292, "lon": 7.6121308}, {"id": 5588341092, "name": "n/a", "amenity": "parking", "lat": 47.569626, "lon": 7.6139148}, {"id": 6239202286, "name": "Magical Cafe", "amenity": "cafe", "lat": 47.5699745, "lon": 7.5993614}, {"id": 6253646185, "name": "Zum Backofen", "amenity": "cafe", "lat": 47.5672994, "lon": 7.6110128}, {"id": 6389507428, "name": "McDonald's", "amenity": "fast_food", "lat": 47.5665097, "lon": 7.6066263}, {"id": 6440662485, "name": "Kaffi ELCH", "amenity": "cafe", "lat": 47.5711139, "lon": 7.6102383}, {"id": 6927157603, "name": "Coop Vitality", "amenity": "pharmacy", "lat": 47.5697544, "lon": 7.6036227}, {"id": 6958402189, "name": "Locanda", "amenity": "bar", "lat": 47.564069, "lon": 7.5977405}, {"id": 7003029881, "name": "Casa Piccola Italia", "amenity": "restaurant", "lat": 47.570009, "lon": 7.5974416}, {"id": 7206798585, "name": "Finkmüller Erlenmatt Ost", "amenity": "cafe", "lat": 47.5720995, "lon": 7.6014317}, {"id": 7747174184, "name": "Pizzeria Da Pia", "amenity": "restaurant", "lat": 47.5709099, "lon": 7.5920312}, {"id": 7747207685, "name": "Drei Rosen", "amenity": "restaurant", "lat": 47.570532, "lon": 7.5905079}, {"id": 7762245664, "name": "SILO soulfood.", "amenity": "restaurant", "lat": 47.5720403, "lon": 7.6020549}, {"id": 7778233543, "name": "Matt & Elly Brewery & Kitchen", "amenity": "restaurant", "lat": 47.56969, "lon": 7.6034296}, {"id": 7778233544, "name": "BrauBudeBasel", "amenity": "bar", "lat": 47.567672, "lon": 7.5918704}, {"id": 7784095498, "name": "Rouine", "amenity": "bar", "lat": 47.5666217, "lon": 7.5924914}, {"id": 7784095499, "name": "Hammer Apotheke", "amenity": "pharmacy", "lat": 47.567587, "lon": 7.5952345}, {"id": 7784095500, "name": "pusat cafe bar", "amenity": "bar", "lat": 47.5678995, "lon": 7.5948047}, {"id": 7806623582, "name": "Hoffmann's Bagel", "amenity": "fast_food", "lat": 47.5671995, "lon": 7.596898}, {"id": 7806623584, "name": "Pandarosa", "amenity": "restaurant", "lat": 47.5644099, "lon": 7.5984284}, {"id": 7809972326, "name": "Savanna", "amenity": "restaurant", "lat": 47.5692168, "lon": 7.5912968}, {"id": 7995309310, "name": "Pizza Picassso", "amenity": "restaurant", "lat": 47.5694979, "lon": 7.5901783}, {"id": 8001068550, "name": "Anjappar", "amenity": "restaurant", "lat": 47.5660728, "lon": 7.6070988}, {"id": 8001068551, "name": "Hirzbrunnen-Apotheke", "amenity": "pharmacy", "lat": 47.5659451, "lon": 7.6072}, {"id": 8125259187, "name": "Quartiertreffpunkt Gleis 58", "amenity": "restaurant", "lat": 47.5721088, "lon": 7.6001771}, {"id": 8126685107, "name": "Primarschulhaus Erlenmatt", "amenity": "school", "lat": 47.5689989, "lon": 7.6004078}, {"id": 8500247484, "name": "Pizzeria La Perla", "amenity": "restaurant", "lat": 47.5653483, "lon": 7.595655}, {"id": 9482868955, "name": "Detto Pronto", "amenity": "fast_food", "lat": 47.5705037, "lon": 7.5952502}, {"id": 10008628400, "name": "Europainstitut der Universität Basel", "amenity": "university", "lat": 47.5647323, "lon": 7.606072}, {"id": 10140233773, "name": "ROBA BUONA", "amenity": "restaurant", "lat": 47.5719494, "lon": 7.6016523}, {"id": 10606351035, "name": "DB Gastronomie Betriebsrestaurant", "amenity": "restaurant", "lat": 47.5683186, "lon": 7.6061343}, {"id": 10607908166, "name": "Angolo Italiano", "amenity": "restaurant", "lat": 47.5670069, "lon": 7.6009293}, {"id": 10608357008, "name": "Kitchen 41", "amenity": "restaurant", "lat": 47.5674377, "lon": 7.6017047}, {"id": 10884236353, "name": "Fass Bar", "amenity": "pub", "lat": 47.5657565, "lon": 7.5956208}, {"id": 11755443196, "name": "Café 4 you", "amenity": "cafe", "lat": 47.5625982, "lon": 7.6037697}, {"id": 12361595965, "name": "Universitätsbibliothek Rosental", "amenity": "library", "lat": 47.5669624, "lon": 7.601665}, {"id": 12393894853, "name": "Rosental Imbiss Colak kebab", "amenity": "fast_food", "lat": 47.5650047, "lon": 7.6037414}]}
{"address": "Käferholzstrasse 60, 8057 Zürich", "price": 2880, "property_id": 4001947102, "area": "115m²", "rooms": 4.5, "lat": 47.402542600000004, "lon": 8.532090116551142, "isochrone": {"features": [{"properties": {"fill-opacity": 0.33, "fillColor": "#bf4040", "opacity": 0.33, "fill": "#bf4040", "fillOpacity": 0.33, "color": "#bf4040", "contour": 15, "metric": "time"}, "geometry": {"coordinates": [[[8.53909, 47.412843], [8.53809, 47.41335], [8.535909, 47.411724], [8.53209, 47.412695], [8.53109, 47.41215], [8.52609, 47.411815], [8.52409, 47.411326], [8.523411, 47.410543], [8.523927, 47.408543], [8.521935, 47.407698], [8.522374, 47.404543], [8.52111, 47.403543], [8.521385, 47.402838], [8.52309, 47.402313], [8.52409, 47.403093], [8.525587, 47.401543], [8.525863, 47.400543], [8.524404, 47.396543], [8.524732, 47.394543], [8.52709, 47.393827], [8.53009, 47.392003], [8.53209, 47.3926], [8.534356, 47.392276], [8.53809, 47.392736], [8.539081, 47.394551], [8.54109, 47.395056], [8.543464, 47.396543], [8.543016, 47.397543], [8.544692, 47.399543], [8.544525, 47.400543], [8.545659, 47.401543], [8.545549, 47.402543], [8.546815, 47.403543], [8.54732, 47.405543], [8.544663, 47.408116], [8.54309, 47.408136], [8.542456, 47.408543], [8.542788, 47.410543], [8.542133, 47.411543], [8.540414, 47.411867], [8.53909, 47.412843]]], "type": "Polygon"}, "type": "Feature"}], "type": "FeatureCollection"}, "amenities": [{"id": 105443906, "name": "Gabbiano", "amenity": "restaurant", "lat": 47.409767, "lon": 8.5374793}, {"id": 253207101, "name": "Il Postino", "amenity": "restaurant", "lat": 47.400103, "lon": 8.5436425}, {"id": 256335788, "name": "Haus der Farbe", "amenity": "school", "lat": 47.4115721, "lon": 8.5337577}, {"id": 285896841, "name": "Pizza Bros", "amenity": "restaurant", "lat": 47.4097743, "lon": 8.537357}, {"id": 304597368, "name": "Hang's", "amenity": "restaurant", "lat": 47.3972052, "lon": 8.5408759}, {"id": 329094569, "name": "Gonzalez", "amenity": "restaurant", "lat": 47.3962653, "lon": 8.5402882}, {"id": 411069901, "name": "Löwen", "amenity": "bar", "lat": 47.3953422, "lon": 8.5258288}, {"id": 452162196, "name": "n/a", "amenity": "parking", "lat": 47.4119975, "lon": 8.5315463}, {"id": 480274035, "name": "Medbase Apotheke Rotbuch", "amenity": "pharmacy", "lat": 47.3930599, "lon": 8.5285694}, {"id": 480274061, "name": "Nordbrücke", "amenity": "restaurant", "lat": 47.39337, "lon": 8.5294371}, {"id": 480274132, "name": "The Artisan", "amenity": "restaurant", "lat": 47.3935843, "lon": 8.5296761}, {"id": 480352081, "name": "Fallender Brunnenhof", "amenity": "restaurant", "lat": 47.402817, "lon": 8.5355605}, {"id": 488483086, "name": "New Avataar", "amenity": "restaurant", "lat": 47.3938594, "lon": 8.5311096}, {"id": 613895341, "name": "n/a", "amenity": "parking", "lat": 47.4121053, "lon": 8.5319329}, {"id": 667115563, "name": "Klubschule Migros", "amenity": "school", "lat": 47.4104775, "lon": 8.5426205}, {"id": 699587305, "name": "Ototo - Sushi Dining", "amenity": "restaurant", "lat": 47.3925569, "lon": 8.5308196}, {"id": 845099491, "name": "Kiosk / Restaurant", "amenity": "restaurant", "lat": 47.4048648, "lon": 8.5379355}, {"id": 1115819506, "name": "Giesserei Oerlikon", "amenity": "restaurant", "lat": 47.408614, "lon": 8.5376025}, {"id": 1137668847, "name": "Zürcher Kantonalbank", "amenity": "atm", "lat": 47.3979784, "lon": 8.5420896}, {"id": 1391382161, "name": "Hirsch-Apotheke", "amenity": "pharmacy", "lat": 47.3963465, "lon": 8.5408536}, {"id": 1391383876, "name": "Hirschwiesen-Apotheke", "amenity": "pharmacy", "lat": 47.4003419, "lon": 8.5439647}, {"id": 1528759075, "name": "Belmondo", "amenity": "cafe", "lat": 47.393331, "lon": 8.5284527}, {"id": 1592426153, "name": "Barcelona Restaurant", "amenity": "restaurant", "lat": 47.4020484, "lon": 8.5353195}, {"id": 1617870706, "name": "Tagesschule Viso Parents", "amenity": "school", "lat": 47.4071608, "lon": 8.5444362}, {"id": 1626579175, "name": "n/a", "amenity": "parking", "lat": 47.4075275, "lon": 8.5358765}, {"id": 1639345927, "name": "Flying Pizza", "amenity": "fast_food", "lat": 47.3940437, "lon": 8.5274538}, {"id": 2037084628, "name": "Gasthaus Hofwiesen", "amenity": "restaurant", "lat": 47.4063257, "lon": 8.5376266}, {"id": 2355693108, "name": "Lemon", "amenity": "restaurant", "lat": 47.4092114, "lon": 8.5377071}, {"id": 2366401882, "name": "Virtù", "amenity": "restaurant", "lat": 47.4109228, "lon": 8.5376629}, {"id": 2382050407, "name": "Zürcher Kantonalbank", "amenity": "atm", "lat": 47.3930992, "lon": 8.529228}, {"id": 2383597668, "name": "Meister GAO", "amenity": "restaurant", "lat": 47.3972168, "lon": 8.5323442}, {"id": 2383597672, "name": "SAHltimbocca", "amenity": "restaurant", "lat": 47.3954854, "lon": 8.5318493}, {"id": 2390756348, "name": "CS Bancomat", "amenity": "atm", "lat": 47.4103457, "lon": 8.5426133}, {"id": 2479519173, "name": "Wehntal-Apotheke", "amenity": "pharmacy", "lat": 47.402496, "lon": 8.5358866}, {"id": 2514418477, "name": "Jeunesse", "amenity": "restaurant", "lat": 47.4041372, "lon": 8.5342275}, {"id": 2677704001, "name": "Tramblu", "amenity": "restaurant", "lat": 47.3983794, "lon": 8.536259}, {"id": 3250788311, "name": "Kafi Freud", "amenity": "cafe", "lat": 47.3959666, "lon": 8.5406154}, {"id": 3270483667, "name": "n/a", "amenity": "parking", "lat": 47.4067755, "lon": 8.532556}, {"id": 3389274208, "name": "Nihao", "amenity": "restaurant", "lat": 47.4024233, "lon": 8.5445394}, {"id": 3638530910, "name": "n/a", "amenity": "parking", "lat": 47.3940781, "lon": 8.5298427}, {"id": 3727175264, "name": "Nostos Greek Bistro", "amenity": "restaurant", "lat": 47.4115131, "lon": 8.5258078}, {"id": 3732510108, "name": "Suan Long", "amenity": "restaurant", "lat": 47.4104359, "lon": 8.5425471}, {"id": 3778147856, "name": "n/a", "amenity": "parking", "lat": 47.4005916, "lon": 8.5322197}, {"id": 3856374184, "name": "Universität Zürich, Oerlikon (AFL)", "amenity": "university", "lat": 47.4107931, "lon": 8.5402012}, {"id": 4815870121, "name": "CHAIMA Thai Take Away", "amenity": "fast_food", "lat": 47.3950364, "lon": 8.5318488}, {"id": 4833061653, "name": "Amavita Neumarkt Oerlikon", "amenity": "pharmacy", "lat": 47.4103326, "lon": 8.5426915}, {"id": 4836599821, "name": "Hang's Gourmet Cuisine", "amenity": "restaurant", "lat": 47.3966207, "lon": 8.5405108}, {"id": 4864530800, "name": "Cityport", "amenity": "parking", "lat": 47.4106887, "lon": 8.5404271}, {"id": 4927011224, "name": "Cafeteria UZH Cityport", "amenity": "cafe", "lat": 47.4105886, "lon": 8.5396374}, {"id": 4944286593, "name": "Löwen Siam", "amenity": "restaurant", "lat": 47.409489, "lon": 8.5423228}, {"id": 4958366047, "name": "Cucina", "amenity": "restaurant", "lat": 47.3957946, "lon": 8.5399353}, {"id": 4960082364, "name": "Cafeteria GZ Buchegg", "amenity": "cafe", "lat": 47.3989435, "lon": 8.5348343}, {"id": 5342971869, "name": "Bar Aperto", "amenity": "bar", "lat": 47.392871, "lon": 8.5303727}, {"id": 5370500717, "name": "Ayverdi's", "amenity": "fast_food", "lat": 47.4114406, "lon": 8.5253692}, {"id": 5370500827, "name": "Sultan Sofrasi", "amenity": "fast_food", "lat": 47.4113526, "lon": 8.5261671}, {"id": 5388344149, "name": "Paydos", "amenity": "cafe", "lat": 47.395935, "lon": 8.5400865}, {"id": 5533971968, "name": "Vegan Troja", "amenity": "restaurant", "lat": 47.3936238, "lon": 8.5287193}, {"id": 5863763246, "name": "Troja", "amenity": "fast_food", "lat": 47.393648, "lon": 8.5286307}, {"id": 6343148993, "name": "Züri Bistro", "amenity": "fast_food", "lat": 47.3965002, "lon": 8.5409347}, {"id": 6350718195, "name": "Restaurant Bar Anna", "amenity": "restaurant", "lat": 47.3992912, "lon": 8.5401245}, {"id": 7052349210, "name": "n/a", "amenity": "parking", "lat": 47.396765, "lon": 8.537148}, {"id": 7070367188, "name": "n/a", "amenity": "parking", "lat": 47.3967038, "lon": 8.5411794}, {"id": 7905699488, "name": "Associaçâo Portuguesa", "amenity": "restaurant", "lat": 47.4069217, "lon": 8.5363863}, {"id": 7948691808, "name": "n/a", "amenity": "fast_food", "lat": 47.3969241, "lon": 8.5297093}, {"id": 9366878334, "name": "n/a", "amenity": "parking", "lat": 47.403656, "lon": 8.5467695}, {"id": 9694602779, "name": "Gesamtschule Unterstrass", "amenity": "school", "lat": 47.3925273, "lon": 8.5362781}, {"id": 11194626948, "name": "ISTL Office", "amenity": "school", "lat": 47.4109396, "lon": 8.5309013}, {"id": 11435628073, "name": "Chez Nous", "amenity": "cafe", "lat": 47.3934151, "lon": 8.5289089}, {"id": 11472872688, "name": "ViCafe", "amenity": "cafe", "lat": 47.3935134, "lon": 8.5290605}, {"id": 11486148740, "name": "Chicago 1928", "amenity": "restaurant", "lat": 47.4119546, "lon": 8.5396268}, {"id": 11748556157, "name": "LOKAL", "amenity": "cafe", "lat": 47.393331, "lon": 8.5308112}, {"id": 11848111558, "name": "Han Kitchen", "amenity": "restaurant", "lat": 47.4096572, "lon": 8.5424482}, {"id": 11929283671, "name": "Lia Siam", "amenity": "restaurant", "lat": 47.3973065, "lon": 8.5409593}, {"id": 11951664398, "name": "Eckaffee", "amenity": "cafe", "lat": 47.4115595, "lon": 8.5258747}]}
{"address": "Fahrnstrasse 25, 9402 Mörschwil", "price": 2880, "property_id": 4002080979, "area": "115m²", "rooms": 4.5, "lat": 47.4639669, "lon": 9.432168388679248, "isochrone": {"features": [{"properties": {"fill-opacity": 0.33, "fillColor": "#bf4040", "opacity": 0.33, "fill": "#bf4040", "fillOpacity": 0.33, "color": "#bf4040", "contour": 15, "metric": "time"}, "geometry": {"coordinates": [[[9.427168, 47.473336], [9.426168, 47.471732], [9.425168, 47.473797], [9.424168, 47.472635], [9.422168, 47.472433], [9.420981, 47.472967], [9.420244, 47.470967], [9.418943, 47.470193], [9.419102, 47.467967], [9.420168, 47.465633], [9.422168, 47.466085], [9.422813, 47.464967], [9.422651, 47.464484], [9.420168, 47.464285], [9.419919, 47.463967], [9.421611, 47.461967], [9.422168, 47.461737], [9.423168, 47.462194], [9.425168, 47.460362], [9.427338, 47.460136], [9.428322, 47.458814], [9.426168, 47.458218], [9.426168, 47.457304], [9.430293, 47.457092], [9.429264, 47.455967], [9.431168, 47.455087], [9.432897, 47.455967], [9.433086, 47.457049], [9.434707, 47.457429], [9.434964, 47.460172], [9.436168, 47.460279], [9.437168, 47.461232], [9.437897, 47.461239], [9.438168, 47.462618], [9.439168, 47.462812], [9.439514, 47.463622], [9.441766, 47.465369], [9.441941, 47.466195], [9.443609, 47.466527], [9.443875, 47.46726], [9.44508, 47.467967], [9.442801, 47.468335], [9.441168, 47.466766], [9.440995, 47.46814], [9.442544, 47.468591], [9.44261, 47.469525], [9.4435, 47.469967], [9.440168, 47.471446], [9.439463, 47.470672], [9.438168, 47.470659], [9.437168, 47.472275], [9.43636, 47.470775], [9.433733, 47.470532], [9.432168, 47.471252], [9.430836, 47.470635], [9.430607, 47.471406], [9.429168, 47.471691], [9.428444, 47.470967], [9.428299, 47.469836], [9.427168, 47.469816], [9.428166, 47.472964], [9.427168, 47.473336]]], "type": "Polygon"}, "type": "Feature"}], "type": "FeatureCollection"}, "amenities": [{"id": 380307387, "name": "Raiffeisen", "amenity": "bank", "lat": 47.468475, "lon": 9.4242167}, {"id": 745742088, "name": "Füger", "amenity": "cafe", "lat": 47.4681741, "lon": 9.4236445}, {"id": 12211342033, "name": "n/a", "amenity": "parking", "lat": 47.4628197, "lon": 9.4336961}]}
{"address": "Herrenhof 868, 9240 Niederglatt", "price": 2880, "property_id": 4002077676, "area": "115m²", "rooms": 4.5, "lat": 47.4240752, "lon": 9.1598683, "isochrone": {"features": [{"properties": {"fill-opacity": 0.33, "fillColor": "#bf4040", "opacity": 0.33, "fill": "#bf4040", "fillOpacity": 0.33, "color": "#bf4040", "contour": 15, "metric": "time"}, "geometry": {"coordinates": [[[9.156868, 47.435158], [9.156021, 47.434922], [9.153824, 47.433075], [9.15436, 47.432075], [9.151868, 47.431471], [9.151596, 47.430803], [9.153868, 47.430307], [9.154295, 47.429502], [9.155951, 47.429158], [9.153115, 47.428828], [9.153115, 47.427322], [9.156923, 47.42702], [9.156035, 47.426909], [9.155928, 47.426015], [9.155044, 47.425899], [9.154868, 47.425174], [9.152868, 47.426799], [9.150755, 47.424962], [9.150469, 47.425675], [9.149511, 47.426075], [9.148868, 47.427668], [9.148033, 47.426911], [9.144868, 47.426247], [9.144868, 47.425904], [9.146129, 47.425336], [9.145868, 47.423566], [9.147868, 47.423401], [9.148996, 47.424203], [9.149041, 47.422903], [9.146596, 47.421075], [9.148868, 47.420416], [9.149688, 47.421256], [9.150868, 47.421254], [9.151959, 47.417984], [9.152753, 47.418191], [9.152695, 47.421075], [9.153947, 47.421153], [9.154006, 47.419937], [9.153375, 47.419568], [9.152903, 47.41811], [9.153868, 47.41701], [9.156239, 47.418075], [9.156868, 47.420216], [9.157273, 47.41848], [9.159868, 47.416542], [9.160693, 47.417251], [9.161868, 47.417266], [9.163868, 47.415595], [9.165868, 47.416944], [9.166868, 47.416016], [9.169576, 47.417075], [9.170016, 47.418075], [9.168706, 47.418913], [9.169566, 47.419378], [9.169473, 47.42068], [9.16777, 47.420977], [9.167603, 47.42281], [9.166801, 47.423143], [9.167956, 47.423163], [9.168151, 47.422358], [9.168868, 47.422217], [9.173465, 47.422479], [9.174465, 47.424075], [9.173296, 47.425075], [9.173343, 47.428075], [9.172172, 47.429379], [9.171868, 47.430699], [9.170953, 47.42999], [9.168868, 47.430327], [9.164987, 47.428957], [9.163779, 47.428986], [9.162693, 47.430075], [9.163062, 47.432269], [9.160689, 47.432896], [9.159868, 47.434927], [9.158868, 47.434824], [9.157868, 47.433796], [9.156868, 47.435158]]], "type": "Polygon"}, "type": "Feature"}], "type": "FeatureCollection"}, "amenities": []}
{"address": "Muttenzerstrasse 129, 4127 Birsfelden", "price": 2880, "property_id": 4002059199, "area": "115m²", "rooms": 4.5, "lat": 47.5447189, "lon": 7.62688715, "isochrone": {"features": [{"properties": {"fill-opacity": 0.33, "fillColor": "#bf4040", "opacity": 0.33, "fill": "#bf4040", "fillOpacity": 0.33, "color": "#bf4040", "contour": 15, "metric": "time"}, "geometry": {"coordinates": [[[7.626887, 47.555738], [7.623887, 47.556114], [7.621887, 47.555716], [7.620887, 47.554555], [7.619887, 47.555138], [7.61863, 47.554976], [7.618314, 47.552719], [7.617575, 47.551719], [7.618088, 47.550719], [7.617346, 47.55026], [7.615887, 47.550456], [7.615445, 47.550161], [7.615623, 47.547719], [7.614624, 47.546719], [7.615417, 47.546249], [7.61657, 47.544402], [7.618023, 47.543855], [7.618682, 47.542719], [7.617316, 47.541719], [7.617315, 47.540719], [7.619117, 47.539948], [7.619887, 47.538537], [7.62096, 47.538792], [7.621763, 47.536719], [7.622887, 47.536128], [7.62544, 47.537167], [7.625887, 47.538659], [7.626887, 47.536453], [7.629567, 47.536039], [7.630887, 47.53621], [7.633382, 47.537224], [7.633689, 47.538917], [7.636844, 47.539719], [7.638749, 47.540719], [7.637526, 47.542719], [7.638489, 47.543719], [7.637887, 47.544721], [7.636305, 47.545719], [7.637766, 47.546719], [7.636464, 47.548719], [7.637144, 47.549719], [7.637084, 47.550719], [7.634968, 47.551719], [7.634693, 47.552524], [7.633887, 47.552996], [7.632887, 47.552771], [7.630887, 47.554425], [7.629521, 47.554353], [7.626887, 47.555738]]], "type": "Polygon"}, "type": "Feature"}], "type": "FeatureCollection"}, "amenities": [{"id": 1184592053, "name": "n/a", "amenity": "parking", "lat": 47.537754, "lon": 7.6246823}, {"id": 1422964359, "name": "Ritazza", "amenity": "restaurant", "lat": 47.5409522, "lon": 7.6195941}, {"id": 1573221888, "name": "Mona Lisa", "amenity": "restaurant", "lat": 47.553344, "lon": 7.621097}, {"id": 1573222220, "name": "Burger King", "amenity": "fast_food", "lat": 47.55339, "lon": 7.622033}, {"id": 1598960218, "name": "TopPharm", "amenity": "pharmacy", "lat": 47.5526283, "lon": 7.6228669}, {"id": 1600137246, "name": "Basellandschaftliche Kantonalbank", "amenity": "bank", "lat": 47.55297, "lon": 7.623018}, {"id": 1600145427, "name": "Cafe Mesana", "amenity": "cafe", "lat": 47.553231, "lon": 7.622954}, {"id": 1600179732, "name": "Coop", "amenity": "parking", "lat": 47.5528367, "lon": 7.6215371}, {"id": 1600187397, "name": "Hard Apotheke", "amenity": "pharmacy", "lat": 47.5535059, "lon": 7.6217233}, {"id": 1610930944, "name": "Rotblau Bar|Bistro", "amenity": "bar", "lat": 47.5410878, "lon": 7.6192078}, {"id": 1615017668, "name": "Casablanca", "amenity": "restaurant", "lat": 47.5543315, "lon": 7.6198671}, {"id": 1615017684, "name": "BONANZA 2", "amenity": "restaurant", "lat": 47.5524699, "lon": 7.6237986}, {"id": 1615017685, "name": "Luxor", "amenity": "restaurant", "lat": 47.5525595, "lon": 7.6240178}, {"id": 1618048044, "name": "Birs Grill", "amenity": "fast_food", "lat": 47.5535785, "lon": 7.6214489}, {"id": 1618094480, "name": "Wirtshaus St. Jakob", "amenity": "restaurant", "lat": 47.5416641, "lon": 7.617831}, {"id": 1784478396, "name": "n/a", "amenity": "parking", "lat": 47.551088, "lon": 7.620935}, {"id": 1784555588, "name": "Restaurant Hard", "amenity": "restaurant", "lat": 47.5482225, "lon": 7.6299077}, {"id": 1784566899, "name": "n/a", "amenity": "parking", "lat": 47.5476067, "lon": 7.6293905}, {"id": 1784585430, "name": "n/a", "amenity": "parking", "lat": 47.5473354, "lon": 7.6280863}, {"id": 1784587096, "name": "n/a", "amenity": "parking", "lat": 47.5471531, "lon": 7.629569}, {"id": 1784604154, "name": "n/a", "amenity": "parking", "lat": 47.5470183, "lon": 7.6268063}, {"id": 1785824083, "name": "n/a", "amenity": "parking", "lat": 47.5543608, "lon": 7.622181}, {"id": 1785828329, "name": "n/a", "amenity": "parking", "lat": 47.5539834, "lon": 7.6218979}, {"id": 1785831694, "name": "n/a", "amenity": "parking", "lat": 47.5540332, "lon": 7.6189141}, {"id": 2392657649, "name": "Roxy Bar", "amenity": "bar", "lat": 47.5516336, "lon": 7.6236547}, {"id": 2419361919, "name": "Blume", "amenity": "restaurant", "lat": 47.5537129, "lon": 7.6211824}, {"id": 2456030637, "name": "TopPharm Lehenmatt Apotheke", "amenity": "pharmacy", "lat": 47.5476516, "lon": 7.6213023}, {"id": 3273856215, "name": "n/a", "amenity": "restaurant", "lat": 47.5389084, "lon": 7.6210099}, {"id": 4031318999, "name": "n/a", "amenity": "parking", "lat": 47.5496945, "lon": 7.6168325}, {"id": 4031337376, "name": "Dalbedych", "amenity": "restaurant", "lat": 47.5480644, "lon": 7.6208607}, {"id": 4031337378, "name": "Sutter Begg", "amenity": "cafe", "lat": 47.5472479, "lon": 7.6208003}, {"id": 4062717954, "name": "n/a", "amenity": "parking", "lat": 47.5485716, "lon": 7.6176453}, {"id": 4427996064, "name": "n/a", "amenity": "parking", "lat": 47.5396471, "lon": 7.6261785}, {"id": 5364651421, "name": "Da Graziella", "amenity": "cafe", "lat": 47.5407695, "lon": 7.6202457}, {"id": 5617859939, "name": "n/a", "amenity": "atm", "lat": 47.5480239, "lon": 7.6174503}, {"id": 5831501700, "name": "n/a", "amenity": "parking", "lat": 47.5396834, "lon": 7.6199315}, {"id": 5927628520, "name": "n/a", "amenity": "parking", "lat": 47.5486018, "lon": 7.617314}, {"id": 6937790909, "name": "Café Bar Santana", "amenity": "cafe", "lat": 47.5511296, "lon": 7.6241732}, {"id": 7218263338, "name": "Orthopädie Klinik am Bethesda Spital", "amenity": "clinic", "lat": 47.5477715, "lon": 7.6167976}, {"id": 7241813240, "name": "Radiologie", "amenity": "clinic", "lat": 47.5476037, "lon": 7.6171229}, {"id": 7465661977, "name": "Sun Store", "amenity": "pharmacy", "lat": 47.5409422, "lon": 7.6205762}, {"id": 7578166883, "name": "SAM'S Pizza Land", "amenity": "restaurant", "lat": 47.5410955, "lon": 7.6208991}, {"id": 9562305189, "name": "cafe flora mangia e bevi", "amenity": "restaurant", "lat": 47.5478024, "lon": 7.6267679}, {"id": 9562305190, "name": "Rebstock", "amenity": "restaurant", "lat": 47.5506791, "lon": 7.6243472}, {"id": 10846389185, "name": "n/a", "amenity": "parking", "lat": 47.5492549, "lon": 7.625468}, {"id": 10970797310, "name": "n/a", "amenity": "parking", "lat": 47.5398873, "lon": 7.6262758}, {"id": 12606445780, "name": "Freizeit- und Schulbibliothek Birsfelden", "amenity": "library", "lat": 47.5545342, "lon": 7.6242584}]}
{"address": "Volkmarstrasse 15, 8006 Zürich", "price": 2880, "property_id": 4002058756, "area": "115m²", "rooms": 4.5, "lat": 47.38532765, "lon": 8.543725200223658, "isochrone": {"features": [{"properties": {"fill-opacity": 0.33, "fillColor": "#bf4040", "opacity": 0.33, "fill": "#bf4040", "fillOpacity": 0.33, "color": "#bf4040", "contour": 15, "metric": "time"}, "geometry": {"coordinates": [[[8.545725, 47.394618], [8.544725, 47.395067], [8.543725, 47.394537], [8.539725, 47.395001], [8.537725, 47.394831], [8.533725, 47.393489], [8.532314, 47.390328], [8.530893, 47.38916], [8.530712, 47.386328], [8.530076, 47.385328], [8.530206, 47.383809], [8.532023, 47.382328], [8.531995, 47.380328], [8.535141, 47.379744], [8.535725, 47.37879], [8.537115, 47.378328], [8.537725, 47.376597], [8.538849, 47.376452], [8.542725, 47.373235], [8.545725, 47.373538], [8.546725, 47.373295], [8.547725, 47.37491], [8.549725, 47.374467], [8.552193, 47.380328], [8.553733, 47.38232], [8.553316, 47.383328], [8.55177, 47.384328], [8.550725, 47.385947], [8.550927, 47.38853], [8.550016, 47.389328], [8.550263, 47.390328], [8.548725, 47.392425], [8.545725, 47.394618]]], "type": "Polygon"}, "type": "Feature"}], "type": "FeatureCollection"}, "amenities": [{"id": 105506327, "name": "Zum Alten Löwen", "amenity": "restaurant", "lat": 47.3849796, "lon": 8.5482469}, {"id": 252407018, "name": "Ristorante Culmann", "amenity": "restaurant", "lat": 47.3794422, "lon": 8.5470198}, {"id": 252407019, "name": "La Fontana", "amenity": "restaurant", "lat": 47.3797201, "lon": 8.5469255}, {"id": 267347570, "name": "Zürcher Kantonalbank", "amenity": "atm", "lat": 47.377669, "lon": 8.5404219}, {"id": 267348165, "name": "Postfinance", "amenity": "atm", "lat": 47.3784781, "lon": 8.5396564}, {"id": 267348185, "name": "Bancomat Raiffeisen", "amenity": "atm", "lat": 47.3782186, "lon": 8.5402302}, {"id": 267348518, "name": "McDonald's", "amenity": "fast_food", "lat": 47.3767165, "lon": 8.5403343}, {"id": 283458326, "name": "Walliser Kanne", "amenity": "restaurant", "lat": 47.3766974, "lon": 8.5388369}, {"id": 303067123, "name": "Primitivo", "amenity": "restaurant", "lat": 47.3851137, "lon": 8.5362371}, {"id": 312592661, "name": "Saravanaa Bhavan", "amenity": "fast_food", "lat": 47.3818876, "lon": 8.535575}, {"id": 317768650, "name": "Starbucks", "amenity": "cafe", "lat": 47.3765801, "lon": 8.5441952}, {"id": 321000070, "name": "Stazione Paradiso", "amenity": "restaurant", "lat": 47.3867368, "lon": 8.5340332}, {"id": 321361607, "name": "Postfinance", "amenity": "atm", "lat": 47.392108, "lon": 8.5382165}, {"id": 321364237, "name": "SV Mensa Polyterrasse", "amenity": "restaurant", "lat": 47.3763026, "lon": 8.5465369}, {"id": 321364282, "name": "Tannenbar", "amenity": "cafe", "lat": 47.3773953, "lon": 8.5478673}, {"id": 321364310, "name": "Clausiusbar", "amenity": "restaurant", "lat": 47.3772558, "lon": 8.5470004}, {"id": 321364380, "name": "food&lab", "amenity": "restaurant", "lat": 47.378314, "lon": 8.548805}, {"id": 321947441, "name": "Zürcher Kantonalbank", "amenity": "atm", "lat": 47.3844836, "lon": 8.5316859}, {"id": 321947443, "name": "Postfinance", "amenity": "atm", "lat": 47.3842188, "lon": 8.532441}, {"id": 356308261, "name": "n/a", "amenity": "parking", "lat": 47.3783651, "lon": 8.5407657}, {"id": 360330661, "name": "Uncle 7", "amenity": "restaurant", "lat": 47.381874, "lon": 8.5338089}, {"id": 360330662, "name": "Vulkan", "amenity": "restaurant", "lat": 47.3819982, "lon": 8.5336329}, {"id": 365838427, "name": "Pizzeria Corallo", "amenity": "restaurant", "lat": 47.3865398, "lon": 8.5414596}, {"id": 365838929, "name": "Kreis 6", "amenity": "restaurant", "lat": 47.3861132, "lon": 8.5452851}, {"id": 365892432, "name": "Chuchi am Wasser", "amenity": "restaurant", "lat": 47.3830272, "lon": 8.5396636}, {"id": 365918123, "name": "Luigi", "amenity": "restaurant", "lat": 47.3789263, "lon": 8.5444555}, {"id": 370822481, "name": "Weinstube 1923", "amenity": "restaurant", "lat": 47.3764199, "lon": 8.5441261}, {"id": 370822646, "name": "Schurter", "amenity": "cafe", "lat": 47.3763302, "lon": 8.5440373}, {"id": 370834151, "name": "Chopstick express", "amenity": "fast_food", "lat": 47.3760644, "lon": 8.5440933}, {"id": 387909747, "name": "Kafischnaps", "amenity": "cafe", "lat": 47.3912249, "lon": 8.5359972}, {"id": 428297859, "name": "Postfinance", "amenity": "atm", "lat": 47.3762867, "lon": 8.5466749}, {"id": 444463631, "name": "Matahari Bar", "amenity": "pub", "lat": 47.3840524, "lon": 8.5309307}, {"id": 446784541, "name": "TopPharm", "amenity": "pharmacy", "lat": 47.3839118, "lon": 8.5323405}, {"id": 504487282, "name": "The Lemon Grass", "amenity": "fast_food", "lat": 47.3857427, "lon": 8.539683}, {"id": 552929127, "name": "Drei Stuben", "amenity": "restaurant", "lat": 47.3832538, "lon": 8.5416447}, {"id": 552932425, "name": "Pizzeria Veneziana", "amenity": "restaurant", "lat": 47.383118, "lon": 8.5413332}, {"id": 567132764, "name": "Zürcher Kantonalbank", "amenity": "atm", "lat": 47.3796221, "lon": 8.5367801}, {"id": 567132770, "name": "Starbucks", "amenity": "cafe", "lat": 47.3801255, "lon": 8.5374525}, {"id": 568018605, "name": "Parkhaus Hauptbahnhof", "amenity": "parking", "lat": 47.3815048, "lon": 8.53761}, {"id": 582819804, "name": "Café Lang", "amenity": "cafe", "lat": 47.3851076, "lon": 8.5314772}, {"id": 582819971, "name": "AMO e lino", "amenity": "restaurant", "lat": 47.3847471, "lon": 8.5311137}, {"id": 632545305, "name": "Bocuci: Bottega & Cucina", "amenity": "restaurant", "lat": 47.3791435, "lon": 8.545208}, {"id": 632553574, "name": "Restaurant Haldenbach", "amenity": "restaurant", "lat": 47.3799672, "lon": 8.5469246}, {"id": 632562120, "name": "Züri Bistro", "amenity": "fast_food", "lat": 47.38053, "lon": 8.5479785}, {"id": 632562127, "name": "Ristorante Al Forno da Angelo", "amenity": "restaurant", "lat": 47.3805744, "lon": 8.5483371}, {"id": 633584154, "name": "Domino's", "amenity": "fast_food", "lat": 47.3784731, "lon": 8.547949}, {"id": 633584160, "name": "Café Oberstrass", "amenity": "cafe", "lat": 47.3782514, "lon": 8.5479609}, {"id": 633584181, "name": "Hot Pasta", "amenity": "restaurant", "lat": 47.3786854, "lon": 8.547952}, {"id": 633584200, "name": "The Alehouse Palmhof", "amenity": "pub", "lat": 47.3790827, "lon": 8.5478805}, {"id": 633584224, "name": "Lemon Grass", "amenity": "fast_food", "lat": 47.3796283, "lon": 8.5479597}, {"id": 693318633, "name": "ViCafe", "amenity": "cafe", "lat": 47.3768277, "lon": 8.5395824}, {"id": 693318643, "name": "Bachmann", "amenity": "cafe", "lat": 47.3765411, "lon": 8.5394487}, {"id": 693318662, "name": "Starbucks", "amenity": "cafe", "lat": 47.3767615, "lon": 8.5401477}, {"id": 693318670, "name": "Amavita", "amenity": "pharmacy", "lat": 47.37669, "lon": 8.5399521}, {"id": 703215222, "name": "Zentral", "amenity": "restaurant", "lat": 47.3799291, "lon": 8.5432583}, {"id": 703215583, "name": "Casa Ferlin", "amenity": "restaurant", "lat": 47.3797694, "lon": 8.5433497}, {"id": 703216769, "name": "TopPharm", "amenity": "pharmacy", "lat": 47.3776379, "lon": 8.5435927}, {"id": 725764696, "name": "Caffetteria am Limmatplatz", "amenity": "cafe", "lat": 47.3847107, "lon": 8.5321502}, {"id": 725764716, "name": "Tadka", "amenity": "restaurant", "lat": 47.3832551, "lon": 8.5332337}, {"id": 725764771, "name": "Püente", "amenity": "restaurant", "lat": 47.3821574, "lon": 8.5357577}, {"id": 725765073, "name": "Millennium", "amenity": "restaurant", "lat": 47.3842264, "lon": 8.5319218}, {"id": 784296063, "name": "UBS", "amenity": "atm", "lat": 47.3770609, "lon": 8.5437786}, {"id": 792593919, "name": "La Casa", "amenity": "restaurant", "lat": 47.3901801, "lon": 8.5400652}, {"id": 792593930, "name": "Sorell Rex", "amenity": "cafe", "lat": 47.3847859, "lon": 8.5431484}, {"id": 792594129, "name": "Richie's Chicken", "amenity": "fast_food", "lat": 47.3905675, "lon": 8.5394452}, {"id": 866538630, "name": "Bakery Bakery", "amenity": "cafe", "lat": 47.3920571, "lon": 8.5391006}, {"id": 866541138, "name": "Café Unterstrass", "amenity": "cafe", "lat": 47.3921165, "lon": 8.5386272}, {"id": 891896164, "name": "Rigi Apotheke und Drogerie", "amenity": "pharmacy", "lat": 47.3857176, "lon": 8.5487292}, {"id": 943868646, "name": "Biotheke", "amenity": "pharmacy", "lat": 47.3836588, "lon": 8.5484321}, {"id": 943875479, "name": "Hausammann", "amenity": "cafe", "lat": 47.3832878, "lon": 8.548393}, {"id": 973933405, "name": "Migros Restaurant", "amenity": "restaurant", "lat": 47.3855243, "lon": 8.5312041}, {"id": 988651681, "name": "Libanon il-Achdar", "amenity": "fast_food", "lat": 47.380844, "lon": 8.5347582}, {"id": 988652370, "name": "Yoshino", "amenity": "restaurant", "lat": 47.3807368, "lon": 8.5345758}, {"id": 988652775, "name": "n/a", "amenity": "cafe", "lat": 47.3808903, "lon": 8.5352061}, {"id": 988655652, "name": "Il Pentagramma", "amenity": "fast_food", "lat": 47.3811064, "lon": 8.5336844}, {"id": 1125157295, "name": "Schweizerisches Landesmuseum", "amenity": "parking", "lat": 47.3789662, "lon": 8.5412678}, {"id": 1253929883, "name": "PHƠ-NA, ASIA take away", "amenity": "fast_food", "lat": 47.3816075, "lon": 8.5330316}, {"id": 1253932506, "name": "Tant Pis", "amenity": "bar", "lat": 47.3820245, "lon": 8.5332903}, {"id": 1346146716, "name": "Brasserie zum Vorbahnhof", "amenity": "restaurant", "lat": 47.3797298, "lon": 8.5372003}, {"id": 1357158514, "name": "Habib Bank", "amenity": "bank", "lat": 47.3817572, "lon": 8.5435756}, {"id": 1374903992, "name": "St. Gallerhof", "amenity": "restaurant", "lat": 47.3799976, "lon": 8.5373936}, {"id": 1374903993, "name": "Sham", "amenity": "restaurant", "lat": 47.3800785, "lon": 8.5370948}, {"id": 1377247222, "name": "Dune Shisha Club", "amenity": "bar", "lat": 47.3812873, "lon": 8.5331062}, {"id": 1383580144, "name": "Amigos Tapas", "amenity": "restaurant", "lat": 47.3839003, "lon": 8.5307988}, {"id": 1390807245, "name": "Apotheke Schaffhauserplatz", "amenity": "pharmacy", "lat": 47.3916892, "lon": 8.5383642}, {"id": 1449013754, "name": "Libanes Take Away", "amenity": "fast_food", "lat": 47.3928661, "lon": 8.5392848}, {"id": 1867263239, "name": "Rubina", "amenity": "restaurant", "lat": 47.381545, "lon": 8.5483263}, {"id": 1888545640, "name": "El Luchador", "amenity": "restaurant", "lat": 47.3817668, "lon": 8.533656}, {"id": 1895863272, "name": "Café des Amis", "amenity": "cafe", "lat": 47.3886467, "lon": 8.5361093}, {"id": 1978573306, "name": "Cucina", "amenity": "restaurant", "lat": 47.384162, "lon": 8.5304006}, {"id": 1986773362, "name": "Moudi's Lecker Garten", "amenity": "restaurant", "lat": 47.3909932, "lon": 8.5455952}, {"id": 2081117847, "name": "Dropa Limmatplatz", "amenity": "pharmacy", "lat": 47.3850081, "lon": 8.5315987}, {"id": 2121176772, "name": "Kafi Seilbahn Rigiblick", "amenity": "cafe", "lat": 47.3853864, "lon": 8.5482515}, {"id": 2140368471, "name": "Bamboo Inn", "amenity": "restaurant", "lat": 47.3804786, "lon": 8.5472423}, {"id": 2140368560, "name": "Stapferstube da Rizzo", "amenity": "restaurant", "lat": 47.3821725, "lon": 8.5474623}, {"id": 2289533439, "name": "Restaurant Oase", "amenity": "restaurant", "lat": 47.3782017, "lon": 8.5408542}, {"id": 2392657620, "name": "Kleine Freiheit", "amenity": "cafe", "lat": 47.379135, "lon": 8.5445168}, {"id": 2427316757, "name": "Sweet & Sour Take-Away", "amenity": "fast_food", "lat": 47.3787825, "lon": 8.5416208}, {"id": 2452626421, "name": "Fux und Haas", "amenity": "fast_food", "lat": 47.3857229, "lon": 8.5395166}, {"id": 2509647639, "name": "Janni Pizza Kurier", "amenity": "fast_food", "lat": 47.3866392, "lon": 8.539917}, {"id": 2609734695, "name": "Bibliothek des Schweizerischen Nationalmuseums", "amenity": "library", "lat": 47.3790124, "lon": 8.5409969}, {"id": 2609805220, "name": "Grüne Bibliothek", "amenity": "library", "lat": 47.3789092, "lon": 8.5486877}, {"id": 2609816688, "name": "GESS-Bibliothek", "amenity": "library", "lat": 47.3802178, "lon": 8.5447287}, {"id": 2615979187, "name": "Konrad Kaffee- & Cocktailbar (ex 0815)", "amenity": "bar", "lat": 47.3768147, "lon": 8.538892}, {"id": 2746139382, "name": "Mama's Beck", "amenity": "restaurant", "lat": 47.3885695, "lon": 8.539287}, {"id": 2888142444, "name": "Positano", "amenity": "restaurant", "lat": 47.3775576, "lon": 8.5438988}, {"id": 2888142445, "name": "Bombay Karachi", "amenity": "restaurant", "lat": 47.3793233, "lon": 8.5435476}, {"id": 2888142446, "name": "Commihalle", "amenity": "restaurant", "lat": 47.3777853, "lon": 8.5438498}, {"id": 2888172595, "name": "Santa Lucia Subito", "amenity": "restaurant", "lat": 47.3815179, "lon": 8.5422215}, {"id": 2888173290, "name": "Take Easy Thai Food", "amenity": "fast_food", "lat": 47.3811314, "lon": 8.542114}, {"id": 2904476133, "name": "4Leoni Firenze", "amenity": "restaurant", "lat": 47.3843323, "lon": 8.5302362}, {"id": 2904967414, "name": "Eldorado", "amenity": "bar", "lat": 47.3836636, "lon": 8.5326533}, {"id": 2904973400, "name": "Zam Dapor", "amenity": "restaurant", "lat": 47.3857107, "lon": 8.5420014}, {"id": 2957645174, "name": "Thali Indian Restaurant", "amenity": "restaurant", "lat": 47.390294, "lon": 8.5392273}, {"id": 3103337030, "name": "Al Piattino", "amenity": "cafe", "lat": 47.380794, "lon": 8.5346589}, {"id": 3229980974, "name": "Hottinger", "amenity": "bank", "lat": 47.3770263, "lon": 8.537763}, {"id": 3357441576, "name": "African Queen", "amenity": "restaurant", "lat": 47.3816229, "lon": 8.5421505}, {"id": 3381293318, "name": "SimSim", "amenity": "restaurant", "lat": 47.3878521, "lon": 8.5392302}, {"id": 3381358177, "name": "Konditorei Cafe", "amenity": "cafe", "lat": 47.3882455, "lon": 8.5359339}, {"id": 3387706567, "name": "Bibliothek Erdwissenschaften", "amenity": "library", "lat": 47.3785235, "lon": 8.5473008}, {"id": 3393448593, "name": "franzos", "amenity": "cafe", "lat": 47.3761481, "lon": 8.5438868}, {"id": 3445774681, "name": "Rokabar", "amenity": "bar", "lat": 47.3764466, "lon": 8.5405676}, {"id": 3483379593, "name": "Bubble House", "amenity": "cafe", "lat": 47.3766656, "lon": 8.540727}, {"id": 3537752740, "name": "Cafe Takeaway", "amenity": "cafe", "lat": 47.378856, "lon": 8.5438982}, {"id": 3581829993, "name": "Migros Bank", "amenity": "bank", "lat": 47.3855128, "lon": 8.5315853}, {"id": 3590834039, "name": "Zürcher Kantonalbank", "amenity": "atm", "lat": 47.3776873, "lon": 8.5392743}, {"id": 3590836589, "name": "Postfinance", "amenity": "atm", "lat": 47.3770501, "lon": 8.5403879}, {"id": 3645923201, "name": "Simplon", "amenity": "restaurant", "lat": 47.3766199, "lon": 8.5391331}, {"id": 3646146894, "name": "Insider", "amenity": "restaurant", "lat": 47.3768752, "lon": 8.5384423}, {"id": 3646146895, "name": "Swissquote", "amenity": "bank", "lat": 47.3767332, "lon": 8.5386419}, {"id": 3706789050, "name": "Didi's Frieden", "amenity": "restaurant", "lat": 47.3792128, "lon": 8.5435914}, {"id": 3726134745, "name": "Hanswurst", "amenity": "fast_food", "lat": 47.3840062, "lon": 8.5311406}, {"id": 3751319529, "name": "Burgermeister", "amenity": "restaurant", "lat": 47.384344, "lon": 8.5311512}, {"id": 3781295176, "name": "Marronistand", "amenity": "fast_food", "lat": 47.3771803, "lon": 8.5414903}, {"id": 3824285559, "name": "Postfinance", "amenity": "atm", "lat": 47.378695, "lon": 8.5509173}, {"id": 3875851857, "name": "Hotel Bristol", "amenity": "restaurant", "lat": 47.379626, "lon": 8.5434495}, {"id": 3932278823, "name": "Chiang Mai", "amenity": "restaurant", "lat": 47.3806356, "lon": 8.5336595}, {"id": 3987856802, "name": "Klara's Kitchen", "amenity": "fast_food", "lat": 47.3787999, "lon": 8.5479501}, {"id": 4035680910, "name": "Himalaya", "amenity": "restaurant", "lat": 47.3830864, "lon": 8.5329144}, {"id": 4053473354, "name": "Al Ventotto", "amenity": "restaurant", "lat": 47.3902274, "lon": 8.538794}, {"id": 4193459893, "name": "QQ Sushi", "amenity": "restaurant", "lat": 47.377413, "lon": 8.5439582}, {"id": 4217457104, "name": "Kebi", "amenity": "restaurant", "lat": 47.378683, "lon": 8.5437382}, {"id": 4244051791, "name": "Albanesi", "amenity": "cafe", "lat": 47.3773061, "lon": 8.538363}, {"id": 4256050998, "name": "Auer & Co", "amenity": "cafe", "lat": 47.38478, "lon": 8.5336683}, {"id": 4316896999, "name": "Orient Catering", "amenity": "restaurant", "lat": 47.3789518, "lon": 8.5447211}, {"id": 4406891594, "name": "Wesley's Kitchen", "amenity": "restaurant", "lat": 47.381828, "lon": 8.5326917}, {"id": 4424600893, "name": "San Gennaro", "amenity": "restaurant", "lat": 47.3777733, "lon": 8.5398232}, {"id": 4424600894, "name": "Buffet Express", "amenity": "fast_food", "lat": 47.3779896, "lon": 8.5394493}, {"id": 4424600895, "name": "Bahnhof Apotheke", "amenity": "pharmacy", "lat": 47.3774306, "lon": 8.5400215}, {"id": 4424600896, "name": "Action Burger", "amenity": "fast_food", "lat": 47.377802, "lon": 8.5397165}, {"id": 4424600897, "name": "The Counter", "amenity": "restaurant", "lat": 47.3772197, "lon": 8.5407256}, {"id": 4424600898, "name": "Brasserie Federal", "amenity": "restaurant", "lat": 47.3780227, "lon": 8.5407173}, {"id": 4424600899, "name": "Burger King", "amenity": "fast_food", "lat": 47.3785645, "lon": 8.5397578}, {"id": 4424600900, "name": "Cafe Oscar", "amenity": "cafe", "lat": 47.3778329, "lon": 8.5396019}, {"id": 4424600903, "name": "Da Capo Bar", "amenity": "cafe", "lat": 47.3771949, "lon": 8.5407369}, {"id": 4424600904, "name": "Brasserie Süd", "amenity": "restaurant", "lat": 47.3773153, "lon": 8.5403976}, {"id": 4424600906, "name": "Il Baretto", "amenity": "cafe", "lat": 47.378481, "lon": 8.5397177}, {"id": 4424600919, "name": "Sora Sushi", "amenity": "restaurant", "lat": 47.3775929, "lon": 8.53946}, {"id": 4424654345, "name": "Pret A Manger", "amenity": "cafe", "lat": 47.3787638, "lon": 8.5397898}, {"id": 4424654349, "name": "Burger King", "amenity": "fast_food", "lat": 47.3784804, "lon": 8.5400687}, {"id": 4424654359, "name": "Zopf & Zöpfli", "amenity": "fast_food", "lat": 47.3789067, "lon": 8.5384757}, {"id": 4424654373, "name": "Rice Up!", "amenity": "fast_food", "lat": 47.3781012, "lon": 8.5387997}, {"id": 4424679502, "name": "Blueberry", "amenity": "fast_food", "lat": 47.3781471, "lon": 8.5386585}, {"id": 4424679503, "name": "Hitzberger", "amenity": "fast_food", "lat": 47.3780447, "lon": 8.5390574}, {"id": 4424679508, "name": "Negishi", "amenity": "fast_food", "lat": 47.3780692, "lon": 8.5389287}, {"id": 4424695481, "name": "kookoo", "amenity": "fast_food", "lat": 47.3776115, "lon": 8.5391321}, {"id": 4424939138, "name": "Amavita", "amenity": "pharmacy", "lat": 47.3773328, "lon": 8.5396659}, {"id": 4424939140, "name": "La Piadina", "amenity": "fast_food", "lat": 47.3770886, "lon": 8.5411485}, {"id": 4424939142, "name": "Brezelkönig", "amenity": "fast_food", "lat": 47.3777536, "lon": 8.538123}, {"id": 4424939149, "name": "Il Baretto", "amenity": "cafe", "lat": 47.3770331, "lon": 8.5402146}, {"id": 4424939159, "name": "Suan Long", "amenity": "fast_food", "lat": 47.3769492, "lon": 8.5397067}, {"id": 4424939160, "name": "M-panada", "amenity": "fast_food", "lat": 47.37762, "lon": 8.5387663}, {"id": 4424939163, "name": "UBS", "amenity": "atm", "lat": 47.3775317, "lon": 8.5389162}, {"id": 4424939164, "name": "Züri Bistro", "amenity": "fast_food", "lat": 47.3769816, "lon": 8.5411309}, {"id": 4424939168, "name": "Tchibo", "amenity": "cafe", "lat": 47.3776542, "lon": 8.538495}, {"id": 4496730804, "name": "Super Guud", "amenity": "fast_food", "lat": 47.3792749, "lon": 8.536619}, {"id": 4496731300, "name": "Brezelkönig", "amenity": "fast_food", "lat": 47.3789876, "lon": 8.5364584}, {"id": 4496761389, "name": "Burger King", "amenity": "fast_food", "lat": 47.3795918, "lon": 8.5370962}, {"id": 4554243927, "name": "PostFinance", "amenity": "atm", "lat": 47.379426, "lon": 8.537027}, {"id": 4579719494, "name": "Spitz", "amenity": "restaurant", "lat": 47.3789138, "lon": 8.5409931}, {"id": 4599535995, "name": "Corner 48", "amenity": "restaurant", "lat": 47.3803612, "lon": 8.5424142}, {"id": 4817455055, "name": "Maki Haus", "amenity": "restaurant", "lat": 47.37828, "lon": 8.5437936}, {"id": 4827130172, "name": "Kaimug", "amenity": "fast_food", "lat": 47.3786252, "lon": 8.5402781}, {"id": 4833061522, "name": "Dunkin'", "amenity": "fast_food", "lat": 47.3778169, "lon": 8.5392507}, {"id": 4833061525, "name": "Nordsee", "amenity": "fast_food", "lat": 47.3778032, "lon": 8.5398675}, {"id": 4833061526, "name": "Il Baretto", "amenity": "cafe", "lat": 47.3778169, "lon": 8.5398255}, {"id": 4833061534, "name": "Medbase Apotheke", "amenity": "pharmacy", "lat": 47.3783532, "lon": 8.5396557}, {"id": 4833061536, "name": "Maru", "amenity": "fast_food", "lat": 47.3781269, "lon": 8.5401993}, {"id": 4833061543, "name": "Subway", "amenity": "fast_food", "lat": 47.3786021, "lon": 8.5403751}, {"id": 4833061544, "name": "Starbucks", "amenity": "cafe", "lat": 47.37865, "lon": 8.5401987}, {"id": 4833061545, "name": "Brezelkönig", "amenity": "fast_food", "lat": 47.3786694, "lon": 8.5401179}, {"id": 4833061594, "name": "Le Café", "amenity": "cafe", "lat": 47.3778202, "lon": 8.5399275}, {"id": 4833061595, "name": "Time... Lounge", "amenity": "restaurant", "lat": 47.3777455, "lon": 8.5393944}, {"id": 4833061596, "name": "Rapido", "amenity": "fast_food", "lat": 47.3777337, "lon": 8.5393}, {"id": 4838594367, "name": "Espressino Due", "amenity": "cafe", "lat": 47.3775381, "lon": 8.5391086}, {"id": 4840731929, "name": "Postfinance", "amenity": "atm", "lat": 47.378928, "lon": 8.5388315}, {"id": 4841545849, "name": "Klubschule Migros Limmatplatz", "amenity": "school", "lat": 47.3857517, "lon": 8.531279}, {"id": 4843837956, "name": "Bancomat Raiffeisen", "amenity": "atm", "lat": 47.3782782, "lon": 8.5396772}, {"id": 4843837964, "name": "Wesley's Kitchen", "amenity": "fast_food", "lat": 47.3794641, "lon": 8.5372186}, {"id": 4889986285, "name": "Lobby-Bar Hotel Rütli", "amenity": "bar", "lat": 47.3762011, "lon": 8.5444271}, {"id": 4891858476, "name": "Mensa Institut Minerva", "amenity": "restaurant", "lat": 47.3819656, "lon": 8.5455532}, {"id": 4892249174, "name": "Orient Catering", "amenity": "fast_food", "lat": 47.3789144, "lon": 8.5448353}, {"id": 4963589219, "name": "Klara‘s Kitchen", "amenity": "cafe", "lat": 47.3827596, "lon": 8.5437443}, {"id": 5002825178, "name": "Fachhochschule Graubünden Standort Zürich", "amenity": "university", "lat": 47.380495, "lon": 8.5369878}, {"id": 5119622513, "name": "Pasta Barn", "amenity": "fast_food", "lat": 47.3791284, "lon": 8.5365479}, {"id": 5119622514, "name": "Caffè Spettacolo", "amenity": "cafe", "lat": 47.3787392, "lon": 8.5398986}, {"id": 5363744621, "name": "Panama", "amenity": "bar", "lat": 47.3849765, "lon": 8.5356587}, {"id": 5386900841, "name": "Dieci Pizzakurier", "amenity": "fast_food", "lat": 47.3827555, "lon": 8.5505487}, {"id": 5670095833, "name": "La Soupière", "amenity": "restaurant", "lat": 47.3769342, "lon": 8.5393403}, {"id": 5673051843, "name": "Café Gourmet", "amenity": "cafe", "lat": 47.3769757, "lon": 8.5393361}, {"id": 5938746755, "name": "Curry Corner", "amenity": "fast_food", "lat": 47.3833287, "lon": 8.541864}, {"id": 6070128841, "name": "Parkhaus Stampfenbach", "amenity": "parking", "lat": 47.3864863, "lon": 8.5390689}, {"id": 6205732851, "name": "Con Gusto", "amenity": "fast_food", "lat": 47.3919608, "lon": 8.5390827}, {"id": 6207463870, "name": "Bibliothek des Schweizerischen Instituts für Kinder- und Jugendmedien SIKJM", "amenity": "library", "lat": 47.3845291, "lon": 8.5397558}, {"id": 6574004298, "name": "Vito", "amenity": "fast_food", "lat": 47.3848528, "lon": 8.5322457}, {"id": 6680755386, "name": "Afghan Anar", "amenity": "restaurant", "lat": 47.3840078, "lon": 8.5318712}, {"id": 6765644326, "name": "Stadtkäserei", "amenity": "restaurant", "lat": 47.3802884, "lon": 8.5344583}, {"id": 6769845245, "name": "Zollstrasse 53", "amenity": "parking", "lat": 47.3805348, "lon": 8.533547}, {"id": 6872075030, "name": "Heisswein", "amenity": "restaurant", "lat": 47.3810005, "lon": 8.5353465}, {"id": 6872101830, "name": "Hidmona", "amenity": "bar", "lat": 47.3811384, "lon": 8.5347861}, {"id": 6969551971, "name": "Schigu Kafi", "amenity": "cafe", "lat": 47.3868032, "lon": 8.5363403}, {"id": 6989685409, "name": "Il Baretto", "amenity": "cafe", "lat": 47.3805056, "lon": 8.5341527}, {"id": 7055101045, "name": "Anoah", "amenity": "restaurant", "lat": 47.3848545, "lon": 8.5485426}, {"id": 7070435520, "name": "Natural Bites", "amenity": "cafe", "lat": 47.3803426, "lon": 8.5478344}, {"id": 7204648136, "name": "NA081", "amenity": "restaurant", "lat": 47.3818826, "lon": 8.5334773}, {"id": 7465666136, "name": "Zur Rose", "amenity": "pharmacy", "lat": 47.3855599, "lon": 8.5313722}, {"id": 7540140384, "name": "Nordsee", "amenity": "fast_food", "lat": 47.3769606, "lon": 8.540158}, {"id": 7655574678, "name": "Bistro Spitz", "amenity": "cafe", "lat": 47.3789633, "lon": 8.5409353}, {"id": 7942306421, "name": "Miró", "amenity": "cafe", "lat": 47.3773943, "lon": 8.5402226}, {"id": 8387042153, "name": "n/a", "amenity": "parking", "lat": 47.3805409, "lon": 8.5366477}, {"id": 8486430588, "name": "Dunkin'", "amenity": "fast_food", "lat": 47.3774459, "lon": 8.5400283}, {"id": 8497598414, "name": "ZüriPharm AG", "amenity": "pharmacy", "lat": 47.3783858, "lon": 8.5504388}, {"id": 9277633394, "name": "Oh My Greek!", "amenity": "fast_food", "lat": 47.379737, "lon": 8.5363362}, {"id": 9499319817, "name": "Mohini", "amenity": "restaurant", "lat": 47.3781881, "lon": 8.5441334}, {"id": 9635640296, "name": "Autonome Schule Zürich", "amenity": "school", "lat": 47.3846417, "lon": 8.5339166}, {"id": 9642595626, "name": "Stiftung m.a.c. – Sonderpädagogische Schule", "amenity": "school", "lat": 47.3854719, "lon": 8.5419658}, {"id": 9682468631, "name": "Dayschool Beckenhof", "amenity": "school", "lat": 47.3834916, "lon": 8.5413134}, {"id": 9694602779, "name": "Gesamtschule Unterstrass", "amenity": "school", "lat": 47.3925273, "lon": 8.5362781}, {"id": 9697408396, "name": "FfD Fachschule für Detailhandel", "amenity": "school", "lat": 47.3774632, "lon": 8.5440328}, {"id": 9697845464, "name": "Schule Minerva Zürich", "amenity": "school", "lat": 47.3818918, "lon": 8.5455529}, {"id": 9717546279, "name": "Neue Schule Zürich", "amenity": "school", "lat": 47.3835082, "lon": 8.5475639}, {"id": 9718122719, "name": "Lernatelier Tandem", "amenity": "school", "lat": 47.3805547, "lon": 8.5516899}, {"id": 9719866404, "name": "Schule Talenta Zürich", "amenity": "school", "lat": 47.3858578, "lon": 8.5418353}, {"id": 9726635896, "name": "Sekundarschule am Rigiplatz", "amenity": "school", "lat": 47.3858674, "lon": 8.5463793}, {"id": 10078000117, "name": "Tiny Fish", "amenity": "fast_food", "lat": 47.3784125, "lon": 8.5478096}, {"id": 10158245332, "name": "Museumscafé", "amenity": "restaurant", "lat": 47.3827433, "lon": 8.5357837}, {"id": 10578946341, "name": "Café Elena", "amenity": "cafe", "lat": 47.3781048, "lon": 8.5430318}, {"id": 10650748517, "name": "Café Bar Meierei", "amenity": "cafe", "lat": 47.3822549, "lon": 8.550719}, {"id": 10654227179, "name": "Restaurant Leonhard", "amenity": "restaurant", "lat": 47.3772897, "lon": 8.5459039}, {"id": 10831702421, "name": "DaPizi", "amenity": "restaurant", "lat": 47.3812322, "lon": 8.5331802}, {"id": 10860757271, "name": "Orient World", "amenity": "restaurant", "lat": 47.3788419, "lon": 8.545135}, {"id": 10893221699, "name": "Blooming Juice", "amenity": "fast_food", "lat": 47.3914598, "lon": 8.539107}, {"id": 10896827512, "name": "Sapa Canteen", "amenity": "restaurant", "lat": 47.3800211, "lon": 8.5422229}, {"id": 10949082348, "name": "differente", "amenity": "restaurant", "lat": 47.3881157, "lon": 8.5390656}, {"id": 10995816514, "name": "mi-te", "amenity": "restaurant", "lat": 47.3791998, "lon": 8.5479282}, {"id": 10995816516, "name": "Mesa Madrid", "amenity": "restaurant", "lat": 47.3833749, "lon": 8.5431961}, {"id": 11227223686, "name": "Bistro Pinto Take Away", "amenity": "restaurant", "lat": 47.3872577, "lon": 8.540021}, {"id": 11399918909, "name": "Da Marco", "amenity": "fast_food", "lat": 47.3844835, "lon": 8.5322947}, {"id": 11416682178, "name": "Yardbird", "amenity": "fast_food", "lat": 47.3774579, "lon": 8.5409554}, {"id": 11673717382, "name": "Bimbi's Take Away", "amenity": "restaurant", "lat": 47.3825112, "lon": 8.5414846}, {"id": 11778835755, "name": "Burger Boutique", "amenity": "fast_food", "lat": 47.3841513, "lon": 8.5481184}, {"id": 11800118612, "name": "betterview", "amenity": "clinic", "lat": 47.3768034, "lon": 8.5412212}, {"id": 11956514145, "name": "3 Sushi Momo", "amenity": "fast_food", "lat": 47.3839455, "lon": 8.5307226}, {"id": 11999562546, "name": "fink's", "amenity": "restaurant", "lat": 47.3817769, "lon": 8.5339618}, {"id": 12090984377, "name": "Edi", "amenity": "restaurant", "lat": 47.3886532, "lon": 8.5392721}, {"id": 12117995033, "name": "Lernstudio", "amenity": "school", "lat": 47.3819111, "lon": 8.5456909}, {"id": 12250681350, "name": "Bity Crypto ATM", "amenity": "atm", "lat": 47.3774466, "lon": 8.5385091}, {"id": 12250717975, "name": "Värdex Crypto ATM", "amenity": "atm", "lat": 47.3842118, "lon": 8.5310402}, {"id": 12307882205, "name": "n/a", "amenity": "parking", "lat": 47.3893458, "lon": 8.5348668}, {"id": 12662402629, "name": "MRI Bahnhofplatz", "amenity": "clinic", "lat": 47.3765927, "lon": 8.5407672}]}
{"address": "Niklaus Konrad-Strasse 4, 4500 Solothurn", "price": 2880, "property_id": 4002053936, "area": "115m²", "rooms": 4.5, "lat": 47.204513902108786, "lon": 7.539104019684887, "isochrone": {"features": [{"properties": {"fill-opacity": 0.33, "fillColor": "#bf4040", "opacity": 0.33, "fill": "#bf4040", "fillOpacity": 0.33, "color": "#bf4040", "contour": 15, "metric": "time"}, "geometry": {"coordinates": [[[7.541104, 47.212589], [7.540104, 47.213103], [7.537685, 47.211933], [7.536104, 47.209342], [7.532104, 47.209107], [7.531415, 47.208203], [7.530104, 47.207931], [7.529104, 47.20877], [7.525762, 47.208514], [7.527104, 47.206259], [7.529104, 47.206152], [7.530104, 47.204916], [7.531104, 47.205849], [7.532276, 47.204342], [7.532104, 47.203821], [7.531104, 47.203601], [7.530104, 47.202711], [7.528104, 47.20273], [7.527253, 47.202365], [7.526632, 47.199514], [7.528397, 47.198514], [7.527071, 47.197481], [7.531, 47.19641], [7.534104, 47.197713], [7.534425, 47.196193], [7.533854, 47.195514], [7.535104, 47.195077], [7.536368, 47.19625], [7.538104, 47.196553], [7.539104, 47.197479], [7.542032, 47.197442], [7.543104, 47.198237], [7.545104, 47.197024], [7.546104, 47.197401], [7.547104, 47.197031], [7.548104, 47.198776], [7.550179, 47.198439], [7.551259, 47.199514], [7.551322, 47.200514], [7.553327, 47.202291], [7.55428, 47.202514], [7.552677, 47.204087], [7.552924, 47.204514], [7.555887, 47.205514], [7.555423, 47.206833], [7.553732, 47.207142], [7.552104, 47.20934], [7.550104, 47.209981], [7.549391, 47.209227], [7.548853, 47.209263], [7.548581, 47.211991], [7.541104, 47.212589]]], "type": "Polygon"}, "type": "Feature"}], "type": "FeatureCollection"}, "amenities": [{"id": 292225874, "name": "UBS", "amenity": "atm", "lat": 47.2048431, "lon": 7.5407604}, {"id": 301667716, "name": "Restaurant Sternen", "amenity": "restaurant", "lat": 47.2121965, "lon": 7.5449478}, {"id": 301668363, "name": "Efem Imbiss & Café", "amenity": "fast_food", "lat": 47.2046306, "lon": 7.5405994}, {"id": 301764729, "name": "Vorstadt Bistro", "amenity": "cafe", "lat": 47.2048838, "lon": 7.5408996}, {"id": 301764730, "name": "Medbase Apotheke Solothurn", "amenity": "pharmacy", "lat": 47.2051064, "lon": 7.5405056}, {"id": 302828546, "name": "Caffè Spettacolo", "amenity": "cafe", "lat": 47.2042463, "lon": 7.54277}, {"id": 302828561, "name": "Suteria", "amenity": "cafe", "lat": 47.2081063, "lon": 7.5381924}, {"id": 302828563, "name": "TopPharm Hirsch Apotheke", "amenity": "pharmacy", "lat": 47.207909, "lon": 7.5374217}, {"id": 302828572, "name": "Kaffehalle", "amenity": "cafe", "lat": 47.2081276, "lon": 7.5355274}, {"id": 415415009, "name": "Roter Turm", "amenity": "restaurant", "lat": 47.2074597, "lon": 7.5368962}, {"id": 830588129, "name": "Akropolis", "amenity": "restaurant", "lat": 47.2048882, "lon": 7.5389356}, {"id": 833710708, "name": "Die Grüne Fee", "amenity": "bar", "lat": 47.2074594, "lon": 7.5387601}, {"id": 939041589, "name": "Solo Imbiss", "amenity": "fast_food", "lat": 47.2048779, "lon": 7.5368448}, {"id": 939041596, "name": "Trattoria Napoli", "amenity": "restaurant", "lat": 47.2045375, "lon": 7.5362046}, {"id": 939041599, "name": "Notausgang", "amenity": "restaurant", "lat": 47.2044483, "lon": 7.5363896}, {"id": 939041612, "name": "The Dock", "amenity": "bar", "lat": 47.2051717, "lon": 7.5361348}, {"id": 939041616, "name": "Adler", "amenity": "restaurant", "lat": 47.2047763, "lon": 7.5361643}, {"id": 939041620, "name": "Altes Spital", "amenity": "restaurant", "lat": 47.2048314, "lon": 7.5354098}, {"id": 939041621, "name": "Sonne", "amenity": "restaurant", "lat": 47.2047854, "lon": 7.5363896}, {"id": 939041623, "name": "Vini-Al Grappolo", "amenity": "restaurant", "lat": 47.2049778, "lon": 7.5368094}, {"id": 939041634, "name": "Steinbock", "amenity": "pub", "lat": 47.2046387, "lon": 7.5379426}, {"id": 939041645, "name": "Fragale", "amenity": "restaurant", "lat": 47.2046861, "lon": 7.5375537}, {"id": 939041649, "name": "Fu-Lin", "amenity": "restaurant", "lat": 47.2037603, "lon": 7.5390531}, {"id": 939048277, "name": "Fryhof Bistro", "amenity": "pub", "lat": 47.2072632, "lon": 7.5350978}, {"id": 939048278, "name": "Du Commerce", "amenity": "restaurant", "lat": 47.2070915, "lon": 7.5352809}, {"id": 939048279, "name": "Locanda", "amenity": "restaurant", "lat": 47.2073702, "lon": 7.5359649}, {"id": 939048282, "name": "Zum Türk", "amenity": "bar", "lat": 47.2071206, "lon": 7.5367883}, {"id": 939048283, "name": "19th Alley", "amenity": "pub", "lat": 47.2072427, "lon": 7.5385103}, {"id": 939048288, "name": "Zur Grünen Ecke", "amenity": "restaurant", "lat": 47.2064017, "lon": 7.5358999}, {"id": 939048289, "name": "Wengihaus", "amenity": "restaurant", "lat": 47.206512, "lon": 7.5358683}, {"id": 939048290, "name": "Löwen", "amenity": "restaurant", "lat": 47.2069183, "lon": 7.5370136}, {"id": 939048292, "name": "Babylon", "amenity": "fast_food", "lat": 47.2072718, "lon": 7.5368205}, {"id": 939048293, "name": "Trattoria Pizzeria da Daniele", "amenity": "restaurant", "lat": 47.2073374, "lon": 7.5374508}, {"id": 939048295, "name": "Chicken Chaoticum", "amenity": "pub", "lat": 47.2082941, "lon": 7.5347806}, {"id": 939048297, "name": "Zum Stephan", "amenity": "restaurant", "lat": 47.207188, "lon": 7.5355626}, {"id": 939048298, "name": "Zunfthaus zu Wirthen", "amenity": "restaurant", "lat": 47.2075725, "lon": 7.5366033}, {"id": 939048299, "name": "Brasserie Federale", "amenity": "restaurant", "lat": 47.2077, "lon": 7.5367052}, {"id": 1305573211, "name": "McDonald's", "amenity": "fast_food", "lat": 47.2040461, "lon": 7.5415408}, {"id": 1305574961, "name": "Thai Sunshine", "amenity": "restaurant", "lat": 47.2047013, "lon": 7.5364428}, {"id": 1348493919, "name": "Salzhaus", "amenity": "restaurant", "lat": 47.206414, "lon": 7.536623}, {"id": 1348523756, "name": "Kreuz", "amenity": "restaurant", "lat": 47.2067438, "lon": 7.5376825}, {"id": 1348523758, "name": "Steiner", "amenity": "cafe", "lat": 47.2049949, "lon": 7.5407086}, {"id": 1348543899, "name": "Confiserie Hofer", "amenity": "cafe", "lat": 47.2065141, "lon": 7.5351797}, {"id": 1348543900, "name": "Migros Restaurant", "amenity": "restaurant", "lat": 47.2066385, "lon": 7.5334304}, {"id": 1360363823, "name": "Pittaria", "amenity": "fast_food", "lat": 47.2069204, "lon": 7.5379211}, {"id": 1445700155, "name": "n/a", "amenity": "parking", "lat": 47.2037855, "lon": 7.5398567}, {"id": 1612175339, "name": "Solheure", "amenity": "pub", "lat": 47.2070877, "lon": 7.5399342}, {"id": 1711878551, "name": "Kaufmännische Berufsschule", "amenity": "school", "lat": 47.2049253, "lon": 7.5382655}, {"id": 1711923340, "name": "Jägerstübli", "amenity": "restaurant", "lat": 47.2063927, "lon": 7.5354338}, {"id": 1711923342, "name": "NEST", "amenity": "cafe", "lat": 47.206079, "lon": 7.5356996}, {"id": 1711923360, "name": "Gallo Nero", "amenity": "restaurant", "lat": 47.2078324, "lon": 7.5365875}, {"id": 1711992336, "name": "Red John", "amenity": "pub", "lat": 47.2061179, "lon": 7.5358558}, {"id": 1711992359, "name": "Chutz", "amenity": "pub", "lat": 47.2061376, "lon": 7.5359472}, {"id": 1711992362, "name": "Cantina del Vino", "amenity": "bar", "lat": 47.2063339, "lon": 7.5365682}, {"id": 1713911589, "name": "Tavola Calda", "amenity": "fast_food", "lat": 47.2051584, "lon": 7.5409779}, {"id": 1713911594, "name": "Mediterane Leckereien", "amenity": "restaurant", "lat": 47.2064866, "lon": 7.5368386}, {"id": 1713911600, "name": "gassbar", "amenity": "bar", "lat": 47.2069995, "lon": 7.5371538}, {"id": 1715927529, "name": "Cantinetta Bindella", "amenity": "restaurant", "lat": 47.2073052, "lon": 7.5397437}, {"id": 1715927538, "name": "Amun Take-Away", "amenity": "fast_food", "lat": 47.2049508, "lon": 7.540494}, {"id": 1820083459, "name": "n/a", "amenity": "atm", "lat": 47.2083247, "lon": 7.5349187}, {"id": 1825231595, "name": "Kulturm", "amenity": "bar", "lat": 47.208557, "lon": 7.534694}, {"id": 1825232428, "name": "Jonny's Grill Bistro Bar", "amenity": "restaurant", "lat": 47.208657, "lon": 7.53491}, {"id": 1825234424, "name": "Barterre", "amenity": "bar", "lat": 47.208584, "lon": 7.535309}, {"id": 1831316797, "name": "Il Ponte del Sole", "amenity": "restaurant", "lat": 47.2049206, "lon": 7.5360605}, {"id": 1832954732, "name": "Berner Kantonalbank", "amenity": "bank", "lat": 47.2080958, "lon": 7.5356377}, {"id": 1833002623, "name": "Bank Cler", "amenity": "bank", "lat": 47.2072922, "lon": 7.5324641}, {"id": 2009081375, "name": "Raiffeisenbank Weissenstein", "amenity": "bank", "lat": 47.2082195, "lon": 7.5383002}, {"id": 2011278142, "name": "Barock Cafe", "amenity": "cafe", "lat": 47.2061416, "lon": 7.5361578}, {"id": 2336933387, "name": "Manora", "amenity": "restaurant", "lat": 47.2084144, "lon": 7.536277}, {"id": 2405737636, "name": "Postfinance", "amenity": "atm", "lat": 47.2079031, "lon": 7.5388512}, {"id": 2411862641, "name": "Hofer", "amenity": "cafe", "lat": 47.2080686, "lon": 7.5361749}, {"id": 2419808448, "name": "Gemeindebibliothek", "amenity": "library", "lat": 47.2027788, "lon": 7.5530885}, {"id": 2670017043, "name": "Hafebar", "amenity": "bar", "lat": 47.2056468, "lon": 7.5384611}, {"id": 2875320103, "name": "Il Peperoncino", "amenity": "restaurant", "lat": 47.2026083, "lon": 7.5468779}, {"id": 2992832602, "name": "Kaiser Wannee Thai", "amenity": "restaurant", "lat": 47.2074394, "lon": 7.5331005}, {"id": 3001196005, "name": "West Café", "amenity": "cafe", "lat": 47.2071334, "lon": 7.5322394}, {"id": 3077030019, "name": "Subway", "amenity": "fast_food", "lat": 47.2041251, "lon": 7.5416014}, {"id": 3077108372, "name": "Bieltor", "amenity": "parking", "lat": 47.2082027, "lon": 7.5344142}, {"id": 3294202313, "name": "Flora mini Beiz", "amenity": "restaurant", "lat": 47.2085584, "lon": 7.5364103}, {"id": 3294299949, "name": "Ambassador-Apotheke", "amenity": "pharmacy", "lat": 47.2073036, "lon": 7.5330791}, {"id": 3294299950, "name": "Confiserie Hofer", "amenity": "cafe", "lat": 47.2070057, "lon": 7.5329616}, {"id": 3294299951, "name": "Salento 11", "amenity": "restaurant", "lat": 47.206692, "lon": 7.5340197}, {"id": 3294299952, "name": "Sabsin's", "amenity": "fast_food", "lat": 47.206816, "lon": 7.5338192}, {"id": 3466147499, "name": "Migros Bank", "amenity": "bank", "lat": 47.2078919, "lon": 7.5372432}, {"id": 3466147503, "name": "lerns - Die Tagesschule", "amenity": "school", "lat": 47.2079556, "lon": 7.5374102}, {"id": 3473937432, "name": "McCafé", "amenity": "cafe", "lat": 47.2040292, "lon": 7.5416204}, {"id": 3519797888, "name": "Burristurm", "amenity": "restaurant", "lat": 47.2083494, "lon": 7.5347929}, {"id": 3519879172, "name": "n/a", "amenity": "atm", "lat": 47.2081971, "lon": 7.5383554}, {"id": 3585446195, "name": "U-Boot Stadtgrill", "amenity": "fast_food", "lat": 47.2083257, "lon": 7.5367629}, {"id": 3699461285, "name": "Pasha food", "amenity": "fast_food", "lat": 47.2084523, "lon": 7.5369045}, {"id": 3999473250, "name": "Chocola", "amenity": "cafe", "lat": 47.2070269, "lon": 7.5369052}, {"id": 3999541458, "name": "Thung Thong", "amenity": "restaurant", "lat": 47.2047057, "lon": 7.537415}, {"id": 4124143098, "name": "così Ristorante & Pizzeria", "amenity": "restaurant", "lat": 47.2047969, "lon": 7.5370633}, {"id": 4147259808, "name": "eifach", "amenity": "bar", "lat": 47.2071524, "lon": 7.5354488}, {"id": 4147259816, "name": "Mega Imbiss", "amenity": "fast_food", "lat": 47.2075071, "lon": 7.5387218}, {"id": 4147259821, "name": "n/a", "amenity": "atm", "lat": 47.2072691, "lon": 7.5364477}, {"id": 4147259823, "name": "Stadtcafé", "amenity": "cafe", "lat": 47.2078832, "lon": 7.5371486}, {"id": 4147259824, "name": "safran", "amenity": "restaurant", "lat": 47.2083582, "lon": 7.5330846}, {"id": 4147284551, "name": "UBS", "amenity": "bank", "lat": 47.2077551, "lon": 7.534313}, {"id": 4161285894, "name": "Aarebar", "amenity": "restaurant", "lat": 47.2064496, "lon": 7.536719}, {"id": 4161741461, "name": "Restaurant Thai Shop", "amenity": "restaurant", "lat": 47.2046512, "lon": 7.5355642}, {"id": 4248118390, "name": "The Shipyard's", "amenity": "pub", "lat": 47.2068945, "lon": 7.5375565}, {"id": 4266767138, "name": "Zum Chregu", "amenity": "restaurant", "lat": 47.2048129, "lon": 7.5358067}, {"id": 4266767142, "name": "Stalden", "amenity": "restaurant", "lat": 47.2067493, "lon": 7.535054}, {"id": 4266767477, "name": "Gelateria Italia", "amenity": "cafe", "lat": 47.2063547, "lon": 7.5334649}, {"id": 4266842689, "name": "Café Bar Landhaus", "amenity": "cafe", "lat": 47.2061982, "lon": 7.5363223}, {"id": 4266842690, "name": "Il Bar", "amenity": "cafe", "lat": 47.2062499, "lon": 7.536452}, {"id": 4273064056, "name": "H4", "amenity": "restaurant", "lat": 47.2058565, "lon": 7.5416093}, {"id": 4318161034, "name": "Stadtrösterei", "amenity": "cafe", "lat": 47.2049559, "lon": 7.5414198}, {"id": 4322755552, "name": "Nonna Rosetta", "amenity": "restaurant", "lat": 47.2044825, "lon": 7.535911}, {"id": 4442375495, "name": "regiobank", "amenity": "bank", "lat": 47.2078348, "lon": 7.5332331}, {"id": 4809922536, "name": "Pizzeria", "amenity": "restaurant", "lat": 47.2016825, "lon": 7.529064}, {"id": 4987035195, "name": "bistro 9", "amenity": "restaurant", "lat": 47.1997461, "lon": 7.5385738}, {"id": 4987035196, "name": "n/a", "amenity": "restaurant", "lat": 47.1997673, "lon": 7.5402545}, {"id": 4987092811, "name": "La Couronne", "amenity": "restaurant", "lat": 47.2078934, "lon": 7.5385137}, {"id": 5536034940, "name": "Baseltor", "amenity": "restaurant", "lat": 47.2086202, "lon": 7.5393286}, {"id": 5536087902, "name": "Apple's", "amenity": "fast_food", "lat": 47.2083132, "lon": 7.536903}, {"id": 5536114601, "name": "Lüthy Buchcafé", "amenity": "cafe", "lat": 47.2079602, "lon": 7.535633}, {"id": 5629903675, "name": "Fryhof Lounge", "amenity": "bar", "lat": 47.2072973, "lon": 7.5351117}, {"id": 5785960651, "name": "n/a", "amenity": "atm", "lat": 47.2042566, "lon": 7.5387939}, {"id": 5786694127, "name": "Argileh", "amenity": "bar", "lat": 47.2046631, "lon": 7.5376706}, {"id": 5786802178, "name": "Credit Suisse", "amenity": "bank", "lat": 47.2064849, "lon": 7.5344414}, {"id": 5824700234, "name": "Baloise Bank SoBa", "amenity": "bank", "lat": 47.208886, "lon": 7.5338666}, {"id": 6343197763, "name": "Bibliomedia", "amenity": "library", "lat": 47.2081517, "lon": 7.5422953}, {"id": 6808065180, "name": "Baloise Bank SoBa", "amenity": "atm", "lat": 47.2082554, "lon": 7.5340769}, {"id": 6898797928, "name": "Extraball", "amenity": "restaurant", "lat": 47.2062195, "lon": 7.5301248}, {"id": 7298442702, "name": "n/a", "amenity": "atm", "lat": 47.2042644, "lon": 7.5422564}, {"id": 7574936353, "name": "Valiant", "amenity": "bank", "lat": 47.2117755, "lon": 7.5389663}, {"id": 7796754765, "name": "Flamme", "amenity": "fast_food", "lat": 47.2069028, "lon": 7.5372538}, {"id": 8149202110, "name": "n/a", "amenity": "parking", "lat": 47.1980848, "lon": 7.5444719}, {"id": 8237483378, "name": "Santas Oase", "amenity": "bar", "lat": 47.2061414, "lon": 7.5354487}, {"id": 8599900790, "name": "Happy End", "amenity": "bar", "lat": 47.2067574, "lon": 7.5339137}, {"id": 9363591360, "name": "n/a", "amenity": "fast_food", "lat": 47.2080937, "lon": 7.534725}, {"id": 9379748446, "name": "Panini Bar", "amenity": "fast_food", "lat": 47.2063648, "lon": 7.5352939}, {"id": 9526797654, "name": "n/a", "amenity": "fast_food", "lat": 47.2045897, "lon": 7.541447}, {"id": 9775359202, "name": "Weinstüberl & Weinverkauf", "amenity": "bar", "lat": 47.2053474, "lon": 7.5367652}, {"id": 10100509940, "name": "Oskar & Luise", "amenity": "restaurant", "lat": 47.2072569, "lon": 7.5357748}, {"id": 10795036094, "name": "Taverna Amphorea", "amenity": "restaurant", "lat": 47.2069614, "lon": 7.5349993}, {"id": 10893067316, "name": "Pfefferkorn", "amenity": "restaurant", "lat": 47.208274, "lon": 7.5378613}, {"id": 10961908105, "name": "n/a", "amenity": "fast_food", "lat": 47.2083162, "lon": 7.5369151}, {"id": 10979316428, "name": "n/a", "amenity": "atm", "lat": 47.206922, "lon": 7.532515}, {"id": 11017903309, "name": "one", "amenity": "bar", "lat": 47.207156, "lon": 7.5333255}, {"id": 11077590002, "name": "Albert Brötlibar", "amenity": "fast_food", "lat": 47.2067841, "lon": 7.5372086}, {"id": 11387813944, "name": "n/a", "amenity": "parking", "lat": 47.1998299, "lon": 7.5320215}, {"id": 11844909931, "name": "Memo", "amenity": "fast_food", "lat": 47.2032608, "lon": 7.543415}, {"id": 12112631558, "name": "Solo Fresh & fast Crispy Chicken", "amenity": "restaurant", "lat": 47.2041652, "lon": 7.5388339}, {"id": 12613405657, "name": "Le Restaurant", "amenity": "restaurant", "lat": 47.2079783, "lon": 7.5385136}]}
{"address": "Hölzliweg 9, 8405 Winterthur", "price": 2880, "property_id": 4002014835, "area": "115m²", "rooms": 4.5, "lat": 47.4859972, "lon": 8.77093975, "isochrone": {"features": [{"properties": {"fill-opacity": 0.33, "fillColor": "#bf4040", "opacity": 0.33, "fill": "#bf4040", "fillOpacity": 0.33, "color": "#bf4040", "contour": 15, "metric": "time"}, "geometry": {"coordinates": [[[8.76494, 47.495717], [8.763282, 47.495655], [8.76294, 47.493489], [8.76194, 47.493583], [8.76094, 47.493019], [8.75994, 47.493178], [8.75864, 47.492297], [8.758679, 47.489997], [8.755493, 47.486997], [8.75594, 47.485562], [8.757014, 47.484997], [8.755985, 47.483997], [8.75782, 47.482997], [8.75794, 47.481524], [8.760654, 47.479997], [8.76294, 47.479536], [8.76394, 47.478607], [8.767007, 47.478065], [8.76794, 47.476989], [8.76994, 47.476671], [8.77094, 47.47707], [8.771368, 47.476426], [8.77394, 47.475669], [8.776363, 47.476997], [8.777215, 47.478722], [8.777151, 47.482997], [8.777924, 47.483997], [8.77653, 47.484997], [8.776164, 47.485997], [8.776188, 47.488997], [8.773925, 47.489997], [8.774209, 47.490997], [8.77294, 47.4924], [8.770965, 47.493022], [8.76994, 47.492713], [8.76894, 47.493224], [8.76844, 47.492497], [8.767453, 47.49251], [8.76676, 47.492997], [8.76649, 47.494547], [8.765657, 47.494715], [8.76494, 47.495717]]], "type": "Polygon"}, "type": "Feature"}], "type": "FeatureCollection"}, "amenities": [{"id": 277746978, "name": "Kafi Ass", "amenity": "restaurant", "lat": 47.4924964, "lon": 8.761252}, {"id": 632149361, "name": "Rössli", "amenity": "restaurant", "lat": 47.4822412, "lon": 8.7612677}, {"id": 651516563, "name": "Zürcher Kantonalbank", "amenity": "bank", "lat": 47.4844208, "lon": 8.7598959}, {"id": 1328945978, "name": "Amavita", "amenity": "pharmacy", "lat": 47.4851087, "lon": 8.7623802}, {"id": 1328945988, "name": "Mare et Monti", "amenity": "restaurant", "lat": 47.4849589, "lon": 8.7629776}, {"id": 1500785669, "name": "Shopping Seen", "amenity": "parking", "lat": 47.4847208, "lon": 8.7632508}, {"id": 1519474203, "name": "Migros Restaurant", "amenity": "restaurant", "lat": 47.4853872, "lon": 8.7627865}, {"id": 2058933113, "name": "n/a", "amenity": "parking", "lat": 47.4833928, "lon": 8.7601269}, {"id": 2457539648, "name": "Restaurant Kafi Burehus", "amenity": "restaurant", "lat": 47.4866133, "lon": 8.7594559}, {"id": 4095400162, "name": "Café Restaurant Urban", "amenity": "cafe", "lat": 47.4882213, "lon": 8.7590845}, {"id": 4350890743, "name": "Café Mélange", "amenity": "cafe", "lat": 47.4843034, "lon": 8.7641677}, {"id": 4395329792, "name": "Take Away Seen", "amenity": "fast_food", "lat": 47.4837102, "lon": 8.7606874}, {"id": 4395329797, "name": "Jimmy’s Bar", "amenity": "bar", "lat": 47.483154, "lon": 8.7609805}, {"id": 4395329798, "name": "Krone Pub", "amenity": "pub", "lat": 47.483071, "lon": 8.7610753}, {"id": 5380764624, "name": "Erb", "amenity": "cafe", "lat": 47.4858482, "lon": 8.7631807}, {"id": 5770385050, "name": "Seen Pizza - Kebab", "amenity": "fast_food", "lat": 47.4844248, "lon": 8.7628281}, {"id": 6610954916, "name": "n/a", "amenity": "parking", "lat": 47.4828941, "lon": 8.7621569}, {"id": 7817745786, "name": "Zentrum Eule", "amenity": "school", "lat": 47.4870042, "lon": 8.7647046}, {"id": 9565727837, "name": "Himmellounge", "amenity": "bar", "lat": 47.4927172, "lon": 8.7621295}, {"id": 11200227327, "name": "n/a", "amenity": "atm", "lat": 47.4850289, "lon": 8.7631583}, {"id": 12546601315, "name": "Post Apotheke", "amenity": "pharmacy", "lat": 47.4854996, "lon": 8.764709}, {"id": 12546601316, "name": "Top 1", "amenity": "restaurant", "lat": 47.4837338, "lon": 8.7601794}, {"id": 12583268649, "name": "Ginger Haus", "amenity": "restaurant", "lat": 47.4842096, "lon": 8.7597043}]}
{"address": "Weidmannstrasse 13, 8046 Zürich", "price": 2880, "property_id": 4001972648, "area": "115m²", "rooms": 4.5, "lat": 47.42325975, "lon": 8.502611041329322, "isochrone": {"features": [{"properties": {"fill-opacity": 0.33, "fillColor": "#bf4040", "opacity": 0.33, "fill": "#bf4040", "fillOpacity": 0.33, "color": "#bf4040", "contour": 15, "metric": "time"}, "geometry": {"coordinates": [[[8.506611, 47.431783], [8.505611, 47.432053], [8.504995, 47.430876], [8.503302, 47.430951], [8.502611, 47.43173], [8.501716, 47.430155], [8.500425, 47.429446], [8.501611, 47.428839], [8.501611, 47.428075], [8.499442, 47.42826], [8.499408, 47.429462], [8.500037, 47.43026], [8.499611, 47.431146], [8.497611, 47.430024], [8.496611, 47.430858], [8.49517, 47.430701], [8.493611, 47.428936], [8.491611, 47.428736], [8.489611, 47.429384], [8.488534, 47.429337], [8.488604, 47.42726], [8.487958, 47.42626], [8.4901, 47.425749], [8.490249, 47.424622], [8.488716, 47.42326], [8.490611, 47.422443], [8.491572, 47.42126], [8.492611, 47.421593], [8.495611, 47.421409], [8.495966, 47.420615], [8.497702, 47.420351], [8.496611, 47.418154], [8.500707, 47.418356], [8.500611, 47.41661], [8.501611, 47.416648], [8.502611, 47.415791], [8.504611, 47.416437], [8.506611, 47.41563], [8.510611, 47.415716], [8.514847, 47.417024], [8.515606, 47.41926], [8.515224, 47.420647], [8.515903, 47.42226], [8.517238, 47.42326], [8.517129, 47.423777], [8.515921, 47.42657], [8.514285, 47.42726], [8.515696, 47.42826], [8.514752, 47.429401], [8.512419, 47.430452], [8.511719, 47.43026], [8.511937, 47.42926], [8.510738, 47.428133], [8.509611, 47.428088], [8.509069, 47.430718], [8.508611, 47.430835], [8.507611, 47.430041], [8.506611, 47.431783]]], "type": "Polygon"}, "type": "Feature"}], "type": "FeatureCollection"}, "amenities": [{"id": 256437327, "name": "Waldhaus Katzensee", "amenity": "restaurant", "lat": 47.4292515, "lon": 8.4893752}, {"id": 315314715, "name": "My Kebab", "amenity": "fast_food", "lat": 47.4210295, "lon": 8.501703}, {"id": 315559019, "name": "Postfinance", "amenity": "atm", "lat": 47.419347, "lon": 8.5078018}, {"id": 317005198, "name": "CS Bancomat", "amenity": "atm", "lat": 47.4197551, "lon": 8.5079146}, {"id": 317005817, "name": "Migros Restaurant", "amenity": "restaurant", "lat": 47.420226, "lon": 8.5085756}, {"id": 317005851, "name": "Treff", "amenity": "fast_food", "lat": 47.4200404, "lon": 8.5085041}, {"id": 765769912, "name": "Medbase Apotheke Zehntenhaus", "amenity": "pharmacy", "lat": 47.4193712, "lon": 8.5067513}, {"id": 1102461658, "name": "Einkaufscenter ZH Affoltern", "amenity": "parking", "lat": 47.4206623, "lon": 8.5080402}, {"id": 1975523704, "name": "Wirtschaft Unterdorf", "amenity": "restaurant", "lat": 47.4262082, "lon": 8.5054134}, {"id": 2133810173, "name": "KuBaA", "amenity": "bar", "lat": 47.4215582, "lon": 8.5058913}, {"id": 2663342789, "name": "Restaurant Büsi", "amenity": "restaurant", "lat": 47.4270313, "lon": 8.5102272}, {"id": 3725379463, "name": "Pizzeria Piazza", "amenity": "restaurant", "lat": 47.4194454, "lon": 8.5060346}, {"id": 3725397475, "name": "Ristorante Pizzeria da Enzo", "amenity": "restaurant", "lat": 47.4184517, "lon": 8.5058744}, {"id": 3725402887, "name": "Hachi Sushi", "amenity": "restaurant", "lat": 47.4193443, "lon": 8.5069373}, {"id": 3725780317, "name": "Zähnte Kafi", "amenity": "cafe", "lat": 47.4197973, "lon": 8.5067754}, {"id": 3729613512, "name": "Restaurant Spice Garden", "amenity": "restaurant", "lat": 47.4193772, "lon": 8.5062829}, {"id": 3782913102, "name": "n/a", "amenity": "parking", "lat": 47.420667, "lon": 8.5075365}, {"id": 4472523737, "name": "PBZ Bibliothek Affoltern", "amenity": "library", "lat": 47.4245881, "lon": 8.5109267}, {"id": 4838594381, "name": "Dropa Affoltern", "amenity": "pharmacy", "lat": 47.420051, "lon": 8.5081901}, {"id": 5174433233, "name": "Kafitreff GZ Affoltern", "amenity": "cafe", "lat": 47.4246154, "lon": 8.5110044}, {"id": 5377673114, "name": "Cinnamon Garden", "amenity": "restaurant", "lat": 47.4192953, "lon": 8.5052369}, {"id": 5377673115, "name": "Bancomat ZKB", "amenity": "atm", "lat": 47.4197363, "lon": 8.5050552}, {"id": 5390216945, "name": "Clubhaus TC Valsana", "amenity": "restaurant", "lat": 47.4235012, "lon": 8.4922155}, {"id": 9726557724, "name": "Privatschule A bis Z", "amenity": "school", "lat": 47.4257179, "lon": 8.5098522}, {"id": 10121414282, "name": "Up2You", "amenity": "fast_food", "lat": 47.419599, "lon": 8.5057955}, {"id": 11523655559, "name": "Da Bella Italia", "amenity": "restaurant", "lat": 47.4232082, "lon": 8.4994145}, {"id": 12059128556, "name": "Serendipity Viet Food", "amenity": "restaurant", "lat": 47.4231318, "lon": 8.499721}, {"id": 12146405973, "name": "Cho Cho Momo", "amenity": "restaurant", "lat": 47.4215944, "lon": 8.501763}, {"id": 12309295616, "name": "n/a", "amenity": "parking", "lat": 47.4191036, "lon": 8.5088216}]}
{"address": "Bavurtga 9 (Altbau), 7402 Bonaduz", "price": 2880, "property_id": 4001756784, "area": "115m²", "rooms": 4.5, "lat": null, "lon": null, "amenities": []}
{"address": "Ahornweg 23, 2542 Pieterlen", "price": 2880, "property_id": 4001669568, "area": "115m²", "rooms": 4.5, "lat": 47.17285930609854, "lon": 7.338240061537902, "isochrone": {"features": [{"properties": {"fill-opacity": 0.33, "fillColor": "#bf4040", "opacity": 0.33, "fill": "#bf4040", "fillOpacity": 0.33, "color": "#bf4040", "contour": 15, "metric": "time"}, "geometry": {"coordinates": [[[7.34424, 47.178103], [7.33924, 47.17858], [7.337254, 47.177845], [7.33024, 47.176967], [7.32724, 47.175789], [7.32624, 47.174461], [7.32524, 47.174776], [7.323991, 47.173859], [7.322829, 47.171859], [7.3243, 47.169859], [7.324789, 47.169408], [7.32624, 47.169182], [7.32724, 47.16836], [7.330297, 47.167916], [7.33157, 47.167189], [7.33324, 47.16709], [7.334113, 47.167987], [7.335152, 47.167859], [7.336446, 47.165859], [7.342424, 47.166675], [7.343719, 47.166338], [7.344456, 47.165643], [7.346663, 47.167437], [7.346045, 47.168859], [7.34711, 47.16999], [7.34924, 47.168584], [7.350043, 47.170057], [7.353306, 47.170793], [7.351198, 47.172859], [7.35402, 47.173859], [7.35024, 47.175502], [7.35008, 47.176699], [7.348744, 47.177364], [7.34424, 47.178103]]], "type": "Polygon"}, "type": "Feature"}], "type": "FeatureCollection"}, "amenities": [{"id": 2232534921, "name": "La Perla", "amenity": "restaurant", "lat": 47.1746758, "lon": 7.336839}, {"id": 2232538072, "name": "Ascot Pub", "amenity": "pub", "lat": 47.1752263, "lon": 7.3382981}, {"id": 8825552294, "name": "n/a", "amenity": "atm", "lat": 47.1746141, "lon": 7.3368858}]}
{"address": "Via Sasso Corbaro 23, 6593 Cadenazzo", "price": 2880, "property_id": 4001668530, "area": "115m²", "rooms": 4.5, "lat": 46.15130057952928, "lon": 8.944419531213565, "isochrone": {"features": [{"properties": {"fill-opacity": 0.33, "fillColor": "#bf4040", "opacity": 0.33, "fill": "#bf4040", "fillOpacity": 0.33, "color": "#bf4040", "contour": 15, "metric": "time"}, "geometry": {"coordinates": [[[8.94742, 46.15941], [8.946175, 46.159545], [8.94542, 46.157072], [8.94342, 46.158462], [8.943056, 46.157301], [8.94142, 46.157124], [8.94104, 46.157921], [8.940165, 46.158301], [8.940233, 46.159301], [8.93842, 46.16013], [8.937888, 46.159301], [8.938583, 46.158137], [8.937156, 46.158037], [8.93642, 46.158523], [8.934952, 46.158301], [8.935034, 46.157301], [8.932206, 46.156514], [8.932594, 46.154126], [8.932172, 46.154053], [8.93142, 46.154841], [8.93042, 46.154669], [8.929842, 46.154301], [8.92982, 46.153301], [8.93242, 46.152603], [8.932554, 46.152166], [8.93142, 46.151014], [8.928981, 46.150301], [8.930647, 46.149301], [8.931173, 46.148301], [8.936609, 46.14749], [8.94342, 46.14739], [8.94642, 46.147732], [8.94742, 46.148393], [8.94942, 46.146666], [8.94973, 46.14699], [8.952583, 46.147137], [8.95442, 46.148936], [8.956624, 46.150096], [8.959702, 46.151018], [8.959751, 46.152301], [8.95842, 46.15235], [8.957174, 46.153301], [8.957875, 46.155301], [8.95642, 46.154881], [8.95542, 46.155768], [8.95463, 46.15509], [8.95342, 46.155062], [8.953147, 46.155573], [8.954401, 46.156301], [8.95242, 46.157042], [8.951922, 46.156798], [8.951627, 46.154301], [8.950336, 46.154217], [8.950156, 46.155037], [8.949271, 46.155301], [8.949247, 46.156473], [8.95142, 46.157019], [8.951914, 46.156806], [8.951971, 46.157301], [8.95095, 46.157831], [8.947237, 46.158118], [8.94742, 46.15941]]], "type": "Polygon"}, "type": "Feature"}], "type": "FeatureCollection"}, "amenities": [{"id": 351962380, "name": "Ristorante Al Ponte", "amenity": "restaurant", "lat": 46.1522025, "lon": 8.9493151}, {"id": 3169247143, "name": "Pharmacia Centrale", "amenity": "pharmacy", "lat": 46.1517314, "lon": 8.9461626}, {"id": 3262076051, "name": "Osteria Centrale", "amenity": "bar", "lat": 46.1506825, "lon": 8.9485094}, {"id": 3262076054, "name": "Bar Chiosco Gazebo", "amenity": "bar", "lat": 46.1523023, "lon": 8.9419857}, {"id": 3263056485, "name": "Raiffeisen", "amenity": "bank", "lat": 46.1518588, "lon": 8.9452132}, {"id": 5573060792, "name": "Pizza chez Boubou", "amenity": "restaurant", "lat": 46.1525202, "lon": 8.9399504}, {"id": 5834057649, "name": "Leilo Bar", "amenity": "pub", "lat": 46.1516511, "lon": 8.9458343}, {"id": 5835336601, "name": "Il Cantuccio", "amenity": "fast_food", "lat": 46.1524371, "lon": 8.9399602}, {"id": 5867564893, "name": "Biblioteca della Scuola Media di Cadenazzo", "amenity": "library", "lat": 46.1510167, "lon": 8.9418564}, {"id": 5926572180, "name": "Biblioteca comunale per ragazzi", "amenity": "library", "lat": 46.1504232, "lon": 8.9507171}, {"id": 10261258727, "name": "Pizzeria Bar CLUB", "amenity": "restaurant", "lat": 46.1507227, "lon": 8.9431726}]}
{"address": "Niklaus Konrad-Strasse 4, 4500 Solothurn", "price": 2880, "property_id": 4002053939, "area": "115m²", "rooms": 4.5, "lat": 47.204513902108786, "lon": 7.539104019684887, "isochrone": {"features": [{"properties": {"fill-opacity": 0.33, "fillColor": "#bf4040", "opacity": 0.33, "fill": "#bf4040", "fillOpacity": 0.33, "color": "#bf4040", "contour": 15, "metric": "time"}, "geometry": {"coordinates": [[[7.541104, 47.212589], [7.540104, 47.213103], [7.537685, 47.211933], [7.536104, 47.209342], [7.532104, 47.209107], [7.531415, 47.208203], [7.530104, 47.207931], [7.529104, 47.20877], [7.525762, 47.208514], [7.527104, 47.206259], [7.529104, 47.206152], [7.530104, 47.204916], [7.531104, 47.205849], [7.532276, 47.204342], [7.532104, 47.203821], [7.531104, 47.203601], [7.530104, 47.202711], [7.528104, 47.20273], [7.527253, 47.202365], [7.526632, 47.199514], [7.528397, 47.198514], [7.527071, 47.197481], [7.531, 47.19641], [7.534104, 47.197713], [7.534425, 47.196193], [7.533854, 47.195514], [7.535104, 47.195077], [7.536368, 47.19625], [7.538104, 47.196553], [7.539104, 47.197479], [7.542032, 47.197442], [7.543104, 47.198237], [7.545104, 47.197024], [7.546104, 47.197401], [7.547104, 47.197031], [7.548104, 47.198776], [7.550179, 47.198439], [7.551259, 47.199514], [7.551322, 47.200514], [7.553327, 47.202291], [7.55428, 47.202514], [7.552677, 47.204087], [7.552924, 47.204514], [7.555887, 47.205514], [7.555423, 47.206833], [7.553732, 47.207142], [7.552104, 47.20934], [7.550104, 47.209981], [7.549391, 47.209227], [7.548853, 47.209263], [7.548581, 47.211991], [7.541104, 47.212589]]], "type": "Polygon"}, "type": "Feature"}], "type": "FeatureCollection"}, "amenities": [{"id": 292225874, "name": "UBS", "amenity": "atm", "lat": 47.2048431, "lon": 7.5407604}, {"id": 301667716, "name": "Restaurant Sternen", "amenity": "restaurant", "lat": 47.2121965, "lon": 7.5449478}, {"id": 301668363, "name": "Efem Imbiss & Café", "amenity": "fast_food", "lat": 47.2046306, "lon": 7.5405994}, {"id": 301764729, "name": "Vorstadt Bistro", "amenity": "cafe", "lat": 47.2048838, "lon": 7.5408996}, {"id": 301764730, "name": "Medbase Apotheke Solothurn", "amenity": "pharmacy", "lat": 47.2051064, "lon": 7.5405056}, {"id": 302828546, "name": "Caffè Spettacolo", "amenity": "cafe", "lat": 47.2042463, "lon": 7.54277}, {"id": 302828561, "name": "Suteria", "amenity": "cafe", "lat": 47.2081063, "lon": 7.5381924}, {"id": 302828563, "name": "TopPharm Hirsch Apotheke", "amenity": "pharmacy", "lat": 47.207909, "lon": 7.5374217}, {"id": 302828572, "name": "Kaffehalle", "amenity": "cafe", "lat": 47.2081276, "lon": 7.5355274}, {"id": 415415009, "name": "Roter Turm", "amenity": "restaurant", "lat": 47.2074597, "lon": 7.5368962}, {"id": 830588129, "name": "Akropolis", "amenity": "restaurant", "lat": 47.2048882, "lon": 7.5389356}, {"id": 833710708, "name": "Die Grüne Fee", "amenity": "bar", "lat": 47.2074594, "lon": 7.5387601}, {"id": 939041589, "name": "Solo Imbiss", "amenity": "fast_food", "lat": 47.2048779, "lon": 7.5368448}, {"id": 939041596, "name": "Trattoria Napoli", "amenity": "restaurant", "lat": 47.2045375, "lon": 7.5362046}, {"id": 939041599, "name": "Notausgang", "amenity": "restaurant", "lat": 47.2044483, "lon": 7.5363896}, {"id": 939041612, "name": "The Dock", "amenity": "bar", "lat": 47.2051717, "lon": 7.5361348}, {"id": 939041616, "name": "Adler", "amenity": "restaurant", "lat": 47.2047763, "lon": 7.5361643}, {"id": 939041620, "name": "Altes Spital", "amenity": "restaurant", "lat": 47.2048314, "lon": 7.5354098}, {"id": 939041621, "name": "Sonne", "amenity": "restaurant", "lat": 47.2047854, "lon": 7.5363896}, {"id": 939041623, "name": "Vini-Al Grappolo", "amenity": "restaurant", "lat": 47.2049778, "lon": 7.5368094}, {"id": 939041634, "name": "Steinbock", "amenity": "pub", "lat": 47.2046387, "lon": 7.5379426}, {"id": 939041645, "name": "Fragale", "amenity": "restaurant", "lat": 47.2046861, "lon": 7.5375537}, {"id": 939041649, "name": "Fu-Lin", "amenity": "restaurant", "lat": 47.2037603, "lon": 7.5390531}, {"id": 939048277, "name": "Fryhof Bistro", "amenity": "pub", "lat": 47.2072632, "lon": 7.5350978}, {"id": 939048278, "name": "Du Commerce", "amenity": "restaurant", "lat": 47.2070915, "lon": 7.5352809}, {"id": 939048279, "name": "Locanda", "amenity": "restaurant", "lat": 47.2073702, "lon": 7.5359649}, {"id": 939048282, "name": "Zum Türk", "amenity": "bar", "lat": 47.2071206, "lon": 7.5367883}, {"id": 939048283, "name": "19th Alley", "amenity": "pub", "lat": 47.2072427, "lon": 7.5385103}, {"id": 939048288, "name": "Zur Grünen Ecke", "amenity": "restaurant", "lat": 47.2064017, "lon": 7.5358999}, {"id": 939048289, "name": "Wengihaus", "amenity": "restaurant", "lat": 47.206512, "lon": 7.5358683}, {"id": 939048290, "name": "Löwen", "amenity": "restaurant", "lat": 47.2069183, "lon": 7.5370136}, {"id": 939048292, "name": "Babylon", "amenity": "fast_food", "lat": 47.2072718, "lon": 7.5368205}, {"id": 939048293, "name": "Trattoria Pizzeria da Daniele", "amenity": "restaurant", "lat": 47.2073374, "lon": 7.5374508}, {"id": 939048295, "name": "Chicken Chaoticum", "amenity": "pub", "lat": 47.2082941, "lon": 7.5347806}, {"id": 939048297, "name": "Zum Stephan", "amenity": "restaurant", "lat": 47.207188, "lon": 7.5355626}, {"id": 939048298, "name": "Zunfthaus zu Wirthen", "amenity": "restaurant", "lat": 47.2075725, "lon": 7.5366033}, {"id": 939048299, "name": "Brasserie Federale", "amenity": "restaurant", "lat": 47.2077, "lon": 7.5367052}, {"id": 1305573211, "name": "McDonald's", "amenity": "fast_food", "lat": 47.2040461, "lon": 7.5415408}, {"id": 1305574961, "name": "Thai Sunshine", "amenity": "restaurant", "lat": 47.2047013, "lon": 7.5364428}, {"id": 1348493919, "name": "Salzhaus", "amenity": "restaurant", "lat": 47.206414, "lon": 7.536623}, {"id": 1348523756, "name": "Kreuz", "amenity": "restaurant", "lat": 47.2067438, "lon": 7.5376825}, {"id": 1348523758, "name": "Steiner", "amenity": "cafe", "lat": 47.2049949, "lon": 7.5407086}, {"id": 1348543899, "name": "Confiserie Hofer", "amenity": "cafe", "lat": 47.2065141, "lon": 7.5351797}, {"id": 1348543900, "name": "Migros Restaurant", "amenity": "restaurant", "lat": 47.2066385, "lon": 7.5334304}, {"id": 1360363823, "name": "Pittaria", "amenity": "fast_food", "lat": 47.2069204, "lon": 7.5379211}, {"id": 1445700155, "name": "n/a", "amenity": "parking", "lat": 47.2037855, "lon": 7.5398567}, {"id": 1612175339, "name": "Solheure", "amenity": "pub", "lat": 47.2070877, "lon": 7.5399342}, {"id": 1711878551, "name": "Kaufmännische Berufsschule", "amenity": "school", "lat": 47.2049253, "lon": 7.5382655}, {"id": 1711923340, "name": "Jägerstübli", "amenity": "restaurant", "lat": 47.2063927, "lon": 7.5354338}, {"id": 1711923342, "name": "NEST", "amenity": "cafe", "lat": 47.206079, "lon": 7.5356996}, {"id": 1711923360, "name": "Gallo Nero", "amenity": "restaurant", "lat": 47.2078324, "lon": 7.5365875}, {"id": 1711992336, "name": "Red John", "amenity": "pub", "lat": 47.2061179, "lon": 7.5358558}, {"id": 1711992359, "name": "Chutz", "amenity": "pub", "lat": 47.2061376, "lon": 7.5359472}, {"id": 1711992362, "name": "Cantina del Vino", "amenity": "bar", "lat": 47.2063339, "lon": 7.5365682}, {"id": 1713911589, "name": "Tavola Calda", "amenity": "fast_food", "lat": 47.2051584, "lon": 7.5409779}, {"id": 1713911594, "name": "Mediterane Leckereien", "amenity": "restaurant", "lat": 47.2064866, "lon": 7.5368386}, {"id": 1713911600, "name": "gassbar", "amenity": "bar", "lat": 47.2069995, "lon": 7.5371538}, {"id": 1715927529, "name": "Cantinetta Bindella", "amenity": "restaurant", "lat": 47.2073052, "lon": 7.5397437}, {"id": 1715927538, "name": "Amun Take-Away", "amenity": "fast_food", "lat": 47.2049508, "lon": 7.540494}, {"id": 1820083459, "name": "n/a", "amenity": "atm", "lat": 47.2083247, "lon": 7.5349187}, {"id": 1825231595, "name": "Kulturm", "amenity": "bar", "lat": 47.208557, "lon": 7.534694}, {"id": 1825232428, "name": "Jonny's Grill Bistro Bar", "amenity": "restaurant", "lat": 47.208657, "lon": 7.53491}, {"id": 1825234424, "name": "Barterre", "amenity": "bar", "lat": 47.208584, "lon": 7.535309}, {"id": 1831316797, "name": "Il Ponte del Sole", "amenity": "restaurant", "lat": 47.2049206, "lon": 7.5360605}, {"id": 1832954732, "name": "Berner Kantonalbank", "amenity": "bank", "lat": 47.2080958, "lon": 7.5356377}, {"id": 1833002623, "name": "Bank Cler", "amenity": "bank", "lat": 47.2072922, "lon": 7.5324641}, {"id": 2009081375, "name": "Raiffeisenbank Weissenstein", "amenity": "bank", "lat": 47.2082195, "lon": 7.5383002}, {"id": 2011278142, "name": "Barock Cafe", "amenity": "cafe", "lat": 47.2061416, "lon": 7.5361578}, {"id": 2336933387, "name": "Manora", "amenity": "restaurant", "lat": 47.2084144, "lon": 7.536277}, {"id": 2405737636, "name": "Postfinance", "amenity": "atm", "lat": 47.2079031, "lon": 7.5388512}, {"id": 2411862641, "name": "Hofer", "amenity": "cafe", "lat": 47.2080686, "lon": 7.5361749}, {"id": 2419808448, "name": "Gemeindebibliothek", "amenity": "library", "lat": 47.2027788, "lon": 7.5530885}, {"id": 2670017043, "name": "Hafebar", "amenity": "bar", "lat": 47.2056468, "lon": 7.5384611}, {"id": 2875320103, "name": "Il Peperoncino", "amenity": "restaurant", "lat": 47.2026083, "lon": 7.5468779}, {"id": 2992832602, "name": "Kaiser Wannee Thai", "amenity": "restaurant", "lat": 47.2074394, "lon": 7.5331005}, {"id": 3001196005, "name": "West Café", "amenity": "cafe", "lat": 47.2071334, "lon": 7.5322394}, {"id": 3077030019, "name": "Subway", "amenity": "fast_food", "lat": 47.2041251, "lon": 7.5416014}, {"id": 3077108372, "name": "Bieltor", "amenity": "parking", "lat": 47.2082027, "lon": 7.5344142}, {"id": 3294202313, "name": "Flora mini Beiz", "amenity": "restaurant", "lat": 47.2085584, "lon": 7.5364103}, {"id": 3294299949, "name": "Ambassador-Apotheke", "amenity": "pharmacy", "lat": 47.2073036, "lon": 7.5330791}, {"id": 3294299950, "name": "Confiserie Hofer", "amenity": "cafe", "lat": 47.2070057, "lon": 7.5329616}, {"id": 3294299951, "name": "Salento 11", "amenity": "restaurant", "lat": 47.206692, "lon": 7.5340197}, {"id": 3294299952, "name": "Sabsin's", "amenity": "fast_food", "lat": 47.206816, "lon": 7.5338192}, {"id": 3466147499, "name": "Migros Bank", "amenity": "bank", "lat": 47.2078919, "lon": 7.5372432}, {"id": 3466147503, "name": "lerns - Die Tagesschule", "amenity": "school", "lat": 47.2079556, "lon": 7.5374102}, {"id": 3473937432, "name": "McCafé", "amenity": "cafe", "lat": 47.2040292, "lon": 7.5416204}, {"id": 3519797888, "name": "Burristurm", "amenity": "restaurant", "lat": 47.2083494, "lon": 7.5347929}, {"id": 3519879172, "name": "n/a", "amenity": "atm", "lat": 47.2081971, "lon": 7.5383554}, {"id": 3585446195, "name": "U-Boot Stadtgrill", "amenity": "fast_food", "lat": 47.2083257, "lon": 7.5367629}, {"id": 3699461285, "name": "Pasha food", "amenity": "fast_food", "lat": 47.2084523, "lon": 7.5369045}, {"id": 3999473250, "name": "Chocola", "amenity": "cafe", "lat": 47.2070269, "lon": 7.5369052}, {"id": 3999541458, "name": "Thung Thong", "amenity": "restaurant", "lat": 47.2047057, "lon": 7.537415}, {"id": 4124143098, "name": "così Ristorante & Pizzeria", "amenity": "restaurant", "lat": 47.2047969, "lon": 7.5370633}, {"id": 4147259808, "name": "eifach", "amenity": "bar", "lat": 47.2071524, "lon": 7.5354488}, {"id": 4147259816, "name": "Mega Imbiss", "amenity": "fast_food", "lat": 47.2075071, "lon": 7.5387218}, {"id": 4147259821, "name": "n/a", "amenity": "atm", "lat": 47.2072691, "lon": 7.5364477}, {"id": 4147259823, "name": "Stadtcafé", "amenity": "cafe", "lat": 47.2078832, "lon": 7.5371486}, {"id": 4147259824, "name": "safran", "amenity": "restaurant", "lat": 47.2083582, "lon": 7.5330846}, {"id": 4147284551, "name": "UBS", "amenity": "bank", "lat": 47.2077551, "lon": 7.534313}, {"id": 4161285894, "name": "Aarebar", "amenity": "restaurant", "lat": 47.2064496, "lon": 7.536719}, {"id": 4161741461, "name": "Restaurant Thai Shop", "amenity": "restaurant", "lat": 47.2046512, "lon": 7.5355642}, {"id": 4248118390, "name": "The Shipyard's", "amenity": "pub", "lat": 47.2068945, "lon": 7.5375565}, {"id": 4266767138, "name": "Zum Chregu", "amenity": "restaurant", "lat": 47.2048129, "lon": 7.5358067}, {"id": 4266767142, "name": "Stalden", "amenity": "restaurant", "lat": 47.2067493, "lon": 7.535054}, {"id": 4266767477, "name": "Gelateria Italia", "amenity": "cafe", "lat": 47.2063547, "lon": 7.5334649}, {"id": 4266842689, "name": "Café Bar Landhaus", "amenity": "cafe", "lat": 47.2061982, "lon": 7.5363223}, {"id": 4266842690, "name": "Il Bar", "amenity": "cafe", "lat": 47.2062499, "lon": 7.536452}, {"id": 4273064056, "name": "H4", "amenity": "restaurant", "lat": 47.2058565, "lon": 7.5416093}, {"id": 4318161034, "name": "Stadtrösterei", "amenity": "cafe", "lat": 47.2049559, "lon": 7.5414198}, {"id": 4322755552, "name": "Nonna Rosetta", "amenity": "restaurant", "lat": 47.2044825, "lon": 7.535911}, {"id": 4442375495, "name": "regiobank", "amenity": "bank", "lat": 47.2078348, "lon": 7.5332331}, {"id": 4809922536, "name": "Pizzeria", "amenity": "restaurant", "lat": 47.2016825, "lon": 7.529064}, {"id": 4987035195, "name": "bistro 9", "amenity": "restaurant", "lat": 47.1997461, "lon": 7.5385738}, {"id": 4987035196, "name": "n/a", "amenity": "restaurant", "lat": 47.1997673, "lon": 7.5402545}, {"id": 4987092811, "name": "La Couronne", "amenity": "restaurant", "lat": 47.2078934, "lon": 7.5385137}, {"id": 5536034940, "name": "Baseltor", "amenity": "restaurant", "lat": 47.2086202, "lon": 7.5393286}, {"id": 5536087902, "name": "Apple's", "amenity": "fast_food", "lat": 47.2083132, "lon": 7.536903}, {"id": 5536114601, "name": "Lüthy Buchcafé", "amenity": "cafe", "lat": 47.2079602, "lon": 7.535633}, {"id": 5629903675, "name": "Fryhof Lounge", "amenity": "bar", "lat": 47.2072973, "lon": 7.5351117}, {"id": 5785960651, "name": "n/a", "amenity": "atm", "lat": 47.2042566, "lon": 7.5387939}, {"id": 5786694127, "name": "Argileh", "amenity": "bar", "lat": 47.2046631, "lon": 7.5376706}, {"id": 5786802178, "name": "Credit Suisse", "amenity": "bank", "lat": 47.2064849, "lon": 7.5344414}, {"id": 5824700234, "name": "Baloise Bank SoBa", "amenity": "bank", "lat": 47.208886, "lon": 7.5338666}, {"id": 6343197763, "name": "Bibliomedia", "amenity": "library", "lat": 47.2081517, "lon": 7.5422953}, {"id": 6808065180, "name": "Baloise Bank SoBa", "amenity": "atm", "lat": 47.2082554, "lon": 7.5340769}, {"id": 6898797928, "name": "Extraball", "amenity": "restaurant", "lat": 47.2062195, "lon": 7.5301248}, {"id": 7298442702, "name": "n/a", "amenity": "atm", "lat": 47.2042644, "lon": 7.5422564}, {"id": 7574936353, "name": "Valiant", "amenity": "bank", "lat": 47.2117755, "lon": 7.5389663}, {"id": 7796754765, "name": "Flamme", "amenity": "fast_food", "lat": 47.2069028, "lon": 7.5372538}, {"id": 8149202110, "name": "n/a", "amenity": "parking", "lat": 47.1980848, "lon": 7.5444719}, {"id": 8237483378, "name": "Santas Oase", "amenity": "bar", "lat": 47.2061414, "lon": 7.5354487}, {"id": 8599900790, "name": "Happy End", "amenity": "bar", "lat": 47.2067574, "lon": 7.5339137}, {"id": 9363591360, "name": "n/a", "amenity": "fast_food", "lat": 47.2080937, "lon": 7.534725}, {"id": 9379748446, "name": "Panini Bar", "amenity": "fast_food", "lat": 47.2063648, "lon": 7.5352939}, {"id": 9526797654, "name": "n/a", "amenity": "fast_food", "lat": 47.2045897, "lon": 7.541447}, {"id": 9775359202, "name": "Weinstüberl & Weinverkauf", "amenity": "bar", "lat": 47.2053474, "lon": 7.5367652}, {"id": 10100509940, "name": "Oskar & Luise", "amenity": "restaurant", "lat": 47.2072569, "lon": 7.5357748}, {"id": 10795036094, "name": "Taverna Amphorea", "amenity": "restaurant", "lat": 47.2069614, "lon": 7.5349993}, {"id": 10893067316, "name": "Pfefferkorn", "amenity": "restaurant", "lat": 47.208274, "lon": 7.5378613}, {"id": 10961908105, "name": "n/a", "amenity": "fast_food", "lat": 47.2083162, "lon": 7.5369151}, {"id": 10979316428, "name": "n/a", "amenity": "atm", "lat": 47.206922, "lon": 7.532515}, {"id": 11017903309, "name": "one", "amenity": "bar", "lat": 47.207156, "lon": 7.5333255}, {"id": 11077590002, "name": "Albert Brötlibar", "amenity": "fast_food", "lat": 47.2067841, "lon": 7.5372086}, {"id": 11387813944, "name": "n/a", "amenity": "parking", "lat": 47.1998299, "lon": 7.5320215}, {"id": 11844909931, "name": "Memo", "amenity": "fast_food", "lat": 47.2032608, "lon": 7.543415}, {"id": 12112631558, "name": "Solo Fresh & fast Crispy Chicken", "amenity": "restaurant", "lat": 47.2041652, "lon": 7.5388339}, {"id": 12613405657, "name": "Le Restaurant", "amenity": "restaurant", "lat": 47.2079783, "lon": 7.5385136}]}
{"address": "Seeblickstr. 12, 9010 St. Gallen", "price": 2880, "property_id": 4002039822, "area": "115m²", "rooms": 4.5, "lat": 47.44059395, "lon": 9.377784349999999, "isochrone": {"features": [{"properties": {"fill-opacity": 0.33, "fillColor": "#bf4040", "opacity": 0.33, "fill": "#bf4040", "fillOpacity": 0.33, "color": "#bf4040", "contour": 15, "metric": "time"}, "geometry": {"coordinates": [[[9.370784, 47.449872], [9.369444, 47.447934], [9.368507, 47.447594], [9.368593, 47.446594], [9.365784, 47.446342], [9.365037, 47.445594], [9.365912, 47.444594], [9.36582, 47.443594], [9.364784, 47.443405], [9.364129, 47.441594], [9.366784, 47.440878], [9.366923, 47.440455], [9.36529, 47.440088], [9.364784, 47.439262], [9.363784, 47.43977], [9.362152, 47.438594], [9.364784, 47.437303], [9.365784, 47.438139], [9.367784, 47.437749], [9.368095, 47.436905], [9.369375, 47.436185], [9.370194, 47.436185], [9.370866, 47.437675], [9.371605, 47.432594], [9.372784, 47.430047], [9.373784, 47.429618], [9.374784, 47.430383], [9.375784, 47.429494], [9.377784, 47.429252], [9.378784, 47.430486], [9.379784, 47.429946], [9.383054, 47.430594], [9.383543, 47.431835], [9.385784, 47.431182], [9.387436, 47.432942], [9.390074, 47.433594], [9.390448, 47.434594], [9.391784, 47.434457], [9.394093, 47.435594], [9.392915, 47.437594], [9.392722, 47.439532], [9.39414, 47.440238], [9.395385, 47.441594], [9.395638, 47.442594], [9.394784, 47.443538], [9.392898, 47.443594], [9.391784, 47.443022], [9.390678, 47.443488], [9.390121, 47.444931], [9.388508, 47.445318], [9.386973, 47.446783], [9.385784, 47.446913], [9.385022, 47.446357], [9.383784, 47.44635], [9.382784, 47.447326], [9.380901, 47.447477], [9.379989, 47.446594], [9.381035, 47.445594], [9.379784, 47.44535], [9.378784, 47.444495], [9.378177, 47.444987], [9.376503, 47.445313], [9.37719, 47.446999], [9.375784, 47.448316], [9.373784, 47.448249], [9.372626, 47.447436], [9.371338, 47.448594], [9.370784, 47.449872]]], "type": "Polygon"}, "type": "Feature"}], "type": "FeatureCollection"}, "amenities": [{"id": 276171898, "name": "St. Galler Kantonalbank", "amenity": "atm", "lat": 47.4329589, "lon": 9.3835908}, {"id": 445064237, "name": "Wienerberg", "amenity": "restaurant", "lat": 47.4310484, "lon": 9.3735727}, {"id": 445368973, "name": "Schwyter Uni-Beck", "amenity": "cafe", "lat": 47.4328273, "lon": 9.3782718}, {"id": 445422751, "name": "Rotmontenhof", "amenity": "restaurant", "lat": 47.4370776, "lon": 9.3776357}, {"id": 538039673, "name": "Radisson BLU Parking", "amenity": "parking", "lat": 47.4308579, "lon": 9.3800874}, {"id": 616233696, "name": "Schweizerbund", "amenity": "restaurant", "lat": 47.4361118, "lon": 9.3921549}, {"id": 660628243, "name": "Selbstbedienungsrestaurant Badi Rotmonten", "amenity": "fast_food", "lat": 47.4353605, "lon": 9.3741533}, {"id": 911971437, "name": "HSG Cafeteria A", "amenity": "cafe", "lat": 47.4317199, "lon": 9.3745076}, {"id": 911971441, "name": "HSG Cafeteria B", "amenity": "cafe", "lat": 47.432265, "lon": 9.374793}, {"id": 2808678551, "name": "n/a", "amenity": "atm", "lat": 47.4312313, "lon": 9.3823995}, {"id": 4707791993, "name": "Evangelisches Pflegeheim", "amenity": "clinic", "lat": 47.4420365, "lon": 9.3950979}, {"id": 7389408741, "name": "n/a", "amenity": "parking", "lat": 47.433004, "lon": 9.3761579}, {"id": 7393350146, "name": "HSG Mensa", "amenity": "restaurant", "lat": 47.4312445, "lon": 9.3740872}, {"id": 7393352244, "name": "Universitätsbibliothek St.Gallen", "amenity": "library", "lat": 47.4328793, "lon": 9.375203}, {"id": 7394616330, "name": "n/a", "amenity": "parking", "lat": 47.4380156, "lon": 9.3765338}, {"id": 7394684591, "name": "n/a", "amenity": "parking", "lat": 47.4371758, "lon": 9.3767964}, {"id": 7840638541, "name": "Migros Take Away", "amenity": "fast_food", "lat": 47.4356165, "lon": 9.3924724}, {"id": 7840638542, "name": "Migros Restaurant", "amenity": "restaurant", "lat": 47.4357605, "lon": 9.3921277}, {"id": 8117176938, "name": "n/a", "amenity": "parking", "lat": 47.4487573, "lon": 9.3709785}, {"id": 8380157467, "name": "Vin", "amenity": "fast_food", "lat": 47.4318581, "lon": 9.3816875}, {"id": 8637451701, "name": "[ad]hoc", "amenity": "bar", "lat": 47.431127, "lon": 9.3739412}, {"id": 12218885965, "name": "n/a", "amenity": "parking", "lat": 47.4395953, "lon": 9.3809115}, {"id": 12229092165, "name": "n/a", "amenity": "parking", "lat": 47.4394536, "lon": 9.3806368}, {"id": 12229092166, "name": "n/a", "amenity": "parking", "lat": 47.439389, "lon": 9.3805741}, {"id": 12462498191, "name": "n/a", "amenity": "parking", "lat": 47.4349081, "lon": 9.3843388}, {"id": 12463428528, "name": "n/a", "amenity": "parking", "lat": 47.4377826, "lon": 9.3927641}, {"id": 12463428534, "name": "n/a", "amenity": "parking", "lat": 47.4375485, "lon": 9.3929144}, {"id": 12463428543, "name": "n/a", "amenity": "parking", "lat": 47.4377247, "lon": 9.3927047}, {"id": 12464802959, "name": "n/a", "amenity": "parking", "lat": 47.4361743, "lon": 9.3911819}, {"id": 12464802968, "name": "n/a", "amenity": "parking", "lat": 47.4361509, "lon": 9.3909689}, {"id": 12466466000, "name": "n/a", "amenity": "parking", "lat": 47.4362459, "lon": 9.3868543}, {"id": 12629023000, "name": "n/a", "amenity": "library", "lat": 47.4317197, "lon": 9.3754157}]}
{"address": "Bellerivestrasse 49, 8008 Zürich", "price": 2880, "property_id": 4002033013, "area": "115m²", "rooms": 4.5, "lat": 47.3566457, "lon": 8.551761367777775, "isochrone": {"features": [{"properties": {"fill-opacity": 0.33, "fillColor": "#bf4040", "opacity": 0.33, "fill": "#bf4040", "fillOpacity": 0.33, "color": "#bf4040", "contour": 15, "metric": "time"}, "geometry": {"coordinates": [[[8.548761, 47.366776], [8.544761, 47.366959], [8.544174, 47.365646], [8.544961, 47.364845], [8.545168, 47.363052], [8.545874, 47.362758], [8.545992, 47.359877], [8.546858, 47.359646], [8.546937, 47.356821], [8.547816, 47.3567], [8.547911, 47.354796], [8.548841, 47.354646], [8.548965, 47.352849], [8.549826, 47.352711], [8.549966, 47.35185], [8.551761, 47.351745], [8.551995, 47.35088], [8.552761, 47.350763], [8.553527, 47.35088], [8.553761, 47.351749], [8.556848, 47.351732], [8.557065, 47.350949], [8.558875, 47.350759], [8.559144, 47.350029], [8.559913, 47.349798], [8.56042, 47.348305], [8.562147, 47.34826], [8.562818, 47.348589], [8.562817, 47.349702], [8.561715, 47.352646], [8.562409, 47.352998], [8.563079, 47.355646], [8.562269, 47.357646], [8.563761, 47.359034], [8.565589, 47.359646], [8.564692, 47.360646], [8.562621, 47.361646], [8.56194, 47.362646], [8.559782, 47.363667], [8.558761, 47.363463], [8.556761, 47.364089], [8.554761, 47.365482], [8.551761, 47.365201], [8.549935, 47.36582], [8.548761, 47.366776]]], "type": "Polygon"}, "type": "Feature"}], "type": "FeatureCollection"}, "amenities": [{"id": 268411248, "name": "Hotel Seegarten", "amenity": "restaurant", "lat": 47.3613874, "lon": 8.549412}, {"id": 268420651, "name": "Ginger", "amenity": "restaurant", "lat": 47.3618394, "lon": 8.5506873}, {"id": 268421310, "name": "Tiffins", "amenity": "restaurant", "lat": 47.3618934, "lon": 8.551033}, {"id": 268421599, "name": "Suan Long", "amenity": "restaurant", "lat": 47.3630112, "lon": 8.5495281}, {"id": 268469567, "name": "Commercio", "amenity": "restaurant", "lat": 47.3659313, "lon": 8.5490837}, {"id": 268470209, "name": "Quaglinos", "amenity": "restaurant", "lat": 47.3641688, "lon": 8.5472235}, {"id": 268470293, "name": "Du Théatre", "amenity": "restaurant", "lat": 47.363996, "lon": 8.5473846}, {"id": 268470809, "name": "Co Chin Chin", "amenity": "restaurant", "lat": 47.3620903, "lon": 8.5508626}, {"id": 268471384, "name": "Amalfi", "amenity": "restaurant", "lat": 47.3606695, "lon": 8.5499916}, {"id": 268473118, "name": "Bimi", "amenity": "restaurant", "lat": 47.3637174, "lon": 8.5494425}, {"id": 268474433, "name": "Restaurant Pumpstation", "amenity": "restaurant", "lat": 47.3637531, "lon": 8.5462955}, {"id": 268474472, "name": "Drinx Bar db", "amenity": "pub", "lat": 47.3637126, "lon": 8.547619}, {"id": 268475658, "name": "Bohemia", "amenity": "restaurant", "lat": 47.364789, "lon": 8.5548938}, {"id": 268475809, "name": "Nooba", "amenity": "restaurant", "lat": 47.3651703, "lon": 8.554528}, {"id": 268482384, "name": "Yooji's", "amenity": "restaurant", "lat": 47.3582879, "lon": 8.5541672}, {"id": 268488025, "name": "Cafe Black", "amenity": "cafe", "lat": 47.3617349, "lon": 8.5485487}, {"id": 268488783, "name": "Parkhaus Utoquai", "amenity": "parking", "lat": 47.3617898, "lon": 8.5482086}, {"id": 268601209, "name": "Gesundheitszentrum für das Alter Wildbach", "amenity": "restaurant", "lat": 47.3575819, "lon": 8.5575836}, {"id": 268601323, "name": "Parkhaus Zürichhorn", "amenity": "parking", "lat": 47.3557489, "lon": 8.5531163}, {"id": 268601822, "name": "Parkhaus Feldegg", "amenity": "parking", "lat": 47.3603851, "lon": 8.5536988}, {"id": 268602010, "name": "Ländli", "amenity": "restaurant", "lat": 47.3627304, "lon": 8.5545618}, {"id": 268602187, "name": "Bistro", "amenity": "parking", "lat": 47.3631336, "lon": 8.5488848}, {"id": 268602878, "name": "Lulu", "amenity": "restaurant", "lat": 47.3649869, "lon": 8.5460635}, {"id": 270692604, "name": "NA081", "amenity": "restaurant", "lat": 47.3597536, "lon": 8.5524861}, {"id": 270795664, "name": "Alters- & Pflegewohnheim Neumünster", "amenity": "cafe", "lat": 47.3629817, "lon": 8.5594513}, {"id": 270795983, "name": "Restaurant Zauberberg", "amenity": "restaurant", "lat": 47.3632165, "lon": 8.5599915}, {"id": 270796284, "name": "Lin Lin", "amenity": "restaurant", "lat": 47.3623472, "lon": 8.5587815}, {"id": 270796495, "name": "ButchersTable", "amenity": "restaurant", "lat": 47.3615601, "lon": 8.5603652}, {"id": 270797381, "name": "Neumünster", "amenity": "restaurant", "lat": 47.3596206, "lon": 8.5585046}, {"id": 270798260, "name": "Strand-Restaurant Tiefenbrunnen", "amenity": "restaurant", "lat": 47.3519701, "lon": 8.5580482}, {"id": 270799706, "name": "Mühlebach", "amenity": "cafe", "lat": 47.3639923, "lon": 8.5517729}, {"id": 271148947, "name": "Weisses Kreuz", "amenity": "restaurant", "lat": 47.3661112, "lon": 8.5486513}, {"id": 271149013, "name": "Migros Restaurant", "amenity": "restaurant", "lat": 47.3654324, "lon": 8.5478765}, {"id": 271226695, "name": "Royal Panda", "amenity": "restaurant", "lat": 47.3643316, "lon": 8.5545739}, {"id": 271672265, "name": "Silk", "amenity": "restaurant", "lat": 47.3643407, "lon": 8.5470929}, {"id": 273502894, "name": "Valentino", "amenity": "cafe", "lat": 47.3601706, "lon": 8.550781}, {"id": 275341574, "name": "Cheti's Curry", "amenity": "restaurant", "lat": 47.3650488, "lon": 8.5486637}, {"id": 443662303, "name": "Dr. Andres Apotheke Stadelhofen", "amenity": "pharmacy", "lat": 47.3660923, "lon": 8.5482317}, {"id": 443662304, "name": "Dr. Andres Apotheke Stadelhofen", "amenity": "pharmacy", "lat": 47.3659878, "lon": 8.5485376}, {"id": 485617147, "name": "Escoffier", "amenity": "restaurant", "lat": 47.3605504, "lon": 8.5524597}, {"id": 485617148, "name": "Stripped Pizza", "amenity": "restaurant", "lat": 47.3602524, "lon": 8.5521363}, {"id": 1291611937, "name": "gooods", "amenity": "fast_food", "lat": 47.3499921, "lon": 8.5614135}, {"id": 1291638554, "name": "Chinagarten Take Away", "amenity": "fast_food", "lat": 47.3545576, "lon": 8.5519589}, {"id": 1346131970, "name": "Apotheke am Kreuzplatz", "amenity": "pharmacy", "lat": 47.3650881, "lon": 8.5537692}, {"id": 1346131983, "name": "Pill Apotheke Neumünster", "amenity": "pharmacy", "lat": 47.3643816, "lon": 8.5549292}, {"id": 1356534283, "name": "Zürcher Kantonalbank", "amenity": "bank", "lat": 47.3646351, "lon": 8.5552253}, {"id": 1356701403, "name": "Postfinance", "amenity": "atm", "lat": 47.3641846, "lon": 8.5556849}, {"id": 1416153972, "name": "Postfinance", "amenity": "atm", "lat": 47.3577163, "lon": 8.5540421}, {"id": 1510019206, "name": "Misoga", "amenity": "restaurant", "lat": 47.3614068, "lon": 8.5608856}, {"id": 1710700206, "name": "Ristorante Frascati", "amenity": "restaurant", "lat": 47.3608803, "lon": 8.5478901}, {"id": 1728845231, "name": "D-Vino", "amenity": "pub", "lat": 47.3584615, "lon": 8.553987}, {"id": 1728953807, "name": "Sazio Osteria", "amenity": "restaurant", "lat": 47.3635603, "lon": 8.5495722}, {"id": 1740683810, "name": "Brasserie Schiller", "amenity": "restaurant", "lat": 47.3654045, "lon": 8.5471561}, {"id": 1740683819, "name": "Goethe Bar", "amenity": "bar", "lat": 47.3655117, "lon": 8.5473418}, {"id": 1750109103, "name": "CS Bancomat", "amenity": "atm", "lat": 47.3601542, "lon": 8.5524501}, {"id": 1768690515, "name": "Minerva Apotheke", "amenity": "pharmacy", "lat": 47.3614842, "lon": 8.5610538}, {"id": 1791263449, "name": "Raiffeisen", "amenity": "atm", "lat": 47.3653958, "lon": 8.5542918}, {"id": 2225137764, "name": "Credit Suisse", "amenity": "bank", "lat": 47.3652354, "lon": 8.5481418}, {"id": 2225269508, "name": "Lombard Odier & Cie", "amenity": "bank", "lat": 47.3642135, "lon": 8.5464473}, {"id": 2289568166, "name": "Darbar", "amenity": "restaurant", "lat": 47.3642732, "lon": 8.5548578}, {"id": 2289574750, "name": "Sazio Take Away", "amenity": "fast_food", "lat": 47.3635165, "lon": 8.5496085}, {"id": 2456775289, "name": "blindekuh", "amenity": "restaurant", "lat": 47.3583286, "lon": 8.5571633}, {"id": 3019152928, "name": "Wild Bowls", "amenity": "restaurant", "lat": 47.3636395, "lon": 8.5495067}, {"id": 3075095235, "name": "Babu's Bakery & Coffeehouse", "amenity": "cafe", "lat": 47.3653311, "lon": 8.5475291}, {"id": 3389526413, "name": "Studio Bellerive", "amenity": "restaurant", "lat": 47.3623277, "lon": 8.5475678}, {"id": 3389538257, "name": "Eden Kitchen & Bar", "amenity": "restaurant", "lat": 47.3627091, "lon": 8.5473718}, {"id": 3523102254, "name": "TopPharm Apotheke Höschgasse", "amenity": "pharmacy", "lat": 47.3577116, "lon": 8.5547536}, {"id": 3528789347, "name": "Confiserie Freytag", "amenity": "cafe", "lat": 47.357029, "lon": 8.5549279}, {"id": 3547784304, "name": "Cafeteria UZH Botanischer Garten", "amenity": "cafe", "lat": 47.3588123, "lon": 8.5595427}, {"id": 3551593268, "name": "Pill Apotheke Fröhlichstrasse", "amenity": "pharmacy", "lat": 47.355307, "lon": 8.557001}, {"id": 3554644444, "name": "Seefeldbar", "amenity": "bar", "lat": 47.3547507, "lon": 8.5571903}, {"id": 3558236013, "name": "Brasserie Seefeld", "amenity": "restaurant", "lat": 47.3526098, "lon": 8.5591926}, {"id": 4089670858, "name": "Bibliothek der Institute für Systematische Botanik und für Pflanzenbiologie", "amenity": "library", "lat": 47.3588388, "lon": 8.5595046}, {"id": 4472557764, "name": "PBZ Bibliothek Riesbach", "amenity": "library", "lat": 47.3592693, "lon": 8.5539566}, {"id": 4566888345, "name": "n/a", "amenity": "parking", "lat": 47.3511274, "lon": 8.5617765}, {"id": 4827130180, "name": "Kaimug", "amenity": "fast_food", "lat": 47.3653927, "lon": 8.5479063}, {"id": 4833061566, "name": "Pimp Your Pizza", "amenity": "fast_food", "lat": 47.3624078, "lon": 8.5611769}, {"id": 4833061567, "name": "Totò", "amenity": "restaurant", "lat": 47.3580896, "lon": 8.5538491}, {"id": 4833061571, "name": "Restaurant Kiosk", "amenity": "restaurant", "lat": 47.358135, "lon": 8.5478933}, {"id": 4833061574, "name": "Devil's Place", "amenity": "bar", "lat": 47.3641299, "lon": 8.5470627}, {"id": 4833061582, "name": "Conti", "amenity": "restaurant", "lat": 47.3645073, "lon": 8.5474123}, {"id": 4838594393, "name": "Benu", "amenity": "pharmacy", "lat": 47.3638878, "lon": 8.5488655}, {"id": 4872461936, "name": "Zentrum Neumünster", "amenity": "parking", "lat": 47.364095, "lon": 8.5546653}, {"id": 4880906379, "name": "Tibits", "amenity": "restaurant", "lat": 47.3649526, "lon": 8.5478868}, {"id": 4889986278, "name": "Bistro Horizont", "amenity": "cafe", "lat": 47.3602322, "lon": 8.5544097}, {"id": 4889986289, "name": "Lake Side", "amenity": "restaurant", "lat": 47.3527249, "lon": 8.5537217}, {"id": 4935627373, "name": "Iroquois", "amenity": "restaurant", "lat": 47.3582918, "lon": 8.5537364}, {"id": 4935627374, "name": "Metzg", "amenity": "restaurant", "lat": 47.355851, "lon": 8.556448}, {"id": 4935627376, "name": "Tüfenegg", "amenity": "restaurant", "lat": 47.3553163, "lon": 8.5541539}, {"id": 4935627377, "name": "Enoteca Riviera", "amenity": "restaurant", "lat": 47.3549625, "lon": 8.5550456}, {"id": 4935627380, "name": "Mura Omakase Restaurant", "amenity": "restaurant", "lat": 47.3545891, "lon": 8.5561613}, {"id": 4935627381, "name": "Miracle", "amenity": "restaurant", "lat": 47.3545311, "lon": 8.5560474}, {"id": 4935627392, "name": "Le Beaujolais", "amenity": "restaurant", "lat": 47.3554751, "lon": 8.5568172}, {"id": 4942450537, "name": "Credit Suisse", "amenity": "atm", "lat": 47.3651831, "lon": 8.5481025}, {"id": 4958366046, "name": "Pizzeria Capri", "amenity": "restaurant", "lat": 47.3604176, "lon": 8.5501478}, {"id": 4958366050, "name": "Tibits Bistro Zürich", "amenity": "restaurant", "lat": 47.3647473, "lon": 8.5475997}, {"id": 4958366051, "name": "Seehof", "amenity": "restaurant", "lat": 47.364315, "lon": 8.5477947}, {"id": 4958439555, "name": "Giusi's", "amenity": "restaurant", "lat": 47.3637686, "lon": 8.5545452}, {"id": 4996185541, "name": "Mame", "amenity": "cafe", "lat": 47.3641224, "lon": 8.5493423}, {"id": 5283791499, "name": "Güggeli-Express", "amenity": "fast_food", "lat": 47.3649133, "lon": 8.5545575}, {"id": 5344545424, "name": "Kornsilo", "amenity": "cafe", "lat": 47.3517143, "lon": 8.560923}, {"id": 5431084536, "name": "Gainsbourg", "amenity": "bar", "lat": 47.3628263, "lon": 8.5491218}, {"id": 5677762209, "name": "GZ Riesbach Cafeteria", "amenity": "cafe", "lat": 47.359245, "lon": 8.5540563}, {"id": 5688147984, "name": "Kai Sushi", "amenity": "restaurant", "lat": 47.3629249, "lon": 8.5497941}, {"id": 5688147986, "name": "Joe & The Juice", "amenity": "cafe", "lat": 47.3628232, "lon": 8.5498902}, {"id": 5688147987, "name": "bubblish", "amenity": "cafe", "lat": 47.3630144, "lon": 8.5497095}, {"id": 5859687885, "name": "Japan saku", "amenity": "restaurant", "lat": 47.3643245, "lon": 8.5478329}, {"id": 5888416187, "name": "Hammam Salon", "amenity": "restaurant", "lat": 47.3569676, "lon": 8.5586356}, {"id": 5922544703, "name": "Razzia Bar", "amenity": "bar", "lat": 47.3609151, "lon": 8.5515444}, {"id": 6174774765, "name": "Bank Avera", "amenity": "bank", "lat": 47.3659572, "lon": 8.5479949}, {"id": 6715729834, "name": "Hull's School", "amenity": "school", "lat": 47.3656237, "lon": 8.548774}, {"id": 7248149649, "name": "Zürcher Kantonalbank", "amenity": "atm", "lat": 47.3646253, "lon": 8.5553475}, {"id": 8124534023, "name": "La Muña", "amenity": "restaurant", "lat": 47.3628911, "lon": 8.5472553}, {"id": 8523455266, "name": "PUK - Kinder- und Jugendpsychiatrie", "amenity": "clinic", "lat": 47.362541, "lon": 8.5568696}, {"id": 8928205645, "name": "Fischerstube Zürihorn", "amenity": "restaurant", "lat": 47.3530226, "lon": 8.5505084}, {"id": 9151768393, "name": "Onkozentrum Zürich Seefeld", "amenity": "clinic", "lat": 47.3529907, "lon": 8.5586867}, {"id": 9178495731, "name": "Fischergarten", "amenity": "restaurant", "lat": 47.3529697, "lon": 8.5511478}, {"id": 9178520572, "name": "Bernhard Bar Cafe", "amenity": "cafe", "lat": 47.3650806, "lon": 8.5461982}, {"id": 9209001816, "name": "MRI Stadelhofen", "amenity": "clinic", "lat": 47.3659083, "lon": 8.548012}, {"id": 9291427952, "name": "Blaue Ente", "amenity": "bar", "lat": 47.3517875, "lon": 8.5611622}, {"id": 9291427953, "name": "Blaue Ente", "amenity": "restaurant", "lat": 47.3519503, "lon": 8.5611316}, {"id": 9560861817, "name": "Fischerstube", "amenity": "restaurant", "lat": 47.3529891, "lon": 8.5510576}, {"id": 9593857220, "name": "Freie Evangelische Schule Zürich", "amenity": "school", "lat": 47.3649505, "lon": 8.5532551}, {"id": 9605979020, "name": "MODECO - Fachschule für Mode & Gestaltung", "amenity": "school", "lat": 47.3647361, "lon": 8.5529464}, {"id": 9626430086, "name": "n/a", "amenity": "parking", "lat": 47.3640629, "lon": 8.5495435}, {"id": 9726348419, "name": "Tandem IMS, Zürich", "amenity": "school", "lat": 47.3585537, "lon": 8.5542336}, {"id": 9752219318, "name": "Monocle Café", "amenity": "cafe", "lat": 47.3596826, "lon": 8.5507962}, {"id": 10152314163, "name": "The Studio", "amenity": "cafe", "lat": 47.3638328, "lon": 8.5478715}, {"id": 10828683803, "name": "Hegifret Kaffeefenster", "amenity": "cafe", "lat": 47.3617836, "lon": 8.5612343}, {"id": 10860635769, "name": "Yalda Grill", "amenity": "fast_food", "lat": 47.36555, "lon": 8.5477151}, {"id": 11235345732, "name": "Resident Café & Eventlocation", "amenity": "cafe", "lat": 47.3627415, "lon": 8.548895}, {"id": 11276743569, "name": "Marronistand", "amenity": "fast_food", "lat": 47.3658541, "lon": 8.547217}, {"id": 11579521243, "name": "Maison 33", "amenity": "cafe", "lat": 47.3572728, "lon": 8.5526229}, {"id": 11744871126, "name": "Kaisin", "amenity": "restaurant", "lat": 47.3639582, "lon": 8.5478294}, {"id": 11761779035, "name": "Kebab Grill Xolldi CCC", "amenity": "fast_food", "lat": 47.3642496, "lon": 8.5552806}, {"id": 11843562096, "name": "Spuntino", "amenity": "cafe", "lat": 47.3546706, "lon": 8.5576663}, {"id": 11966073409, "name": "Marfa", "amenity": "cafe", "lat": 47.3620459, "lon": 8.5609414}, {"id": 12561243401, "name": "Weera Pura", "amenity": "restaurant", "lat": 47.3571792, "lon": 8.5531184}, {"id": 12663326764, "name": "Razzia Restaurant", "amenity": "restaurant", "lat": 47.3608124, "lon": 8.5516525}]}
{"address": "Ludwigstr. 5, 9010 St. Gallen", "price": 2880, "property_id": 4002028634, "area": "115m²", "rooms": 4.5, "lat": 47.43990895, "lon": 9.377419517139657, "isochrone": {"features": [{"properties": {"fill-opacity": 0.33, "fillColor": "#bf4040", "opacity": 0.33, "fill": "#bf4040", "fillOpacity": 0.33, "color": "#bf4040", "contour": 15, "metric": "time"}, "geometry": {"coordinates": [[[9.37142, 47.449996], [9.370503, 47.449826], [9.369782, 47.448909], [9.37042, 47.446993], [9.370544, 47.445784], [9.370068, 47.445909], [9.370377, 47.446866], [9.369812, 47.447301], [9.368615, 47.445714], [9.367242, 47.445731], [9.36642, 47.446571], [9.364999, 47.446329], [9.364632, 47.442696], [9.362845, 47.441909], [9.363736, 47.441226], [9.363861, 47.440468], [9.363065, 47.440264], [9.36242, 47.439481], [9.36142, 47.439613], [9.360414, 47.438909], [9.361734, 47.438223], [9.36242, 47.436655], [9.363672, 47.437162], [9.364231, 47.436909], [9.36442, 47.436006], [9.364482, 47.436847], [9.365937, 47.436909], [9.366221, 47.438107], [9.367505, 47.437995], [9.367686, 47.437175], [9.368944, 47.436434], [9.370532, 47.437022], [9.370998, 47.435909], [9.370611, 47.434101], [9.371648, 47.433137], [9.371673, 47.431655], [9.370682, 47.430909], [9.371147, 47.429909], [9.37342, 47.428659], [9.374513, 47.429003], [9.37442, 47.427858], [9.376348, 47.427837], [9.379392, 47.428937], [9.384172, 47.429909], [9.385097, 47.431232], [9.388739, 47.433589], [9.39242, 47.434744], [9.394065, 47.435909], [9.392314, 47.439803], [9.395167, 47.441162], [9.395511, 47.443001], [9.39442, 47.4436], [9.39142, 47.443226], [9.390445, 47.443934], [9.390456, 47.444946], [9.38742, 47.445802], [9.387091, 47.446909], [9.38642, 47.447118], [9.38542, 47.446566], [9.38242, 47.447396], [9.381023, 47.447305], [9.380424, 47.446909], [9.38086, 47.445909], [9.37878, 47.444548], [9.37742, 47.444405], [9.376866, 47.444909], [9.3767, 47.448189], [9.37542, 47.44855], [9.375144, 47.448185], [9.373194, 47.448135], [9.37242, 47.447676], [9.37142, 47.449996]]], "type": "Polygon"}, "type": "Feature"}], "type": "FeatureCollection"}, "amenities": [{"id": 276171898, "name": "St. Galler Kantonalbank", "amenity": "atm", "lat": 47.4329589, "lon": 9.3835908}, {"id": 445064237, "name": "Wienerberg", "amenity": "restaurant", "lat": 47.4310484, "lon": 9.3735727}, {"id": 445368973, "name": "Schwyter Uni-Beck", "amenity": "cafe", "lat": 47.4328273, "lon": 9.3782718}, {"id": 445422751, "name": "Rotmontenhof", "amenity": "restaurant", "lat": 47.4370776, "lon": 9.3776357}, {"id": 538035104, "name": "n/a", "amenity": "parking", "lat": 47.4296051, "lon": 9.3785437}, {"id": 538035106, "name": "Netts Schützengarten", "amenity": "restaurant", "lat": 47.4297095, "lon": 9.3790265}, {"id": 538035107, "name": "Englers Steakhouse", "amenity": "restaurant", "lat": 47.4296106, "lon": 9.3795549}, {"id": 538035109, "name": "Candela", "amenity": "restaurant", "lat": 47.4294654, "lon": 9.3793256}, {"id": 538039673, "name": "Radisson BLU Parking", "amenity": "parking", "lat": 47.4308579, "lon": 9.3800874}, {"id": 616233696, "name": "Schweizerbund", "amenity": "restaurant", "lat": 47.4361118, "lon": 9.3921549}, {"id": 660397221, "name": "Jägerhof", "amenity": "restaurant", "lat": 47.4306647, "lon": 9.3832589}, {"id": 660628243, "name": "Selbstbedienungsrestaurant Badi Rotmonten", "amenity": "fast_food", "lat": 47.4353605, "lon": 9.3741533}, {"id": 911971437, "name": "HSG Cafeteria A", "amenity": "cafe", "lat": 47.4317199, "lon": 9.3745076}, {"id": 911971441, "name": "HSG Cafeteria B", "amenity": "cafe", "lat": 47.432265, "lon": 9.374793}, {"id": 2291450866, "name": "Röstipfanne", "amenity": "restaurant", "lat": 47.4303446, "lon": 9.3841654}, {"id": 2808678551, "name": "n/a", "amenity": "atm", "lat": 47.4312313, "lon": 9.3823995}, {"id": 4155924657, "name": "medienverbund.phsg", "amenity": "library", "lat": 47.4301742, "lon": 9.382186}, {"id": 4209147314, "name": "P8 Parkhaus Olma Messe", "amenity": "parking", "lat": 47.4310995, "lon": 9.3837233}, {"id": 4289518396, "name": "Salsoteca bar", "amenity": "bar", "lat": 47.4283192, "lon": 9.3776598}, {"id": 4707791993, "name": "Evangelisches Pflegeheim", "amenity": "clinic", "lat": 47.4420365, "lon": 9.3950979}, {"id": 7389408741, "name": "n/a", "amenity": "parking", "lat": 47.433004, "lon": 9.3761579}, {"id": 7389641926, "name": "n/a", "amenity": "parking", "lat": 47.4296201, "lon": 9.3723286}, {"id": 7393350146, "name": "HSG Mensa", "amenity": "restaurant", "lat": 47.4312445, "lon": 9.3740872}, {"id": 7393352244, "name": "Universitätsbibliothek St.Gallen", "amenity": "library", "lat": 47.4328793, "lon": 9.375203}, {"id": 7394616330, "name": "n/a", "amenity": "parking", "lat": 47.4380156, "lon": 9.3765338}, {"id": 7394684591, "name": "n/a", "amenity": "parking", "lat": 47.4371758, "lon": 9.3767964}, {"id": 7840638541, "name": "Migros Take Away", "amenity": "fast_food", "lat": 47.4356165, "lon": 9.3924724}, {"id": 7840638542, "name": "Migros Restaurant", "amenity": "restaurant", "lat": 47.4357605, "lon": 9.3921277}, {"id": 8117176938, "name": "n/a", "amenity": "parking", "lat": 47.4487573, "lon": 9.3709785}, {"id": 8380157467, "name": "Vin", "amenity": "fast_food", "lat": 47.4318581, "lon": 9.3816875}, {"id": 8637451701, "name": "[ad]hoc", "amenity": "bar", "lat": 47.431127, "lon": 9.3739412}, {"id": 10633402928, "name": "Hirschgarten", "amenity": "restaurant", "lat": 47.4305816, "lon": 9.3835376}, {"id": 12218885965, "name": "n/a", "amenity": "parking", "lat": 47.4395953, "lon": 9.3809115}, {"id": 12229092165, "name": "n/a", "amenity": "parking", "lat": 47.4394536, "lon": 9.3806368}, {"id": 12229092166, "name": "n/a", "amenity": "parking", "lat": 47.439389, "lon": 9.3805741}, {"id": 12462441396, "name": "n/a", "amenity": "parking", "lat": 47.4291131, "lon": 9.3778351}, {"id": 12462498191, "name": "n/a", "amenity": "parking", "lat": 47.4349081, "lon": 9.3843388}, {"id": 12463428528, "name": "n/a", "amenity": "parking", "lat": 47.4377826, "lon": 9.3927641}, {"id": 12463428534, "name": "n/a", "amenity": "parking", "lat": 47.4375485, "lon": 9.3929144}, {"id": 12463428543, "name": "n/a", "amenity": "parking", "lat": 47.4377247, "lon": 9.3927047}, {"id": 12464802959, "name": "n/a", "amenity": "parking", "lat": 47.4361743, "lon": 9.3911819}, {"id": 12464802968, "name": "n/a", "amenity": "parking", "lat": 47.4361509, "lon": 9.3909689}, {"id": 12466466000, "name": "n/a", "amenity": "parking", "lat": 47.4362459, "lon": 9.3868543}, {"id": 12629023000, "name": "n/a", "amenity": "library", "lat": 47.4317197, "lon": 9.3754157}]}
{"address": "Via G. Brentani 16, 6900 Lugano", "price": 2880, "property_id": 4002028631, "area": "115m²", "rooms": 4.5, "lat": null, "lon": null, "amenities": []}
{"address": "Via G. Brentani 16, 6900 Lugano", "price": 2880, "property_id": 4002028630, "area": "115m²", "rooms": 4.5, "lat": null, "lon": null, "amenities": []}
{"address": "Guggistrasse 14 A, 6005 Luzern", "price": 2880, "property_id": 4002006119, "area": "115m²", "rooms": 4.5, "lat": 47.0442778, "lon": 8.2996906, "isochrone": {"features": [{"properties": {"fill-opacity": 0.33, "fillColor": "#bf4040", "opacity": 0.33, "fill": "#bf4040", "fillOpacity": 0.33, "color": "#bf4040", "contour": 15, "metric": "time"}, "geometry": {"coordinates": [[[8.299691, 47.054033], [8.297116, 47.053852], [8.295385, 47.053278], [8.295634, 47.052222], [8.297168, 47.051755], [8.297048, 47.049921], [8.296753, 47.049215], [8.295722, 47.049246], [8.293691, 47.048531], [8.293267, 47.047701], [8.291945, 47.047024], [8.291653, 47.046241], [8.293204, 47.044792], [8.294816, 47.044152], [8.290691, 47.039964], [8.290208, 47.038278], [8.293691, 47.036001], [8.294734, 47.036234], [8.295829, 47.037417], [8.295971, 47.035998], [8.29543, 47.035278], [8.296547, 47.034134], [8.297691, 47.033973], [8.298691, 47.034701], [8.300691, 47.033818], [8.301691, 47.034611], [8.302691, 47.033403], [8.303691, 47.033694], [8.304466, 47.035503], [8.305691, 47.036596], [8.307735, 47.037278], [8.307935, 47.038278], [8.309691, 47.03887], [8.310691, 47.038756], [8.312691, 47.039956], [8.31285, 47.041278], [8.312208, 47.042278], [8.3141, 47.043278], [8.313397, 47.045278], [8.310565, 47.046152], [8.310555, 47.047414], [8.311691, 47.047594], [8.31204, 47.048627], [8.311691, 47.049941], [8.3112, 47.049787], [8.310448, 47.051035], [8.307692, 47.05228], [8.305691, 47.052178], [8.301691, 47.053195], [8.300489, 47.053077], [8.299691, 47.054033]]], "type": "Polygon"}, "type": "Feature"}], "type": "FeatureCollection"}, "amenities": [{"id": 260019055, "name": "La vie en rose", "amenity": "cafe", "lat": 47.0488665, "lon": 8.3065612}, {"id": 260019056, "name": "Bahnhöfli", "amenity": "restaurant", "lat": 47.0501882, "lon": 8.3087802}, {"id": 311534836, "name": "Neustadt", "amenity": "restaurant", "lat": 47.0444975, "lon": 8.308674}, {"id": 330346226, "name": "Parterre", "amenity": "pub", "lat": 47.0447619, "lon": 8.3077395}, {"id": 506077428, "name": "Ampersand", "amenity": "restaurant", "lat": 47.0472189, "lon": 8.3078567}, {"id": 506655895, "name": "Prizzi", "amenity": "restaurant", "lat": 47.0436915, "lon": 8.3119807}, {"id": 506878635, "name": "n/a", "amenity": "parking", "lat": 47.0441509, "lon": 8.313001}, {"id": 506878641, "name": "Unterlachenhof", "amenity": "restaurant", "lat": 47.0435442, "lon": 8.3127816}, {"id": 506878642, "name": "Do Re Mi", "amenity": "restaurant", "lat": 47.043454, "lon": 8.3130492}, {"id": 506884229, "name": "Grottino 1313", "amenity": "restaurant", "lat": 47.04166, "lon": 8.3112416}, {"id": 506884232, "name": "Bar 59", "amenity": "bar", "lat": 47.0419574, "lon": 8.3108921}, {"id": 507040020, "name": "Oskar", "amenity": "restaurant", "lat": 47.0443317, "lon": 8.3086867}, {"id": 507040932, "name": "Bar Berlin", "amenity": "bar", "lat": 47.0439223, "lon": 8.3084694}, {"id": 507042120, "name": "Bolero", "amenity": "restaurant", "lat": 47.0462309, "lon": 8.3093801}, {"id": 507108298, "name": "n/a", "amenity": "atm", "lat": 47.0501276, "lon": 8.3097433}, {"id": 507123357, "name": "Luzerner Kantonalbank", "amenity": "bank", "lat": 47.0494894, "lon": 8.306714}, {"id": 507123361, "name": "n/a", "amenity": "atm", "lat": 47.050308, "lon": 8.3090757}, {"id": 507123365, "name": "n/a", "amenity": "atm", "lat": 47.0507915, "lon": 8.307197}, {"id": 507123381, "name": "n/a", "amenity": "atm", "lat": 47.0464013, "lon": 8.3063568}, {"id": 507134987, "name": "Erdem Kebab", "amenity": "fast_food", "lat": 47.046039, "lon": 8.3099319}, {"id": 507135005, "name": "Tribschen Kebab & Pizzahaus", "amenity": "fast_food", "lat": 47.0433813, "lon": 8.3132033}, {"id": 515660030, "name": "Militärgarten", "amenity": "restaurant", "lat": 47.0364246, "lon": 8.3027748}, {"id": 620927313, "name": "Crazy Cactus Tex-Mex", "amenity": "restaurant", "lat": 47.0528222, "lon": 8.2961902}, {"id": 621102495, "name": "n/a", "amenity": "parking", "lat": 47.045583, "lon": 8.309285}, {"id": 622117454, "name": "Haifischbar", "amenity": "pub", "lat": 47.0465099, "lon": 8.3043846}, {"id": 622289996, "name": "Café Bar Piccolino", "amenity": "cafe", "lat": 47.0494785, "lon": 8.3004231}, {"id": 644532757, "name": "Drei Könige", "amenity": "restaurant", "lat": 47.0494899, "lon": 8.3007794}, {"id": 644617980, "name": "Toscana", "amenity": "restaurant", "lat": 47.0500311, "lon": 8.3019634}, {"id": 646809722, "name": "Kasernenplatz", "amenity": "parking", "lat": 47.0508766, "lon": 8.2994715}, {"id": 646809725, "name": "Schützenmatte", "amenity": "parking", "lat": 47.0510797, "lon": 8.2989238}, {"id": 651966210, "name": "Pikante", "amenity": "restaurant", "lat": 47.049775, "lon": 8.3012857}, {"id": 1014207333, "name": "Brasserie Bodu", "amenity": "restaurant", "lat": 47.0518897, "lon": 8.3057843}, {"id": 1014513017, "name": "Bei Miguel", "amenity": "pub", "lat": 47.0475079, "lon": 8.302278}, {"id": 1068970629, "name": "Café Meyer", "amenity": "restaurant", "lat": 47.0454215, "lon": 8.3093691}, {"id": 1069059482, "name": "Helvetia", "amenity": "restaurant", "lat": 47.0459672, "lon": 8.3068468}, {"id": 1069059514, "name": "Zone 5", "amenity": "bar", "lat": 47.0452835, "lon": 8.3087593}, {"id": 1069059545, "name": "Weisses Schloss", "amenity": "restaurant", "lat": 47.045799, "lon": 8.3051527}, {"id": 1069059563, "name": "Salü", "amenity": "cafe", "lat": 47.0458283, "lon": 8.3064919}, {"id": 1069059583, "name": "Nachbar", "amenity": "bar", "lat": 47.0458738, "lon": 8.305106}, {"id": 1069059599, "name": "Houdini", "amenity": "cafe", "lat": 47.0458747, "lon": 8.3076142}, {"id": 1069132163, "name": "Madeleine", "amenity": "bar", "lat": 47.0517989, "lon": 8.2983325}, {"id": 1105364620, "name": "Bruch Brothers", "amenity": "pub", "lat": 47.0515689, "lon": 8.2994196}, {"id": 1119431811, "name": "Wirtshaus zum Eichhof", "amenity": "restaurant", "lat": 47.0399426, "lon": 8.3005903}, {"id": 1142783785, "name": "Reussbad \"las torres\"", "amenity": "restaurant", "lat": 47.0535676, "lon": 8.2993821}, {"id": 1156333228, "name": "Hubbly Bubbly Lounge", "amenity": "bar", "lat": 47.0518303, "lon": 8.2980208}, {"id": 1232193102, "name": "Newborn", "amenity": "bar", "lat": 47.0452671, "lon": 8.3095636}, {"id": 1234120491, "name": "das weisse schaf", "amenity": "bar", "lat": 47.049463, "lon": 8.3088867}, {"id": 1234120927, "name": "La Bestia - Pizza Pizza", "amenity": "restaurant", "lat": 47.0492726, "lon": 8.3081284}, {"id": 1247399856, "name": "McDonald's", "amenity": "fast_food", "lat": 47.0496189, "lon": 8.3092221}, {"id": 1256049130, "name": "Bellini", "amenity": "restaurant", "lat": 47.0485758, "lon": 8.3087331}, {"id": 1256280265, "name": "Mr. PickWick Pub", "amenity": "pub", "lat": 47.0521224, "lon": 8.3074301}, {"id": 1291790574, "name": "Jodlerwirt", "amenity": "restaurant", "lat": 47.0501883, "lon": 8.3019741}, {"id": 1291790580, "name": "Il Cortile", "amenity": "restaurant", "lat": 47.0504102, "lon": 8.3021877}, {"id": 1292057374, "name": "Bruchbar", "amenity": "bar", "lat": 47.0516565, "lon": 8.2991774}, {"id": 1292171079, "name": "Asia Mr. Rung", "amenity": "restaurant", "lat": 47.0497268, "lon": 8.299415}, {"id": 1292171151, "name": "Bar 58", "amenity": "bar", "lat": 47.0496143, "lon": 8.3013741}, {"id": 1292267745, "name": "Alte Suidtersche Apotheke", "amenity": "pharmacy", "lat": 47.0502093, "lon": 8.3028748}, {"id": 1318518539, "name": "Wolf", "amenity": "restaurant", "lat": 47.0458038, "lon": 8.3063911}, {"id": 1327348697, "name": "Cara Mia Ristorante", "amenity": "restaurant", "lat": 47.0508958, "lon": 8.302812}, {"id": 1328185924, "name": "Negishi Sushi Bar", "amenity": "restaurant", "lat": 47.0498475, "lon": 8.3088526}, {"id": 1337471919, "name": "cabanas", "amenity": "restaurant", "lat": 47.0507787, "lon": 8.299628}, {"id": 1351224757, "name": "Daily Pizza", "amenity": "fast_food", "lat": 47.0482946, "lon": 8.3093839}, {"id": 1353731049, "name": "Bistro Meile", "amenity": "cafe", "lat": 47.0488511, "lon": 8.3022832}, {"id": 1353867475, "name": "Disco Pizza", "amenity": "fast_food", "lat": 47.0511592, "lon": 8.3013225}, {"id": 1353867478, "name": "Café Bar Lokal", "amenity": "cafe", "lat": 47.0514772, "lon": 8.301572}, {"id": 1359284591, "name": "Drei Könige", "amenity": "bar", "lat": 47.049542, "lon": 8.3008897}, {"id": 1423739997, "name": "Bistro du Théâtre", "amenity": "restaurant", "lat": 47.0501819, "lon": 8.306705}, {"id": 1423740022, "name": "Nefes Sisha Bar", "amenity": "bar", "lat": 47.0477079, "lon": 8.3031947}, {"id": 1423740027, "name": "Raiffeisen", "amenity": "bank", "lat": 47.0508324, "lon": 8.3078592}, {"id": 1423740032, "name": "Hanky Panky", "amenity": "bar", "lat": 47.0478726, "lon": 8.3079876}, {"id": 1423740034, "name": "La Baracca", "amenity": "restaurant", "lat": 47.0500866, "lon": 8.3067964}, {"id": 1423740035, "name": "Wirtschaft zur Ente", "amenity": "restaurant", "lat": 47.0503868, "lon": 8.3062934}, {"id": 1483240190, "name": "Opus", "amenity": "restaurant", "lat": 47.0507283, "lon": 8.3043592}, {"id": 1485039687, "name": "Parkhaus Flora", "amenity": "parking", "lat": 47.0502749, "lon": 8.3076751}, {"id": 1488843086, "name": "Domino", "amenity": "restaurant", "lat": 47.0531041, "lon": 8.2956493}, {"id": 1488843136, "name": "Sentimatt", "amenity": "restaurant", "lat": 47.0529572, "lon": 8.2958605}, {"id": 1504787042, "name": "GourmIndia", "amenity": "restaurant", "lat": 47.052581, "lon": 8.2960532}, {"id": 1518396127, "name": "Moosmatt", "amenity": "restaurant", "lat": 47.0396733, "lon": 8.3037669}, {"id": 1518396150, "name": "Habibi's Cafe & Restaurant", "amenity": "restaurant", "lat": 47.0398264, "lon": 8.3045718}, {"id": 1573053790, "name": "Hauptpost Luzern", "amenity": "atm", "lat": 47.0507096, "lon": 8.3089689}, {"id": 1573053816, "name": "Hotel zum Weisses Kreuz", "amenity": "restaurant", "lat": 47.0521207, "lon": 8.3065751}, {"id": 1573053872, "name": "Max", "amenity": "bar", "lat": 47.0488799, "lon": 8.3074642}, {"id": 1573053883, "name": "Hafenbar zur Metzgerhalle", "amenity": "pub", "lat": 47.0514568, "lon": 8.2998603}, {"id": 1573053899, "name": "Zentralbar", "amenity": "bar", "lat": 47.0489038, "lon": 8.3093457}, {"id": 1573053917, "name": "Ristorante Mamma Leone", "amenity": "restaurant", "lat": 47.0521364, "lon": 8.3033674}, {"id": 1573053931, "name": "Starbucks", "amenity": "cafe", "lat": 47.0519817, "lon": 8.3069179}, {"id": 1573053939, "name": "Starbucks", "amenity": "cafe", "lat": 47.0497974, "lon": 8.3090982}, {"id": 1573054312, "name": "Pastarazzi", "amenity": "restaurant", "lat": 47.0497108, "lon": 8.3049239}, {"id": 1604641348, "name": "Mee Marathi", "amenity": "restaurant", "lat": 47.0505484, "lon": 8.3011839}, {"id": 1673659954, "name": "n/a", "amenity": "atm", "lat": 47.0511202, "lon": 8.3021099}, {"id": 1811149663, "name": "Barbès", "amenity": "restaurant", "lat": 47.045985, "lon": 8.30752}, {"id": 1812114919, "name": "Pfistern", "amenity": "restaurant", "lat": 47.0517969, "lon": 8.3058216}, {"id": 1814750677, "name": "Basilico", "amenity": "restaurant", "lat": 47.0470664, "lon": 8.3080462}, {"id": 1814750678, "name": "Da Luni", "amenity": "restaurant", "lat": 47.0470333, "lon": 8.3069406}, {"id": 1814750680, "name": "Korea Town", "amenity": "restaurant", "lat": 47.0475244, "lon": 8.3075926}, {"id": 1814750686, "name": "Wirtshaus Taube", "amenity": "restaurant", "lat": 47.0507215, "lon": 8.3031105}, {"id": 1820561921, "name": "point24", "amenity": "fast_food", "lat": 47.0464889, "lon": 8.307375}, {"id": 1821541393, "name": "Peperoncini", "amenity": "cafe", "lat": 47.0454377, "lon": 8.3037027}, {"id": 1931871414, "name": "Taburettli", "amenity": "cafe", "lat": 47.0490729, "lon": 8.3059069}, {"id": 1939714684, "name": "Boca Grande", "amenity": "bar", "lat": 47.0489776, "lon": 8.3067156}, {"id": 1939744074, "name": "Penthouse", "amenity": "bar", "lat": 47.0481586, "lon": 8.3055261}, {"id": 1939744077, "name": "Mekong", "amenity": "restaurant", "lat": 47.0481843, "lon": 8.3053784}, {"id": 1939744079, "name": "Arlecchino", "amenity": "cafe", "lat": 47.0467197, "lon": 8.3071913}, {"id": 1939744082, "name": "Khoua Vientiane", "amenity": "restaurant", "lat": 47.0477535, "lon": 8.3057646}, {"id": 1939744084, "name": "Coffeeshop", "amenity": "cafe", "lat": 47.0482409, "lon": 8.3055152}, {"id": 1939744089, "name": "Thai Garden", "amenity": "restaurant", "lat": 47.0480892, "lon": 8.3052711}, {"id": 1939744091, "name": "La Cucina", "amenity": "restaurant", "lat": 47.0479172, "lon": 8.3058605}, {"id": 1939744093, "name": "Kaffeekranz", "amenity": "cafe", "lat": 47.0482343, "lon": 8.3066261}, {"id": 1939780067, "name": "BACiO della MAMMA", "amenity": "restaurant", "lat": 47.0498815, "lon": 8.3080345}, {"id": 1939897955, "name": "Luzern Bahnhof", "amenity": "bus_station", "lat": 47.0507045, "lon": 8.309104}, {"id": 1939957748, "name": "Mövenpick Restaurant", "amenity": "restaurant", "lat": 47.0494411, "lon": 8.3064254}, {"id": 1948840778, "name": "Rossini", "amenity": "restaurant", "lat": 47.0507233, "lon": 8.3070246}, {"id": 1948870044, "name": "Daniele Winebar", "amenity": "restaurant", "lat": 47.0466019, "lon": 8.3063238}, {"id": 1948870049, "name": "Kaiten", "amenity": "restaurant", "lat": 47.0467537, "lon": 8.3061958}, {"id": 1948870050, "name": "Angkor Take Away", "amenity": "restaurant", "lat": 47.0468927, "lon": 8.3067295}, {"id": 1948870057, "name": "Stromboli", "amenity": "cafe", "lat": 47.0464101, "lon": 8.3064801}, {"id": 1948873443, "name": "Capitol", "amenity": "pub", "lat": 47.0459313, "lon": 8.3097953}, {"id": 1948873444, "name": "1178", "amenity": "bar", "lat": 47.0472238, "lon": 8.3088619}, {"id": 1948903137, "name": "Privatbank Reichmuth & Co.", "amenity": "bank", "lat": 47.0501823, "lon": 8.3025024}, {"id": 2000559963, "name": "Alfred Caffebar", "amenity": "cafe", "lat": 47.0451386, "lon": 8.3075077}, {"id": 2087723493, "name": "Hotel Des Alpes", "amenity": "restaurant", "lat": 47.0521667, "lon": 8.3075578}, {"id": 2582215105, "name": "Klub Kegelbahn", "amenity": "pub", "lat": 47.052748, "lon": 8.2962946}, {"id": 2583452522, "name": "Vegitat", "amenity": "restaurant", "lat": 47.0422682, "lon": 8.3064155}, {"id": 2583452527, "name": "Kaiten", "amenity": "restaurant", "lat": 47.0427784, "lon": 8.3066577}, {"id": 2621103931, "name": "Matrix", "amenity": "bar", "lat": 47.0473207, "lon": 8.3073968}, {"id": 2696276410, "name": "Vivian", "amenity": "pharmacy", "lat": 47.0466239, "lon": 8.3083898}, {"id": 2704255918, "name": "Restaurant Allmend - Kegelsporthalle", "amenity": "restaurant", "lat": 47.0360968, "lon": 8.3035845}, {"id": 2710885478, "name": "La Terrazza", "amenity": "restaurant", "lat": 47.0516233, "lon": 8.3042486}, {"id": 2775226953, "name": "Heissi Marroni", "amenity": "fast_food", "lat": 47.051731, "lon": 8.3059}, {"id": 3510791186, "name": "Heini", "amenity": "cafe", "lat": 47.0505393, "lon": 8.3090454}, {"id": 3545194707, "name": "Memories of Asia", "amenity": "restaurant", "lat": 47.0469071, "lon": 8.3091355}, {"id": 3562955898, "name": "El Rincón Argentino", "amenity": "restaurant", "lat": 47.0457467, "lon": 8.3060473}, {"id": 3562955900, "name": "Jeff's Burger", "amenity": "restaurant", "lat": 47.0470126, "lon": 8.3080407}, {"id": 3618126911, "name": "Sopranos", "amenity": "bar", "lat": 47.0521067, "lon": 8.3032251}, {"id": 3618126912, "name": "Soul Chicken", "amenity": "restaurant", "lat": 47.0524868, "lon": 8.3039568}, {"id": 3618126915, "name": "Baba oriental", "amenity": "restaurant", "lat": 47.049221, "lon": 8.3078698}, {"id": 3622682583, "name": "Cysat Apotheke", "amenity": "pharmacy", "lat": 47.0492114, "lon": 8.3061459}, {"id": 3622682584, "name": "Neustadt Apotheke", "amenity": "pharmacy", "lat": 47.0454013, "lon": 8.3069846}, {"id": 3657585281, "name": "n/a", "amenity": "atm", "lat": 47.0479337, "lon": 8.3045833}, {"id": 3657585285, "name": "Restaurant Fass", "amenity": "restaurant", "lat": 47.0462823, "lon": 8.3043652}, {"id": 3699596675, "name": "Café Nizza Bar", "amenity": "bar", "lat": 47.0482129, "lon": 8.305887}, {"id": 3699596676, "name": "Pinakarri", "amenity": "cafe", "lat": 47.048923, "lon": 8.3012699}, {"id": 3699596682, "name": "Thai Lanna", "amenity": "restaurant", "lat": 47.0476483, "lon": 8.3021402}, {"id": 3804157266, "name": "Volver", "amenity": "restaurant", "lat": 47.0426619, "lon": 8.3065889}, {"id": 3962549764, "name": "n/a", "amenity": "atm", "lat": 47.0494189, "lon": 8.3068078}, {"id": 3962600149, "name": "Restaurant Rathaus Brauerei", "amenity": "restaurant", "lat": 47.0518673, "lon": 8.306496}, {"id": 3975639459, "name": "Castle's language", "amenity": "school", "lat": 47.0497936, "lon": 8.3051072}, {"id": 3976421563, "name": "Waldstätterhof", "amenity": "restaurant", "lat": 47.0493261, "lon": 8.3091699}, {"id": 3976421659, "name": "by neville's indian dining", "amenity": "restaurant", "lat": 47.0464309, "lon": 8.3064424}, {"id": 3981886478, "name": "Twiny-Station", "amenity": "fast_food", "lat": 47.0521878, "lon": 8.3045272}, {"id": 4003343427, "name": "Hinicht", "amenity": "bar", "lat": 47.0468825, "lon": 8.3050851}, {"id": 4003553190, "name": "Casa N°1", "amenity": "restaurant", "lat": 47.0429195, "lon": 8.3038464}, {"id": 4004257615, "name": "n/a", "amenity": "parking", "lat": 47.046599, "lon": 8.3036954}, {"id": 4004257815, "name": "Western Union", "amenity": "bank", "lat": 47.0481082, "lon": 8.3028634}, {"id": 4004257915, "name": "Tandoori Indian", "amenity": "restaurant", "lat": 47.0480304, "lon": 8.3029513}, {"id": 4004258204, "name": "Eva Kebab", "amenity": "fast_food", "lat": 47.047824, "lon": 8.3029425}, {"id": 4004258900, "name": "kostbar", "amenity": "bar", "lat": 47.0466715, "lon": 8.3047733}, {"id": 4005592587, "name": "n/a", "amenity": "atm", "lat": 47.0494775, "lon": 8.306515}, {"id": 4036285591, "name": "Valiant", "amenity": "bank", "lat": 47.047833, "lon": 8.3046518}, {"id": 4043374991, "name": "Astoria", "amenity": "parking", "lat": 47.047852, "lon": 8.3054265}, {"id": 4046612772, "name": "Tavolino", "amenity": "restaurant", "lat": 47.0422482, "lon": 8.3061022}, {"id": 4097156591, "name": "Filou & Bengel", "amenity": "bar", "lat": 47.0489092, "lon": 8.3084321}, {"id": 4119726827, "name": "Vincafe La Barca", "amenity": "restaurant", "lat": 47.0517732, "lon": 8.3056651}, {"id": 4119726828, "name": "Schiff Bar", "amenity": "pub", "lat": 47.0516926, "lon": 8.3052967}, {"id": 4119726833, "name": "pizzeria Valentino", "amenity": "restaurant", "lat": 47.0516907, "lon": 8.304673}, {"id": 4120518873, "name": "Balances", "amenity": "restaurant", "lat": 47.0515458, "lon": 8.304745}, {"id": 4120523387, "name": "Da Ernesto", "amenity": "restaurant", "lat": 47.0519618, "lon": 8.3066191}, {"id": 4209111886, "name": "Raedwulf", "amenity": "pub", "lat": 47.0493831, "lon": 8.3025083}, {"id": 4209113529, "name": "La Terazza", "amenity": "restaurant", "lat": 47.0514272, "lon": 8.3043068}, {"id": 4209128492, "name": "Bar León", "amenity": "bar", "lat": 47.049503, "lon": 8.3023446}, {"id": 4209149906, "name": "Oh Wow! Thai Take Away", "amenity": "fast_food", "lat": 47.0519799, "lon": 8.3043273}, {"id": 4209158694, "name": "HSO Wirtschaftschule Schweiz", "amenity": "school", "lat": 47.0519413, "lon": 8.3041233}, {"id": 4209158695, "name": "Fondue House Du Pont", "amenity": "restaurant", "lat": 47.0517122, "lon": 8.3048965}, {"id": 4228789591, "name": "Terassen-café", "amenity": "cafe", "lat": 47.0504795, "lon": 8.3029585}, {"id": 4228812790, "name": "Restaurant Ammos", "amenity": "restaurant", "lat": 47.0509927, "lon": 8.3026263}, {"id": 4254739708, "name": "Pura", "amenity": "cafe", "lat": 47.0522144, "lon": 8.3070417}, {"id": 4278117395, "name": "Bistro Krienbrüggli", "amenity": "bar", "lat": 47.0504639, "lon": 8.3027723}, {"id": 4278117397, "name": "Notenstein La Roche", "amenity": "bank", "lat": 47.0520537, "lon": 8.3028679}, {"id": 4278118098, "name": "Mill’Feuille", "amenity": "restaurant", "lat": 47.0518333, "lon": 8.303224}, {"id": 4278123391, "name": "Restaurant Ammos", "amenity": "restaurant", "lat": 47.050884, "lon": 8.302492}, {"id": 4281894994, "name": "Rokka Café & Bar", "amenity": "restaurant", "lat": 47.0523176, "lon": 8.304705}, {"id": 4335163549, "name": "BAYTS", "amenity": "restaurant", "lat": 47.0417709, "lon": 8.305903}, {"id": 4403448368, "name": "Panda", "amenity": "fast_food", "lat": 47.0430564, "lon": 8.3118224}, {"id": 4403448379, "name": "Zur Werkstatt", "amenity": "restaurant", "lat": 47.0466662, "lon": 8.3093166}, {"id": 4484721293, "name": "Aurum", "amenity": "cafe", "lat": 47.049108, "lon": 8.3007613}, {"id": 4842509623, "name": "Asian Takeaway", "amenity": "restaurant", "lat": 47.03976, "lon": 8.3037657}, {"id": 4872027292, "name": "Tacuba", "amenity": "cafe", "lat": 47.038658, "lon": 8.3007294}, {"id": 5018129623, "name": "Made in Sud", "amenity": "fast_food", "lat": 47.0470738, "lon": 8.3038339}, {"id": 5092854082, "name": "Neubad Bistro", "amenity": "restaurant", "lat": 47.0412775, "lon": 8.3070569}, {"id": 5282412594, "name": "Gardist", "amenity": "bar", "lat": 47.0419264, "lon": 8.3053938}, {"id": 5428908522, "name": "Karls Kraut", "amenity": "restaurant", "lat": 47.0525099, "lon": 8.3015176}, {"id": 5577858833, "name": "Röntgeninstitut Medical Imaging Luzern", "amenity": "clinic", "lat": 47.0506304, "lon": 8.3069199}, {"id": 5600768221, "name": "Kaspar", "amenity": "bar", "lat": 47.0485107, "lon": 8.3063809}, {"id": 5695175222, "name": "La Bestia - Pizza Pizza", "amenity": "restaurant", "lat": 47.0492516, "lon": 8.3083775}, {"id": 5732675469, "name": "Falkens's Burger & Pizza", "amenity": "fast_food", "lat": 47.0490122, "lon": 8.3008805}, {"id": 5732675482, "name": "Sky Asia Take Away", "amenity": "fast_food", "lat": 47.0468952, "lon": 8.3081157}, {"id": 5779570178, "name": "melissa‘s kitchen", "amenity": "cafe", "lat": 47.0486241, "lon": 8.3030225}, {"id": 5784576354, "name": "ViaExpress", "amenity": "bank", "lat": 47.0490943, "lon": 8.3053284}, {"id": 5784608753, "name": "Die Kneipe", "amenity": "pub", "lat": 47.0495838, "lon": 8.3013291}, {"id": 5796501954, "name": "Ravioli Bar", "amenity": "bar", "lat": 47.0487033, "lon": 8.3065774}, {"id": 5799257253, "name": "Pastillo", "amenity": "restaurant", "lat": 47.0433049, "lon": 8.3134408}, {"id": 5836796342, "name": "Dieci Pizzakurier", "amenity": "fast_food", "lat": 47.045078, "lon": 8.3036813}, {"id": 5859106086, "name": "Modomio", "amenity": "restaurant", "lat": 47.0526864, "lon": 8.3011319}, {"id": 5878025187, "name": "Banh Mi Pho", "amenity": "restaurant", "lat": 47.0521803, "lon": 8.3067103}, {"id": 5893245286, "name": "Don Feri", "amenity": "restaurant", "lat": 47.0426139, "lon": 8.3037411}, {"id": 5912237586, "name": "P&M Kurslokal", "amenity": "school", "lat": 47.0451363, "lon": 8.3098122}, {"id": 5912251485, "name": "Nour", "amenity": "restaurant", "lat": 47.0420619, "lon": 8.310772}, {"id": 5981208785, "name": "Kostgeberei", "amenity": "restaurant", "lat": 47.0418295, "lon": 8.3048778}, {"id": 6010337887, "name": "Pacifico", "amenity": "restaurant", "lat": 47.0490347, "lon": 8.3069359}, {"id": 6205585186, "name": "Indian Restaurant Luzern", "amenity": "restaurant", "lat": 47.0434863, "lon": 8.3038132}, {"id": 6417865487, "name": "Erwins Imbiss Stube", "amenity": "fast_food", "lat": 47.0403235, "lon": 8.3096012}, {"id": 6419146487, "name": "Mardi Gras", "amenity": "cafe", "lat": 47.0506531, "lon": 8.3030802}, {"id": 6419146489, "name": "Kaffee Kind", "amenity": "bar", "lat": 47.0525499, "lon": 8.2961114}, {"id": 6419241048, "name": "Bierliebe & Friends", "amenity": "pub", "lat": 47.0519701, "lon": 8.3068258}, {"id": 6477069185, "name": "Holy Cow", "amenity": "fast_food", "lat": 47.0495893, "lon": 8.3082366}, {"id": 6496050486, "name": "The Blossom Alley", "amenity": "restaurant", "lat": 47.0494886, "lon": 8.3089632}, {"id": 6651536785, "name": "milano bar", "amenity": "bar", "lat": 47.048899, "lon": 8.305284}, {"id": 6651540085, "name": "small world Money Transfer", "amenity": "bank", "lat": 47.0490216, "lon": 8.3059563}, {"id": 6700463195, "name": "Mini Food", "amenity": "fast_food", "lat": 47.0480893, "lon": 8.302892}, {"id": 6886585085, "name": "Café Chapeau", "amenity": "cafe", "lat": 47.0504968, "lon": 8.3037452}, {"id": 6944692327, "name": "Pastarazzi", "amenity": "restaurant", "lat": 47.043666, "lon": 8.3063453}, {"id": 6944692329, "name": "Majorelle", "amenity": "cafe", "lat": 47.0444172, "lon": 8.3058223}, {"id": 7075250585, "name": "l‘arbre", "amenity": "bar", "lat": 47.0473095, "lon": 8.3067358}, {"id": 7099602886, "name": "ductus", "amenity": "cafe", "lat": 47.0507554, "lon": 8.2986771}, {"id": 7197807887, "name": "WIR Bank", "amenity": "bank", "lat": 47.0422371, "lon": 8.302409}, {"id": 7606484986, "name": "Café Nord", "amenity": "cafe", "lat": 47.0450638, "lon": 8.3065323}, {"id": 7658200285, "name": "Sauvage", "amenity": "restaurant", "lat": 47.0503087, "lon": 8.3030285}, {"id": 7666762522, "name": "Arepa", "amenity": "restaurant", "lat": 47.0429212, "lon": 8.3118453}, {"id": 7772333565, "name": "Joe & The Juice", "amenity": "cafe", "lat": 47.0501323, "lon": 8.3103529}, {"id": 7856693585, "name": "Kommod", "amenity": "restaurant", "lat": 47.0508255, "lon": 8.2999768}, {"id": 7935119891, "name": "Daruma", "amenity": "restaurant", "lat": 47.0500367, "lon": 8.3028382}, {"id": 7947457680, "name": "Wild Bowls", "amenity": "restaurant", "lat": 47.0494118, "lon": 8.3066396}, {"id": 8007326785, "name": "n/a", "amenity": "cafe", "lat": 47.0517108, "lon": 8.3047664}, {"id": 8109010670, "name": "Liebenau", "amenity": "bar", "lat": 47.0500065, "lon": 8.3029627}, {"id": 8213649717, "name": "Café Tacuba", "amenity": "cafe", "lat": 47.0475037, "lon": 8.3072101}, {"id": 8572860018, "name": "PURA", "amenity": "restaurant", "lat": 47.0522161, "lon": 8.3070625}, {"id": 8645066215, "name": "Café Vista", "amenity": "cafe", "lat": 47.0499625, "lon": 8.3054628}, {"id": 8725697611, "name": "Berufsbildungszentrum Bau und Gewerbe", "amenity": "school", "lat": 47.0486294, "lon": 8.3113661}, {"id": 9105812367, "name": "Two Hands", "amenity": "cafe", "lat": 47.0460843, "lon": 8.3077308}, {"id": 9105819660, "name": "Glou", "amenity": "cafe", "lat": 47.0458862, "lon": 8.3066548}, {"id": 9127970245, "name": "meinRad", "amenity": "fast_food", "lat": 47.0400625, "lon": 8.3042059}, {"id": 9142809617, "name": "Krienbrüggli", "amenity": "restaurant", "lat": 47.0504808, "lon": 8.3027918}, {"id": 9198050996, "name": "Go Tacos", "amenity": "fast_food", "lat": 47.0458792, "lon": 8.3086228}, {"id": 9245783985, "name": "Kaffeekranz", "amenity": "cafe", "lat": 47.0436289, "lon": 8.3060778}, {"id": 9387163160, "name": "Benu", "amenity": "pharmacy", "lat": 47.0503083, "lon": 8.3098961}, {"id": 9521436310, "name": "Parkhaus Hirzenmatt", "amenity": "parking", "lat": 47.0469387, "lon": 8.3066768}, {"id": 9725661139, "name": "Bibliothek der Hochschule Luzern", "amenity": "library", "lat": 47.0490943, "lon": 8.3086063}, {"id": 9770493141, "name": "Maison Bardot", "amenity": "bar", "lat": 47.0471224, "lon": 8.3075352}, {"id": 9853413426, "name": "n/a", "amenity": "parking", "lat": 47.0395682, "lon": 8.3114146}, {"id": 9853543000, "name": "n/a", "amenity": "parking", "lat": 47.0430242, "lon": 8.3125918}, {"id": 9853543001, "name": "n/a", "amenity": "parking", "lat": 47.0431095, "lon": 8.3121836}, {"id": 9853543002, "name": "n/a", "amenity": "parking", "lat": 47.0435004, "lon": 8.3124802}, {"id": 9853543003, "name": "n/a", "amenity": "parking", "lat": 47.0433923, "lon": 8.3126802}, {"id": 9853543004, "name": "n/a", "amenity": "parking", "lat": 47.043473, "lon": 8.3129054}, {"id": 9853543005, "name": "n/a", "amenity": "parking", "lat": 47.0432389, "lon": 8.3127605}, {"id": 9853543006, "name": "n/a", "amenity": "parking", "lat": 47.0431494, "lon": 8.3128054}, {"id": 9853543007, "name": "n/a", "amenity": "parking", "lat": 47.0429779, "lon": 8.3126972}, {"id": 9853543008, "name": "n/a", "amenity": "parking", "lat": 47.0428239, "lon": 8.3125966}, {"id": 9964531359, "name": "Mairübe", "amenity": "restaurant", "lat": 47.0455094, "lon": 8.309363}, {"id": 9998231839, "name": "Asociación de Inválidos y Pensionistas Españoles de Lucerna", "amenity": "restaurant", "lat": 47.0448222, "lon": 8.3114812}, {"id": 10028756221, "name": "Brasserie Bodu", "amenity": "restaurant", "lat": 47.0519537, "lon": 8.3057274}, {"id": 10029186399, "name": "Chemineé", "amenity": "bar", "lat": 47.0508862, "lon": 8.3021112}, {"id": 10116032018, "name": "n/a", "amenity": "parking", "lat": 47.0471592, "lon": 8.3054565}, {"id": 10116032019, "name": "n/a", "amenity": "parking", "lat": 47.0472541, "lon": 8.3056869}, {"id": 10116032020, "name": "n/a", "amenity": "parking", "lat": 47.0472161, "lon": 8.3057343}, {"id": 10116032022, "name": "n/a", "amenity": "parking", "lat": 47.0469948, "lon": 8.3050399}, {"id": 10116032023, "name": "n/a", "amenity": "parking", "lat": 47.0466471, "lon": 8.3051742}, {"id": 10116032024, "name": "n/a", "amenity": "parking", "lat": 47.0464917, "lon": 8.3053149}, {"id": 10116032025, "name": "n/a", "amenity": "parking", "lat": 47.0463908, "lon": 8.305264}, {"id": 10116032026, "name": "n/a", "amenity": "parking", "lat": 47.0460496, "lon": 8.305142}, {"id": 10116032027, "name": "n/a", "amenity": "parking", "lat": 47.0459225, "lon": 8.3050267}, {"id": 10116032028, "name": "n/a", "amenity": "parking", "lat": 47.0459749, "lon": 8.3051544}, {"id": 10116032029, "name": "n/a", "amenity": "parking", "lat": 47.0460469, "lon": 8.3053398}, {"id": 10116032030, "name": "n/a", "amenity": "parking", "lat": 47.0458578, "lon": 8.3057303}, {"id": 10116032031, "name": "n/a", "amenity": "parking", "lat": 47.0460072, "lon": 8.3055963}, {"id": 10116032032, "name": "n/a", "amenity": "parking", "lat": 47.0460415, "lon": 8.3056885}, {"id": 10116032033, "name": "n/a", "amenity": "parking", "lat": 47.0459031, "lon": 8.3058049}, {"id": 10116032034, "name": "n/a", "amenity": "parking", "lat": 47.0457647, "lon": 8.305917}, {"id": 10116032035, "name": "n/a", "amenity": "parking", "lat": 47.0456963, "lon": 8.3054307}, {"id": 10116032037, "name": "n/a", "amenity": "parking", "lat": 47.0451353, "lon": 8.305739}, {"id": 10116032038, "name": "n/a", "amenity": "parking", "lat": 47.0444614, "lon": 8.3054399}, {"id": 10116032039, "name": "n/a", "amenity": "parking", "lat": 47.0449278, "lon": 8.306422}, {"id": 10116032040, "name": "n/a", "amenity": "parking", "lat": 47.0448517, "lon": 8.3065346}, {"id": 10116032041, "name": "n/a", "amenity": "parking", "lat": 47.0447144, "lon": 8.3061874}, {"id": 10606239342, "name": "Bildungszentrum Luzern", "amenity": "school", "lat": 47.0504929, "lon": 8.3090903}, {"id": 10649888805, "name": "Old City Take Away", "amenity": "fast_food", "lat": 47.0507268, "lon": 8.302389}, {"id": 10931462049, "name": "n/a", "amenity": "parking", "lat": 47.0418415, "lon": 8.312042}, {"id": 10931462050, "name": "n/a", "amenity": "parking", "lat": 47.0418895, "lon": 8.3120068}, {"id": 10931462051, "name": "n/a", "amenity": "parking", "lat": 47.04184, "lon": 8.3115676}, {"id": 10931462052, "name": "n/a", "amenity": "parking", "lat": 47.0419416, "lon": 8.3105646}, {"id": 10931462053, "name": "n/a", "amenity": "parking", "lat": 47.041706, "lon": 8.3102819}, {"id": 10931462054, "name": "n/a", "amenity": "parking", "lat": 47.041142, "lon": 8.3097369}, {"id": 10931462055, "name": "n/a", "amenity": "parking", "lat": 47.040681, "lon": 8.3099858}, {"id": 10931462056, "name": "n/a", "amenity": "parking", "lat": 47.0403041, "lon": 8.3092431}, {"id": 10983863623, "name": "n/a", "amenity": "atm", "lat": 47.0527457, "lon": 8.2961834}, {"id": 11034722043, "name": "Suite small plates & cocktails", "amenity": "bar", "lat": 47.0498465, "lon": 8.3088815}, {"id": 11064369023, "name": "n/a", "amenity": "parking", "lat": 47.047652, "lon": 8.3068071}, {"id": 11064369024, "name": "n/a", "amenity": "parking", "lat": 47.0477576, "lon": 8.3069284}, {"id": 11064369025, "name": "n/a", "amenity": "parking", "lat": 47.047603, "lon": 8.3065345}, {"id": 11064369026, "name": "n/a", "amenity": "parking", "lat": 47.0474157, "lon": 8.306077}, {"id": 11109086620, "name": "Raiffeisen", "amenity": "bank", "lat": 47.0508091, "lon": 8.3076161}, {"id": 11212318944, "name": "Yunnan Tea House", "amenity": "cafe", "lat": 47.0507583, "lon": 8.3025649}, {"id": 11283289566, "name": "Moderne Bar & Karussell", "amenity": "bar", "lat": 47.0484739, "lon": 8.3060088}, {"id": 11608216204, "name": "n/a", "amenity": "parking", "lat": 47.0421685, "lon": 8.3068721}, {"id": 11804249665, "name": "Abi's Luzern Kebab", "amenity": "restaurant", "lat": 47.0498138, "lon": 8.307015}, {"id": 12193139160, "name": "Taberna Latina", "amenity": "restaurant", "lat": 47.0433432, "lon": 8.3037722}, {"id": 12285530163, "name": "Burgerstube", "amenity": "restaurant", "lat": 47.0502939, "lon": 8.303115}, {"id": 12384207937, "name": "Café Tacuba Eichwald", "amenity": "cafe", "lat": 47.037062, "lon": 8.3013064}, {"id": 12657003282, "name": "just a little brewpub", "amenity": "bar", "lat": 47.0497286, "lon": 8.3066015}, {"id": 12663198311, "name": "Incline Concept Store", "amenity": "restaurant", "lat": 47.0434264, "lon": 8.3065951}, {"id": 12671904233, "name": "n/a", "amenity": "atm", "lat": 47.0501326, "lon": 8.3097972}, {"id": 12673368901, "name": "Helen", "amenity": "restaurant", "lat": 47.0437605, "lon": 8.3084862}]}
