{"address": "Bläsiring 10, 4057 Basel", "price": 2880, "property_id": 4002065802, "area": "115m²", "rooms": 4.5, "lat": 47.5683969, "lon": 7.5871397, "amenities": [{"id": 71525383, "name": "Buvette Dreirosen", "amenity": "pub", "lat": 47.5694909, "lon": 7.5863581}, {"id": 71525553, "name": "Firenze", "amenity": "restaurant", "lat": 47.5692427, "lon": 7.5944428}, {"id": 71525557, "name": "Kiki Bar", "amenity": "pub", "lat": 47.5692456, "lon": 7.5941997}, {"id": 71525563, "name": "Cloves", "amenity": "restaurant", "lat": 47.5692033, "lon": 7.5913551}, {"id": 71525570, "name": "Senat Maki's", "amenity": "cafe", "lat": 47.5692456, "lon": 7.5938822}, {"id": 71525579, "name": "DejaVu", "amenity": "pub", "lat": 47.5694062, "lon": 7.5901309}, {"id": 71525588, "name": "Pizzeria Breisacherhof", "amenity": "restaurant", "lat": 47.5698877, "lon": 7.5916214}, {"id": 71525604, "name": "Eintracht", "amenity": "restaurant", "lat": 47.5675379, "lon": 7.5903738}, {"id": 71525611, "name": "Gatto Nero", "amenity": "restaurant", "lat": 47.5677788, "lon": 7.5906834}, {"id": 122336608, "name": "Delfin", "amenity": "restaurant", "lat": 47.5665578, "lon": 7.5917694}, {"id": 122336670, "name": "Chez Donati", "amenity": "restaurant", "lat": 47.5642081, "lon": 7.5841104}, {"id": 122337395, "name": "Parterre One", "amenity": "restaurant", "lat": 47.5637639, "lon": 7.591176}, {"id": 122626753, "name": "Cargo Bar", "amenity": "pub", "lat": 47.5641143, "lon": 7.5843179}, {"id": 138310840, "name": "Brombi", "amenity": "restaurant", "lat": 47.5705197, "lon": 7.5962519}, {"id": 254097107, "name": "Da Graziella", "amenity": "cafe", "lat": 47.5664559, "lon": 7.5928691}, {"id": 262502093, "name": "Acero", "amenity": "cafe", "lat": 47.5659948, "lon": 7.5941398}, {"id": 315128008, "name": "Sport Pub Milan", "amenity": "pub", "lat": 47.5689609, "lon": 7.5948146}, {"id": 585023412, "name": "Klybeck Apotheke", "amenity": "pharmacy", "lat": 47.5656841, "lon": 7.591063}, {"id": 585046279, "name": "Didi Bar", "amenity": "cafe", "lat": 47.5656436, "lon": 7.5934442}, {"id": 585047863, "name": "Saint Tropez", "amenity": "cafe", "lat": 47.5651584, "lon": 7.5940531}, {"id": 585055185, "name": "Clara", "amenity": "cafe", "lat": 47.5644905, "lon": 7.592551}, {"id": 585056537, "name": "Klybeck Casino", "amenity": "restaurant", "lat": 47.5644661, "lon": 7.5916896}, {"id": 585133165, "name": "Lauch", "amenity": "restaurant", "lat": 47.5632537, "lon": 7.592183}, {"id": 1028007577, "name": "Antik Café Bar", "amenity": "cafe", "lat": 47.5690588, "lon": 7.5902334}, {"id": 1430898779, "name": "Bon Gout", "amenity": "restaurant", "lat": 47.566215, "lon": 7.5913795}, {"id": 1430901108, "name": "Taste of Mykonos", "amenity": "restaurant", "lat": 47.5660236, "lon": 7.5909437}, {"id": 1517612070, "name": "Bläsi Apotheke", "amenity": "pharmacy", "lat": 47.5674348, "lon": 7.5903846}, {"id": 1518116717, "name": "n/a", "amenity": "parking", "lat": 47.566533, "lon": 7.5897838}, {"id": 1518116722, "name": "n/a", "amenity": "parking", "lat": 47.5665619, "lon": 7.5899064}, {"id": 1518116885, "name": "n/a", "amenity": "parking", "lat": 47.5670829, "lon": 7.5903386}, {"id": 1518116928, "name": "n/a", "amenity": "parking", "lat": 47.5672126, "lon": 7.5899315}, {"id": 1518116956, "name": "n/a", "amenity": "parking", "lat": 47.5673091, "lon": 7.5902186}, {"id": 1520062898, "name": "Alpenblick", "amenity": "bar", "lat": 47.5659372, "lon": 7.5909695}, {"id": 1529984092, "name": "RiiBistro", "amenity": "restaurant", "lat": 47.5705632, "lon": 7.5868666}, {"id": 1576603312, "name": "EG Lounge", "amenity": "bar", "lat": 47.5636906, "lon": 7.5910618}, {"id": 1592876743, "name": "Don Pincho", "amenity": "restaurant", "lat": 47.5645204, "lon": 7.5840604}, {"id": 1667377095, "name": "St. Johann Apotheke", "amenity": "pharmacy", "lat": 47.5644741, "lon": 7.5838729}, {"id": 2381403698, "name": "Café frühling", "amenity": "cafe", "lat": 47.5677589, "lon": 7.5903535}, {"id": 2971278569, "name": "n/a", "amenity": "atm", "lat": 47.568672, "lon": 7.5897794}, {"id": 2971278570, "name": "n/a", "amenity": "atm", "lat": 47.5711378, "lon": 7.5774614}, {"id": 2984213160, "name": "Oetlinger-Buvette", "amenity": "bar", "lat": 47.5670666, "lon": 7.58652}, {"id": 2987527171, "name": "KABAR", "amenity": "bar", "lat": 47.5636143, "lon": 7.5908456}, {"id": 3207784739, "name": "Rössli", "amenity": "restaurant", "lat": 47.5700863, "lon": 7.596641}, {"id": 3207784808, "name": "Nordbar", "amenity": "bar", "lat": 47.5704484, "lon": 7.5955243}, {"id": 3207784844, "name": "Che que lomo", "amenity": "restaurant", "lat": 47.5705566, "lon": 7.594893}, {"id": 3207784886, "name": "GGG Stadtbibliothek Bläsi", "amenity": "library", "lat": 47.5687038, "lon": 7.591119}, {"id": 3207784899, "name": "Habesha", "amenity": "restaurant", "lat": 47.5701487, "lon": 7.596197}, {"id": 3208777742, "name": "Lu", "amenity": "fast_food", "lat": 47.5662885, "lon": 7.5918563}, {"id": 3751874033, "name": "Vegitat", "amenity": "fast_food", "lat": 47.5656938, "lon": 7.5913352}, {"id": 3758773688, "name": "La Fourchette", "amenity": "restaurant", "lat": 47.5680679, "lon": 7.5905993}, {"id": 3758796724, "name": "Gemeinsam Café", "amenity": "cafe", "lat": 47.5698858, "lon": 7.5910258}, {"id": 3972102127, "name": "Friends Bar", "amenity": "bar", "lat": 47.5663064, "lon": 7.5907055}, {"id": 4031088875, "name": "Volta Bräu", "amenity": "bar", "lat": 47.5709666, "lon": 7.5795463}, {"id": 4031101008, "name": "Escape Bar", "amenity": "bar", "lat": 47.5704112, "lon": 7.5780681}, {"id": 4064658548, "name": "Valentino's Place", "amenity": "restaurant", "lat": 47.5658489, "lon": 7.590881}, {"id": 4064658549, "name": "Flore", "amenity": "bar", "lat": 47.5648065, "lon": 7.5912772}, {"id": 4064660679, "name": "Didi Offensiv - Fussballkulturbar", "amenity": "bar", "lat": 47.5656871, "lon": 7.5893309}, {"id": 4166045869, "name": "Internetcafé Planet13", "amenity": "cafe", "lat": 47.56559, "lon": 7.5913444}, {"id": 4264494738, "name": "Johanniter Café - Bar", "amenity": "bar", "lat": 47.5645288, "lon": 7.5834065}, {"id": 4371220437, "name": "Flora Buvette", "amenity": "fast_food", "lat": 47.5638697, "lon": 7.5879839}, {"id": 4377355191, "name": "Rhy Imbiss", "amenity": "restaurant", "lat": 47.5644225, "lon": 7.5834944}, {"id": 4377355289, "name": "Somara", "amenity": "fast_food", "lat": 47.5643678, "lon": 7.5835345}, {"id": 4665834588, "name": "Astro Fries", "amenity": "fast_food", "lat": 47.5664318, "lon": 7.5925697}, {"id": 4975887622, "name": "MamaEat", "amenity": "fast_food", "lat": 47.5636831, "lon": 7.5825906}, {"id": 5477492770, "name": "Zum Eck", "amenity": "bar", "lat": 47.5633475, "lon": 7.5830139}, {"id": 6780094234, "name": "n/a", "amenity": "atm", "lat": 47.5661075, "lon": 7.5909485}, {"id": 7683239068, "name": "VITO Klybeck", "amenity": "restaurant", "lat": 47.5672076, "lon": 7.5908596}, {"id": 7683254632, "name": "Fujin Sushi bar", "amenity": "restaurant", "lat": 47.567279, "lon": 7.5908338}, {"id": 7747174184, "name": "Pizzeria Da Pia", "amenity": "restaurant", "lat": 47.5709099, "lon": 7.5920312}, {"id": 7747207685, "name": "Drei Rosen", "amenity": "restaurant", "lat": 47.570532, "lon": 7.5905079}, {"id": 7773338162, "name": "OFF", "amenity": "bar", "lat": 47.5693615, "lon": 7.5899974}, {"id": 7778233544, "name": "BrauBudeBasel", "amenity": "bar", "lat": 47.567672, "lon": 7.5918704}, {"id": 7784095493, "name": "Globâle", "amenity": "restaurant", "lat": 47.562871, "lon": 7.5937258}, {"id": 7784095495, "name": "Whisky Bar", "amenity": "cafe", "lat": 47.5647535, "lon": 7.592706}, {"id": 7784095496, "name": "Concordia", "amenity": "restaurant", "lat": 47.5655363, "lon": 7.5920557}, {"id": 7784095498, "name": "Rouine", "amenity": "bar", "lat": 47.5666217, "lon": 7.5924914}, {"id": 7806657986, "name": "Lyz Bar & Lounge", "amenity": "bar", "lat": 47.5702979, "lon": 7.5782148}, {"id": 7809972322, "name": "Boo", "amenity": "restaurant", "lat": 47.5670345, "lon": 7.5909027}, {"id": 7809972323, "name": "The Kebab Factory", "amenity": "fast_food", "lat": 47.5680175, "lon": 7.5903641}, {"id": 7809972326, "name": "Savanna", "amenity": "restaurant", "lat": 47.5692168, "lon": 7.5912968}, {"id": 7995309310, "name": "Pizza Picassso", "amenity": "restaurant", "lat": 47.5694979, "lon": 7.5901783}, {"id": 8010710188, "name": "Chanthaburi", "amenity": "restaurant", "lat": 47.56648, "lon": 7.5916548}, {"id": 8012279898, "name": "Sultan Saray", "amenity": "fast_food", "lat": 47.5664562, "lon": 7.5914046}, {"id": 8012279900, "name": "VeggEast", "amenity": "fast_food", "lat": 47.565946, "lon": 7.5897567}, {"id": 8500247484, "name": "Pizzeria La Perla", "amenity": "restaurant", "lat": 47.5653483, "lon": 7.595655}, {"id": 8806220782, "name": "Dreirosen Apotheke", "amenity": "pharmacy", "lat": 47.5689793, "lon": 7.5906307}, {"id": 8909393066, "name": "PaSiWo", "amenity": "restaurant", "lat": 47.5633469, "lon": 7.5921254}, {"id": 8909431468, "name": "Finkmüller", "amenity": "cafe", "lat": 47.5658557, "lon": 7.5912746}, {"id": 9007960432, "name": "Pizza Maestro", "amenity": "fast_food", "lat": 47.5656888, "lon": 7.5878454}, {"id": 9350106079, "name": "Empanadas", "amenity": "restaurant", "lat": 47.5629072, "lon": 7.5918759}, {"id": 9482868955, "name": "Detto Pronto", "amenity": "fast_food", "lat": 47.5705037, "lon": 7.5952502}, {"id": 9748222017, "name": "Aktienmühle", "amenity": "cafe", "lat": 47.5759624, "lon": 7.5913195}, {"id": 9905309814, "name": "Choi Asian Garden", "amenity": "restaurant", "lat": 47.5658897, "lon": 7.5886535}, {"id": 9932434117, "name": "The Siam Delicious", "amenity": "fast_food", "lat": 47.5662091, "lon": 7.5912098}, {"id": 10031814189, "name": "Singh Indische Spezialitäten", "amenity": "restaurant", "lat": 47.5659985, "lon": 7.588767}, {"id": 10031814202, "name": "Multi Kitchen Markthalle Feldberg", "amenity": "fast_food", "lat": 47.5656705, "lon": 7.5877496}, {"id": 10031814204, "name": "Messo Burger", "amenity": "fast_food", "lat": 47.5656439, "lon": 7.5876608}, {"id": 10031838986, "name": "walther bistrobar", "amenity": "restaurant", "lat": 47.5629813, "lon": 7.5890317}, {"id": 10031838987, "name": "Bar Amber", "amenity": "bar", "lat": 47.5623417, "lon": 7.5895046}, {"id": 10114569529, "name": "Libelle", "amenity": "restaurant", "lat": 47.5706283, "lon": 7.57748}, {"id": 10606713507, "name": "Lu", "amenity": "fast_food", "lat": 47.5663068, "lon": 7.5918813}, {"id": 11876754508, "name": "daniska", "amenity": "cafe", "lat": 47.5654942, "lon": 7.5880503}, {"id": 12000710869, "name": "Chanthabury", "amenity": "restaurant", "lat": 47.566474, "lon": 7.5916367}, {"id": 12374353061, "name": "Värdex Crypto ATM", "amenity": "atm", "lat": 47.5710044, "lon": 7.5768627}, {"id": 12374357989, "name": "Värdex Crypto ATM", "amenity": "atm", "lat": 47.5661956, "lon": 7.5900746}]}
{"address": "Erlenmattstr. 75, 4058 Basel", "price": 2880, "property_id": 4002039809, "area": "115m²", "rooms": 4.5, "lat": 47.5705088, "lon": 7.6031744, "amenities": [{"id": 71525550, "name": "Restaurant Zum Wilde Maa", "amenity": "restaurant", "lat": 47.5679494, "lon": 7.595093}, {"id": 138310840, "name": "Brombi", "amenity": "restaurant", "lat": 47.5705197, "lon": 7.5962519}, {"id": 254097107, "name": "Da Graziella", "amenity": "cafe", "lat": 47.5664559, "lon": 7.5928691}, {"id": 260266425, "name": "Café Braam's", "amenity": "cafe", "lat": 47.5813861, "lon": 7.5935875}, {"id": 262502093, "name": "Acero", "amenity": "cafe", "lat": 47.5659948, "lon": 7.5941398}, {"id": 266810611, "name": "Zur Schwarzen Kunst", "amenity": "restaurant", "lat": 47.5761915, "lon": 7.5974297}, {"id": 273223637, "name": "Vogelsangschulhaus", "amenity": "school", "lat": 47.5633774, "lon": 7.6084402}, {"id": 276546395, "name": "n/a", "amenity": "parking", "lat": 47.5698379, "lon": 7.6131159}, {"id": 315128008, "name": "Sport Pub Milan", "amenity": "pub", "lat": 47.5689609, "lon": 7.5948146}, {"id": 493149217, "name": "Basler Kantonalbank", "amenity": "bank", "lat": 47.5664339, "lon": 7.6066374}, {"id": 529593919, "name": "Maulbeergrill", "amenity": "fast_food", "lat": 47.5676143, "lon": 7.6023449}, {"id": 590051414, "name": "Thai Family", "amenity": "restaurant", "lat": 47.5653158, "lon": 7.605048}, {"id": 590084594, "name": "Hong Kong", "amenity": "restaurant", "lat": 47.5651063, "lon": 7.5981445}, {"id": 592182051, "name": "Café Charlotte", "amenity": "cafe", "lat": 47.5648516, "lon": 7.6033861}, {"id": 796765566, "name": "Isbilir", "amenity": "fast_food", "lat": 47.5671452, "lon": 7.5952952}, {"id": 1385293549, "name": "n/a", "amenity": "atm", "lat": 47.5662743, "lon": 7.6136237}, {"id": 1668864827, "name": "Café Siesta", "amenity": "cafe", "lat": 47.5690053, "lon": 7.5965148}, {"id": 1668864832, "name": "Musical Bar", "amenity": "pub", "lat": 47.5690036, "lon": 7.5973736}, {"id": 1668865164, "name": "Schule für Gestaltung", "amenity": "school", "lat": 47.5636426, "lon": 7.6062991}, {"id": 1769276555, "name": "Royal Grill", "amenity": "fast_food", "lat": 47.5668682, "lon": 7.5953324}, {"id": 2485517211, "name": "TENDER & LOINS", "amenity": "restaurant", "lat": 47.5792468, "lon": 7.5957406}, {"id": 2549405062, "name": "Basler Kantonalbank", "amenity": "atm", "lat": 47.5638499, "lon": 7.5993087}, {"id": 2559593325, "name": "Efringerhof", "amenity": "restaurant", "lat": 47.5673371, "lon": 7.5963892}, {"id": 2800631394, "name": "Qbarana Lounge Bar", "amenity": "bar", "lat": 47.5687669, "lon": 7.6018111}, {"id": 2812453913, "name": "n/a", "amenity": "parking", "lat": 47.5657978, "lon": 7.6128342}, {"id": 2971278571, "name": "n/a", "amenity": "atm", "lat": 47.5788356, "lon": 7.595789}, {"id": 2971278573, "name": "n/a", "amenity": "atm", "lat": 47.5811284, "lon": 7.5938162}, {"id": 3077292533, "name": "Tapeo Tapas Bar La Terraza", "amenity": "restaurant", "lat": 47.566436, "lon": 7.597422}, {"id": 3207784678, "name": "Musical Grill", "amenity": "fast_food", "lat": 47.5687224, "lon": 7.597405}, {"id": 3207784739, "name": "Rössli", "amenity": "restaurant", "lat": 47.5700863, "lon": 7.596641}, {"id": 3207784771, "name": "Thai Café", "amenity": "restaurant", "lat": 47.5698504, "lon": 7.5973694}, {"id": 3207784808, "name": "Nordbar", "amenity": "bar", "lat": 47.5704484, "lon": 7.5955243}, {"id": 3207784844, "name": "Che que lomo", "amenity": "restaurant", "lat": 47.5705566, "lon": 7.594893}, {"id": 3207784899, "name": "Habesha", "amenity": "restaurant", "lat": 47.5701487, "lon": 7.596197}, {"id": 3208777028, "name": "Urban Greek", "amenity": "restaurant", "lat": 47.5658332, "lon": 7.5956113}, {"id": 3220396501, "name": "Carambolage", "amenity": "bar", "lat": 47.5683278, "lon": 7.6004231}, {"id": 3220397133, "name": "Cafe 360", "amenity": "pub", "lat": 47.5676417, "lon": 7.6024174}, {"id": 3220397149, "name": "CHiCKPEA", "amenity": "restaurant", "lat": 47.5673966, "lon": 7.6009155}, {"id": 3224586205, "name": "The Chennai Kings", "amenity": "restaurant", "lat": 47.5682478, "lon": 7.6052881}, {"id": 3224586250, "name": "Happy Wok", "amenity": "restaurant", "lat": 47.568157, "lon": 7.6054465}, {"id": 3728369338, "name": "Nua", "amenity": "restaurant", "lat": 47.5660088, "lon": 7.5975782}, {"id": 3888881365, "name": "Le S", "amenity": "restaurant", "lat": 47.5690986, "lon": 7.5993385}, {"id": 3888976547, "name": "Matthäus Apotheke", "amenity": "pharmacy", "lat": 47.5688536, "lon": 7.5965248}, {"id": 3889420248, "name": "Bar Rouge", "amenity": "bar", "lat": 47.5644556, "lon": 7.6019009}, {"id": 3890667652, "name": "Boo Messeplatz", "amenity": "restaurant", "lat": 47.5642735, "lon": 7.5983857}, {"id": 3890667653, "name": "namamen Japanese Ramenbar Messe", "amenity": "restaurant", "lat": 47.5637483, "lon": 7.5996043}, {"id": 3890667654, "name": "Käfer Stube", "amenity": "restaurant", "lat": 47.5634011, "lon": 7.5999219}, {"id": 3900491566, "name": "Heritage", "amenity": "restaurant", "lat": 47.5630151, "lon": 7.5993884}, {"id": 3900491567, "name": "n/a", "amenity": "atm", "lat": 47.5638698, "lon": 7.5992961}, {"id": 4110058268, "name": "Zytigs-stübli", "amenity": "cafe", "lat": 47.569695, "lon": 7.608954}, {"id": 4611892646, "name": "BKB", "amenity": "atm", "lat": 47.5672735, "lon": 7.607176}, {"id": 4665834588, "name": "Astro Fries", "amenity": "fast_food", "lat": 47.5664318, "lon": 7.5925697}, {"id": 4714567615, "name": "SMUK Café Bar", "amenity": "cafe", "lat": 47.567226, "lon": 7.5958963}, {"id": 4749555721, "name": "Avant-Gouz", "amenity": "restaurant", "lat": 47.5677168, "lon": 7.5948728}, {"id": 5261023566, "name": "feministische bibliothek @spit", "amenity": "library", "lat": 47.5684445, "lon": 7.6009464}, {"id": 5550633691, "name": "Bar du Nord", "amenity": "bar", "lat": 47.568121, "lon": 7.6065499}, {"id": 5588337360, "name": "Tiefgarage", "amenity": "parking", "lat": 47.5687073, "lon": 7.6111903}, {"id": 5588338976, "name": "Tiefgarage", "amenity": "parking", "lat": 47.5694527, "lon": 7.6105904}, {"id": 5588339495, "name": "n/a", "amenity": "parking", "lat": 47.570292, "lon": 7.6121308}, {"id": 5588341092, "name": "n/a", "amenity": "parking", "lat": 47.569626, "lon": 7.6139148}, {"id": 6239202286, "name": "Magical Cafe", "amenity": "cafe", "lat": 47.5699745, "lon": 7.5993614}, {"id": 6253646185, "name": "Zum Backofen", "amenity": "cafe", "lat": 47.5672994, "lon": 7.6110128}, {"id": 6389507428, "name": "McDonald's", "amenity": "fast_food", "lat": 47.5665097, "lon": 7.6066263}, {"id": 6440662485, "name": "Kaffi ELCH", "amenity": "cafe", "lat": 47.5711139, "lon": 7.6102383}, {"id": 6927157603, "name": "Coop Vitality", "amenity": "pharmacy", "lat": 47.5697544, "lon": 7.6036227}, {"id": 6958402189, "name": "Locanda", "amenity": "bar", "lat": 47.564069, "lon": 7.5977405}, {"id": 7003029881, "name": "Casa Piccola Italia", "amenity": "restaurant", "lat": 47.570009, "lon": 7.5974416}, {"id": 7206798585, "name": "Finkmüller Erlenmatt Ost", "amenity": "cafe", "lat": 47.5720995, "lon": 7.6014317}, {"id": 7540841261, "name": "Nooch", "amenity": "restaurant", "lat": 47.5796916, "lon": 7.5953353}, {"id": 7578202842, "name": "Oliver’s Fresh & Fast", "amenity": "restaurant", "lat": 47.5796389, "lon": 7.5956024}, {"id": 7673798641, "name": "Migros Restaurant", "amenity": "restaurant", "lat": 47.5796059, "lon": 7.5953368}, {"id": 7747174184, "name": "Pizzeria Da Pia", "amenity": "restaurant", "lat": 47.5709099, "lon": 7.5920312}, {"id": 7747207685, "name": "Drei Rosen", "amenity": "restaurant", "lat": 47.570532, "lon": 7.5905079}, {"id": 7762245664, "name": "SILO soulfood.", "amenity": "restaurant", "lat": 47.5720403, "lon": 7.6020549}, {"id": 7773338159, "name": "Domino's", "amenity": "fast_food", "lat": 47.5620432, "lon": 7.6003286}, {"id": 7778233543, "name": "Matt & Elly Brewery & Kitchen", "amenity": "restaurant", "lat": 47.56969, "lon": 7.6034296}, {"id": 7784095498, "name": "Rouine", "amenity": "bar", "lat": 47.5666217, "lon": 7.5924914}, {"id": 7784095499, "name": "Hammer Apotheke", "amenity": "pharmacy", "lat": 47.567587, "lon": 7.5952345}, {"id": 7784095500, "name": "pusat cafe bar", "amenity": "bar", "lat": 47.5678995, "lon": 7.5948047}, {"id": 7806623582, "name": "Hoffmann's Bagel", "amenity": "fast_food", "lat": 47.5671995, "lon": 7.596898}, {"id": 7806623584, "name": "Pandarosa", "amenity": "restaurant", "lat": 47.5644099, "lon": 7.5984284}, {"id": 7810200918, "name": "OX Cafè Lounge", "amenity": "cafe", "lat": 47.5633705, "lon": 7.5985292}, {"id": 8001068550, "name": "Anjappar", "amenity": "restaurant", "lat": 47.5660728, "lon": 7.6070988}, {"id": 8001068551, "name": "Hirzbrunnen-Apotheke", "amenity": "pharmacy", "lat": 47.5659451, "lon": 7.6072}, {"id": 8125259187, "name": "Quartiertreffpunkt Gleis 58", "amenity": "restaurant", "lat": 47.5721088, "lon": 7.6001771}, {"id": 8126685107, "name": "Primarschulhaus Erlenmatt", "amenity": "school", "lat": 47.5689989, "lon": 7.6004078}, {"id": 8537314352, "name": "Isbilir Food", "amenity": "fast_food", "lat": 47.5633285, "lon": 7.5984282}, {"id": 9482868955, "name": "Detto Pronto", "amenity": "fast_food", "lat": 47.5705037, "lon": 7.5952502}, {"id": 9529779003, "name": "Thai Wók Kitchen", "amenity": "restaurant", "lat": 47.5795028, "lon": 7.5955342}, {"id": 10008628400, "name": "Europainstitut der Universität Basel", "amenity": "university", "lat": 47.5647323, "lon": 7.606072}, {"id": 10140233773, "name": "ROBA BUONA", "amenity": "restaurant", "lat": 47.5719494, "lon": 7.6016523}, {"id": 10262933064, "name": "n/a", "amenity": "atm", "lat": 47.5794003, "lon": 7.5955223}, {"id": 10290989011, "name": "Che Vuoi", "amenity": "restaurant", "lat": 47.5634916, "lon": 7.5989185}, {"id": 10606351034, "name": "Heritage Restaurant", "amenity": "restaurant", "lat": 47.5632622, "lon": 7.5991218}, {"id": 10606351035, "name": "DB Gastronomie Betriebsrestaurant", "amenity": "restaurant", "lat": 47.5683186, "lon": 7.6061343}, {"id": 10606474213, "name": "Cafe Chiara Claraspital", "amenity": "cafe", "lat": 47.5666708, "lon": 7.6140212}, {"id": 10607908166, "name": "Angolo Italiano", "amenity": "restaurant", "lat": 47.5670069, "lon": 7.6009293}, {"id": 10608357008, "name": "Kitchen 41", "amenity": "restaurant", "lat": 47.5674377, "lon": 7.6017047}, {"id": 11755443196, "name": "Café 4 you", "amenity": "cafe", "lat": 47.5625982, "lon": 7.6037697}, {"id": 12116779679, "name": "n/a", "amenity": "parking", "lat": 47.5666016, "lon": 7.6153023}, {"id": 12361595965, "name": "Universitätsbibliothek Rosental", "amenity": "library", "lat": 47.5669624, "lon": 7.601665}, {"id": 12393894853, "name": "Rosental Imbiss Colak kebab", "amenity": "fast_food", "lat": 47.5650047, "lon": 7.6037414}]}
{"address": "Käferholzstrasse 60, 8057 Zürich", "price": 2880, "property_id": 4001947102, "area": "115m²", "rooms": 4.5, "lat": 47.402542600000004, "lon": 8.532090116551142, "isochrone": {"features": [{"properties": {"fill-opacity": 0.33, "fillColor": "#bf4040", "opacity": 0.33, "fill": "#bf4040", "fillOpacity": 0.33, "color": "#bf4040", "contour": 5, "metric": "time"}, "geometry": {"coordinates": [[[8.52309, 47.41373], [8.520366, 47.413543], [8.521714, 47.413167], [8.521916, 47.412368], [8.523156, 47.411609], [8.523389, 47.410543], [8.52509, 47.409711], [8.526278, 47.40973], [8.526464, 47.409169], [8.525661, 47.408543], [8.525157, 47.406543], [8.526299, 47.405752], [8.526835, 47.404288], [8.52909, 47.40388], [8.529618, 47.403071], [8.531268, 47.40272], [8.53146, 47.401913], [8.53349, 47.401543], [8.532496, 47.400543], [8.53209, 47.398135], [8.533397, 47.398235], [8.53373, 47.399903], [8.53509, 47.400053], [8.535625, 47.399543], [8.535231, 47.398543], [8.539751, 47.398204], [8.54009, 47.397031], [8.54109, 47.397253], [8.542186, 47.398447], [8.54209, 47.399221], [8.54109, 47.39903], [8.539617, 47.400069], [8.539209, 47.402543], [8.54209, 47.403523], [8.542502, 47.404543], [8.54009, 47.405469], [8.539452, 47.40418], [8.538485, 47.404543], [8.53909, 47.406874], [8.540481, 47.408151], [8.541761, 47.408543], [8.541662, 47.410114], [8.541087, 47.41054], [8.54009, 47.410355], [8.538357, 47.412543], [8.53709, 47.411111], [8.53409, 47.410908], [8.533173, 47.411626], [8.532105, 47.411558], [8.529219, 47.412672], [8.52609, 47.412321], [8.52509, 47.41337], [8.52309, 47.41373]]], "type": "Polygon"}, "type": "Feature"}], "type": "FeatureCollection"}, "amenities": [{"id": 105443906, "name": "Gabbiano", "amenity": "restaurant", "lat": 47.409767, "lon": 8.5374793}, {"id": 285896841, "name": "Pizza Bros", "amenity": "restaurant", "lat": 47.4097743, "lon": 8.537357}, {"id": 480352081, "name": "Fallender Brunnenhof", "amenity": "restaurant", "lat": 47.402817, "lon": 8.5355605}, {"id": 845099491, "name": "Kiosk / Restaurant", "amenity": "restaurant", "lat": 47.4048648, "lon": 8.5379355}, {"id": 1115819506, "name": "Giesserei Oerlikon", "amenity": "restaurant", "lat": 47.408614, "lon": 8.5376025}, {"id": 1592426153, "name": "Barcelona Restaurant", "amenity": "restaurant", "lat": 47.4020484, "lon": 8.5353195}, {"id": 1626579175, "name": "n/a", "amenity": "parking", "lat": 47.4075275, "lon": 8.5358765}, {"id": 1687796033, "name": "Apotheke Affoltern", "amenity": "pharmacy", "lat": 47.4122382, "lon": 8.5247185}, {"id": 2037084628, "name": "Gasthaus Hofwiesen", "amenity": "restaurant", "lat": 47.4063257, "lon": 8.5376266}, {"id": 2355693108, "name": "Lemon", "amenity": "restaurant", "lat": 47.4092114, "lon": 8.5377071}, {"id": 2366401882, "name": "Virtù", "amenity": "restaurant", "lat": 47.4109228, "lon": 8.5376629}, {"id": 2479519173, "name": "Wehntal-Apotheke", "amenity": "pharmacy", "lat": 47.402496, "lon": 8.5358866}, {"id": 2514418477, "name": "Jeunesse", "amenity": "restaurant", "lat": 47.4041372, "lon": 8.5342275}, {"id": 3270483667, "name": "n/a", "amenity": "parking", "lat": 47.4067755, "lon": 8.532556}, {"id": 3727175264, "name": "Nostos Greek Bistro", "amenity": "restaurant", "lat": 47.4115131, "lon": 8.5258078}, {"id": 3729613506, "name": "Momo's", "amenity": "restaurant", "lat": 47.4123897, "lon": 8.5242895}, {"id": 4927011224, "name": "Cafeteria UZH Cityport", "amenity": "cafe", "lat": 47.4105886, "lon": 8.5396374}, {"id": 5370500717, "name": "Ayverdi's", "amenity": "fast_food", "lat": 47.4114406, "lon": 8.5253692}, {"id": 5370500827, "name": "Sultan Sofrasi", "amenity": "fast_food", "lat": 47.4113526, "lon": 8.5261671}, {"id": 6350718195, "name": "Restaurant Bar Anna", "amenity": "restaurant", "lat": 47.3992912, "lon": 8.5401245}, {"id": 7905699488, "name": "Associaçâo Portuguesa", "amenity": "restaurant", "lat": 47.4069217, "lon": 8.5363863}, {"id": 11194626948, "name": "ISTL Office", "amenity": "school", "lat": 47.4109396, "lon": 8.5309013}, {"id": 11929283671, "name": "Lia Siam", "amenity": "restaurant", "lat": 47.3973065, "lon": 8.5409593}, {"id": 11951664398, "name": "Eckaffee", "amenity": "cafe", "lat": 47.4115595, "lon": 8.5258747}]}
{"address": "Fahrnstrasse 25, 9402 Mörschwil", "price": 2880, "property_id": 4002080979, "area": "115m²", "rooms": 4.5, "lat": 47.4639669, "lon": 9.432168388679248, "isochrone": {"features": [{"properties": {"fill-opacity": 0.33, "fillColor": "#bf4040", "opacity": 0.33, "fill": "#bf4040", "fillOpacity": 0.33, "color": "#bf4040", "contour": 5, "metric": "time"}, "geometry": {"coordinates": [[[9.454168, 47.485254], [9.453854, 47.482967], [9.453042, 47.481967], [9.453637, 47.481436], [9.453624, 47.480511], [9.453168, 47.479809], [9.451879, 47.479256], [9.445168, 47.479228], [9.444612, 47.47941], [9.444168, 47.481037], [9.444046, 47.48009], [9.443168, 47.479447], [9.441075, 47.479061], [9.437405, 47.479203], [9.436168, 47.478316], [9.432923, 47.478212], [9.432248, 47.477888], [9.431457, 47.475678], [9.428697, 47.475438], [9.428168, 47.474619], [9.427168, 47.474584], [9.426636, 47.474967], [9.427168, 47.475767], [9.428067, 47.475967], [9.427168, 47.476167], [9.426518, 47.476967], [9.426626, 47.477509], [9.427591, 47.477967], [9.426073, 47.478062], [9.425575, 47.47656], [9.424413, 47.476212], [9.424168, 47.476617], [9.424647, 47.474967], [9.424168, 47.474513], [9.420736, 47.474535], [9.420168, 47.476068], [9.419724, 47.474411], [9.418168, 47.473212], [9.4168, 47.473598], [9.415294, 47.475093], [9.414581, 47.474967], [9.415089, 47.474887], [9.415074, 47.472873], [9.415735, 47.471534], [9.416466, 47.471264], [9.416783, 47.470581], [9.418513, 47.469967], [9.418168, 47.46957], [9.416168, 47.469445], [9.415168, 47.470542], [9.413731, 47.469967], [9.41466, 47.469459], [9.415166, 47.467969], [9.414168, 47.467967], [9.413877, 47.466258], [9.413393, 47.465967], [9.416541, 47.465339], [9.417168, 47.463749], [9.418168, 47.463954], [9.420442, 47.46324], [9.420512, 47.461624], [9.418889, 47.460967], [9.420523, 47.460322], [9.421583, 47.458967], [9.418916, 47.457967], [9.420531, 47.456967], [9.419453, 47.453682], [9.418856, 47.453655], [9.417168, 47.455127], [9.41613, 47.454967], [9.415201, 47.453967], [9.416168, 47.453691], [9.416719, 47.452967], [9.415848, 47.451967], [9.416114, 47.450913], [9.417168, 47.451287], [9.418168, 47.452422], [9.419487, 47.450967], [9.419168, 47.45057], [9.417168, 47.450637], [9.416626, 47.449509], [9.414918, 47.448218], [9.414899, 47.447697], [9.416614, 47.445967], [9.415514, 47.444621], [9.413113, 47.443967], [9.413264, 47.442062], [9.415168, 47.44192], [9.418168, 47.444146], [9.419168, 47.443827], [9.419526, 47.44461], [9.420376, 47.444967], [9.419501, 47.445299], [9.419424, 47.446967], [9.420168, 47.447647], [9.420802, 47.4476], [9.421168, 47.446077], [9.422283, 47.446852], [9.421826, 47.448967], [9.42262, 47.449515], [9.422882, 47.451967], [9.423895, 47.452967], [9.423999, 47.455136], [9.425672, 47.455464], [9.427168, 47.457198], [9.430324, 47.457122], [9.430168, 47.456702], [9.428698, 47.456437], [9.423993, 47.450792], [9.425168, 47.450567], [9.425804, 47.451332], [9.428384, 47.451751], [9.428407, 47.452967], [9.430574, 47.453561], [9.431983, 47.455153], [9.433616, 47.455519], [9.434168, 47.456348], [9.437181, 47.456954], [9.434917, 47.457716], [9.435683, 47.459452], [9.43849, 47.461645], [9.439005, 47.46313], [9.440988, 47.465147], [9.4426, 47.465535], [9.444168, 47.467499], [9.446293, 47.467967], [9.445708, 47.468507], [9.445896, 47.469239], [9.450168, 47.46941], [9.451524, 47.469967], [9.452289, 47.471087], [9.451168, 47.471244], [9.450862, 47.471967], [9.452581, 47.472555], [9.45293, 47.475205], [9.453466, 47.475265], [9.454168, 47.474483], [9.456168, 47.474365], [9.457054, 47.474967], [9.45661, 47.475409], [9.455168, 47.475311], [9.454678, 47.476457], [9.456539, 47.476337], [9.457168, 47.475014], [9.459595, 47.47654], [9.461543, 47.476967], [9.457168, 47.477418], [9.456079, 47.477877], [9.455508, 47.478967], [9.455585, 47.480967], [9.454532, 47.481967], [9.45547, 47.483967], [9.454544, 47.484343], [9.454168, 47.485254]]], "type": "Polygon"}, "type": "Feature"}], "type": "FeatureCollection"}, "amenities": [{"id": 380307387, "name": "Raiffeisen", "amenity": "bank", "lat": 47.468475, "lon": 9.4242167}, {"id": 445061118, "name": "Vorstadtbeiz", "amenity": "restaurant", "lat": 47.4492662, "lon": 9.4199557}, {"id": 745742088, "name": "Füger", "amenity": "cafe", "lat": 47.4681741, "lon": 9.4236445}, {"id": 1240898008, "name": "n/a", "amenity": "parking", "lat": 47.4527729, "lon": 9.4224972}, {"id": 1240898029, "name": "n/a", "amenity": "parking", "lat": 47.4533642, "lon": 9.4229344}, {"id": 1240907625, "name": "n/a", "amenity": "parking", "lat": 47.4495581, "lon": 9.4200228}, {"id": 3358795001, "name": "Löwen", "amenity": "restaurant", "lat": 47.4719867, "lon": 9.4493694}, {"id": 3531149401, "name": "n/a", "amenity": "parking", "lat": 47.4464161, "lon": 9.4182037}, {"id": 5305219959, "name": "Oberwaid - Das Hotel. Die Klinik.", "amenity": "clinic", "lat": 47.4513456, "lon": 9.4201833}, {"id": 5305225771, "name": "Seeblick", "amenity": "restaurant", "lat": 47.4515919, "lon": 9.419409}, {"id": 12211342033, "name": "n/a", "amenity": "parking", "lat": 47.4628197, "lon": 9.4336961}]}
{"address": "Herrenhof 868, 9240 Niederglatt", "price": 2880, "property_id": 4002077676, "area": "115m²", "rooms": 4.5, "lat": 47.4240752, "lon": 9.1598683, "isochrone": {"features": [{"properties": {"fill-opacity": 0.33, "fillColor": "#bf4040", "opacity": 0.33, "fill": "#bf4040", "fillOpacity": 0.33, "color": "#bf4040", "contour": 5, "metric": "time"}, "geometry": {"coordinates": [[[9.156868, 47.435152], [9.155868, 47.43516], [9.153868, 47.433483], [9.151868, 47.433411], [9.150258, 47.434465], [9.149957, 47.435164], [9.149066, 47.435273], [9.148868, 47.435959], [9.148698, 47.435245], [9.149586, 47.434793], [9.149868, 47.433324], [9.151255, 47.432075], [9.152868, 47.431874], [9.153868, 47.432668], [9.155868, 47.432603], [9.156361, 47.432075], [9.155478, 47.431075], [9.155868, 47.430457], [9.158868, 47.430496], [9.160453, 47.42866], [9.162101, 47.428308], [9.163186, 47.427075], [9.162868, 47.426369], [9.162118, 47.426075], [9.162459, 47.425075], [9.162054, 47.42489], [9.160685, 47.425075], [9.161824, 47.426075], [9.161458, 47.426665], [9.159717, 47.426924], [9.157868, 47.428858], [9.153868, 47.428574], [9.153369, 47.428075], [9.153868, 47.427576], [9.156868, 47.427385], [9.158288, 47.425495], [9.159006, 47.425213], [9.158868, 47.424897], [9.156286, 47.424657], [9.155868, 47.423853], [9.152673, 47.42388], [9.15341, 47.425075], [9.153206, 47.426413], [9.149868, 47.4265], [9.148868, 47.429422], [9.146868, 47.429157], [9.145542, 47.428075], [9.147246, 47.427453], [9.146868, 47.426713], [9.143235, 47.427075], [9.142704, 47.428911], [9.142061, 47.429268], [9.140211, 47.427732], [9.137868, 47.427561], [9.13708, 47.428075], [9.136868, 47.429576], [9.136444, 47.428499], [9.133868, 47.428145], [9.132868, 47.427603], [9.131868, 47.428072], [9.131029, 47.427075], [9.132868, 47.426454], [9.134868, 47.426503], [9.135711, 47.425918], [9.136868, 47.425796], [9.137868, 47.426589], [9.140173, 47.42638], [9.140241, 47.424702], [9.13765, 47.422075], [9.137868, 47.420563], [9.139421, 47.422523], [9.141443, 47.423075], [9.141559, 47.425384], [9.145868, 47.425442], [9.146548, 47.423755], [9.147868, 47.423545], [9.148868, 47.424407], [9.149414, 47.423621], [9.151069, 47.423276], [9.150868, 47.422604], [9.14866, 47.422283], [9.148179, 47.421075], [9.148868, 47.420919], [9.149868, 47.421656], [9.154172, 47.421075], [9.154142, 47.419802], [9.153285, 47.418659], [9.150094, 47.418301], [9.149868, 47.418985], [9.149868, 47.417533], [9.150868, 47.417362], [9.151868, 47.417694], [9.153868, 47.416768], [9.156494, 47.41745], [9.158868, 47.417513], [9.159868, 47.416547], [9.160596, 47.417347], [9.162127, 47.417334], [9.163329, 47.416075], [9.162285, 47.414659], [9.161164, 47.414075], [9.162369, 47.413075], [9.161309, 47.411635], [9.158888, 47.411075], [9.15875, 47.410193], [9.157904, 47.410075], [9.159868, 47.410008], [9.160124, 47.410819], [9.163007, 47.410937], [9.163868, 47.411315], [9.164868, 47.412622], [9.165868, 47.412667], [9.16699, 47.411954], [9.167117, 47.413075], [9.166317, 47.414075], [9.167209, 47.414734], [9.167868, 47.416493], [9.169868, 47.416698], [9.171868, 47.415554], [9.174868, 47.415317], [9.175144, 47.415799], [9.17752, 47.416075], [9.176191, 47.416398], [9.172774, 47.418981], [9.171868, 47.419134], [9.170868, 47.418444], [9.169607, 47.419337], [9.169288, 47.418655], [9.168613, 47.41882], [9.16946, 47.420075], [9.168868, 47.420667], [9.167652, 47.420858], [9.166663, 47.42187], [9.166645, 47.423299], [9.167182, 47.423388], [9.167868, 47.422664], [9.170051, 47.422893], [9.17053, 47.423075], [9.168506, 47.423713], [9.168563, 47.42438], [9.171383, 47.425075], [9.166642, 47.425849], [9.167462, 47.427482], [9.168607, 47.428075], [9.167187, 47.428393], [9.166868, 47.429445], [9.165868, 47.429494], [9.165182, 47.428762], [9.16423, 47.428714], [9.162868, 47.429725], [9.161585, 47.429791], [9.161682, 47.431261], [9.162868, 47.431693], [9.163868, 47.431302], [9.163976, 47.432183], [9.160868, 47.432538], [9.159868, 47.433233], [9.157868, 47.432618], [9.156868, 47.435152]]], "type": "Polygon"}, "type": "Feature"}], "type": "FeatureCollection"}, "amenities": [{"id": 2563389408, "name": "n/a", "amenity": "atm", "lat": 47.4173866, "lon": 9.1700109}]}
{"address": "Muttenzerstrasse 129, 4127 Birsfelden", "price": 2880, "property_id": 4002059199, "area": "115m²", "rooms": 4.5, "lat": 47.5447189, "lon": 7.62688715, "isochrone": {"features": [{"properties": {"fill-opacity": 0.33, "fillColor": "#bf4040", "opacity": 0.33, "fill": "#bf4040", "fillOpacity": 0.33, "color": "#bf4040", "contour": 5, "metric": "time"}, "geometry": {"coordinates": [[[7.625887, 47.556477], [7.623887, 47.555669], [7.622887, 47.554187], [7.619887, 47.554613], [7.61982, 47.551786], [7.621096, 47.549928], [7.621084, 47.548522], [7.619887, 47.54821], [7.61866, 47.548492], [7.618129, 47.548961], [7.617155, 47.548987], [7.616865, 47.549719], [7.616887, 47.54853], [7.618501, 47.546719], [7.617566, 47.544719], [7.620219, 47.543051], [7.619887, 47.541922], [7.618887, 47.541419], [7.617773, 47.541719], [7.61754, 47.540719], [7.619887, 47.540257], [7.620887, 47.539189], [7.623531, 47.539363], [7.623729, 47.534877], [7.623565, 47.534041], [7.622326, 47.533719], [7.622579, 47.531027], [7.621453, 47.530719], [7.620887, 47.530085], [7.615887, 47.529852], [7.615606, 47.529], [7.613612, 47.528719], [7.616887, 47.528534], [7.618009, 47.529597], [7.618887, 47.529637], [7.621887, 47.529574], [7.622522, 47.529353], [7.622702, 47.528719], [7.622643, 47.524963], [7.621751, 47.523855], [7.621638, 47.521968], [7.620593, 47.521719], [7.62061, 47.520719], [7.619797, 47.519809], [7.619712, 47.518894], [7.617887, 47.51878], [7.617812, 47.517794], [7.616816, 47.517719], [7.616806, 47.5168], [7.616044, 47.516719], [7.616891, 47.516715], [7.616909, 47.517697], [7.617929, 47.517719], [7.617983, 47.518623], [7.619887, 47.518655], [7.620039, 47.519567], [7.620937, 47.519669], [7.621119, 47.521487], [7.622199, 47.521719], [7.622176, 47.52343], [7.623267, 47.523719], [7.62348, 47.528126], [7.62416, 47.529446], [7.625794, 47.529719], [7.623887, 47.529779], [7.623153, 47.530719], [7.623305, 47.532302], [7.624291, 47.533719], [7.624647, 47.537959], [7.62514, 47.537971], [7.625593, 47.536425], [7.628757, 47.533588], [7.630017, 47.533589], [7.630456, 47.534719], [7.629699, 47.535907], [7.630887, 47.536077], [7.63125, 47.535081], [7.632029, 47.53486], [7.633887, 47.53252], [7.636108, 47.533719], [7.63644, 47.534719], [7.635244, 47.535076], [7.635036, 47.535719], [7.63693, 47.536719], [7.633071, 47.538903], [7.631291, 47.539123], [7.631162, 47.540444], [7.634751, 47.540583], [7.635566, 47.540397], [7.635887, 47.539566], [7.642035, 47.539719], [7.636989, 47.539821], [7.63627, 47.540102], [7.635887, 47.541081], [7.631127, 47.540959], [7.631397, 47.542209], [7.632636, 47.542719], [7.634053, 47.546719], [7.634887, 47.547086], [7.635887, 47.546111], [7.639887, 47.546157], [7.640887, 47.545186], [7.642887, 47.545211], [7.643572, 47.544404], [7.645264, 47.544096], [7.645887, 47.54331], [7.647316, 47.543148], [7.647887, 47.542407], [7.650248, 47.542358], [7.65069, 47.542719], [7.648887, 47.543031], [7.648122, 47.543954], [7.646495, 47.544327], [7.646169, 47.546001], [7.644887, 47.545184], [7.644212, 47.546044], [7.641887, 47.546252], [7.640887, 47.54727], [7.636887, 47.547327], [7.636302, 47.548134], [7.634643, 47.548475], [7.634887, 47.550266], [7.63764, 47.550719], [7.634186, 47.553719], [7.633019, 47.553851], [7.632887, 47.555099], [7.632478, 47.551719], [7.630887, 47.550985], [7.627951, 47.553719], [7.628079, 47.554719], [7.626599, 47.555431], [7.625887, 47.556477]]], "type": "Polygon"}, "type": "Feature"}], "type": "FeatureCollection"}, "amenities": [{"id": 1422954804, "name": "n/a", "amenity": "restaurant", "lat": 47.5363828, "lon": 7.6271603}, {"id": 1422964359, "name": "Ritazza", "amenity": "restaurant", "lat": 47.5409522, "lon": 7.6195941}, {"id": 1573221888, "name": "Mona Lisa", "amenity": "restaurant", "lat": 47.553344, "lon": 7.621097}, {"id": 1573222220, "name": "Burger King", "amenity": "fast_food", "lat": 47.55339, "lon": 7.622033}, {"id": 1598960218, "name": "TopPharm", "amenity": "pharmacy", "lat": 47.5526283, "lon": 7.6228669}, {"id": 1600137246, "name": "Basellandschaftliche Kantonalbank", "amenity": "bank", "lat": 47.55297, "lon": 7.623018}, {"id": 1600145427, "name": "Cafe Mesana", "amenity": "cafe", "lat": 47.553231, "lon": 7.622954}, {"id": 1600179732, "name": "Coop", "amenity": "parking", "lat": 47.5528367, "lon": 7.6215371}, {"id": 1600187397, "name": "Hard Apotheke", "amenity": "pharmacy", "lat": 47.5535059, "lon": 7.6217233}, {"id": 1610930944, "name": "Rotblau Bar|Bistro", "amenity": "bar", "lat": 47.5410878, "lon": 7.6192078}, {"id": 1615017684, "name": "BONANZA 2", "amenity": "restaurant", "lat": 47.5524699, "lon": 7.6237986}, {"id": 1615017685, "name": "Luxor", "amenity": "restaurant", "lat": 47.5525595, "lon": 7.6240178}, {"id": 1618048044, "name": "Birs Grill", "amenity": "fast_food", "lat": 47.5535785, "lon": 7.6214489}, {"id": 1618094480, "name": "Wirtshaus St. Jakob", "amenity": "restaurant", "lat": 47.5416641, "lon": 7.617831}, {"id": 1784478396, "name": "n/a", "amenity": "parking", "lat": 47.551088, "lon": 7.620935}, {"id": 1784555588, "name": "Restaurant Hard", "amenity": "restaurant", "lat": 47.5482225, "lon": 7.6299077}, {"id": 1784566899, "name": "n/a", "amenity": "parking", "lat": 47.5476067, "lon": 7.6293905}, {"id": 1784585430, "name": "n/a", "amenity": "parking", "lat": 47.5473354, "lon": 7.6280863}, {"id": 1784587096, "name": "n/a", "amenity": "parking", "lat": 47.5471531, "lon": 7.629569}, {"id": 1784604154, "name": "n/a", "amenity": "parking", "lat": 47.5470183, "lon": 7.6268063}, {"id": 1785828329, "name": "n/a", "amenity": "parking", "lat": 47.5539834, "lon": 7.6218979}, {"id": 2019678845, "name": "TopPharm", "amenity": "pharmacy", "lat": 47.5339478, "lon": 7.6296844}, {"id": 2392657649, "name": "Roxy Bar", "amenity": "bar", "lat": 47.5516336, "lon": 7.6236547}, {"id": 2419361919, "name": "Blume", "amenity": "restaurant", "lat": 47.5537129, "lon": 7.6211824}, {"id": 2456030637, "name": "TopPharm Lehenmatt Apotheke", "amenity": "pharmacy", "lat": 47.5476516, "lon": 7.6213023}, {"id": 4031337376, "name": "Dalbedych", "amenity": "restaurant", "lat": 47.5480644, "lon": 7.6208607}, {"id": 4031337378, "name": "Sutter Begg", "amenity": "cafe", "lat": 47.5472479, "lon": 7.6208003}, {"id": 4062717954, "name": "n/a", "amenity": "parking", "lat": 47.5485716, "lon": 7.6176453}, {"id": 4190469089, "name": "Rennbahnklinik", "amenity": "clinic", "lat": 47.5354867, "lon": 7.633952}, {"id": 4190490189, "name": "Alessia", "amenity": "restaurant", "lat": 47.5355604, "lon": 7.6341281}, {"id": 4200047891, "name": "FOS Muttenz", "amenity": "school", "lat": 47.5337971, "lon": 7.634791}, {"id": 4427996064, "name": "n/a", "amenity": "parking", "lat": 47.5396471, "lon": 7.6261785}, {"id": 5364651421, "name": "Da Graziella", "amenity": "cafe", "lat": 47.5407695, "lon": 7.6202457}, {"id": 5617859939, "name": "n/a", "amenity": "atm", "lat": 47.5480239, "lon": 7.6174503}, {"id": 5744171193, "name": "n/a", "amenity": "atm", "lat": 47.5337598, "lon": 7.6298252}, {"id": 5927628520, "name": "n/a", "amenity": "parking", "lat": 47.5486018, "lon": 7.617314}, {"id": 6937790909, "name": "Café Bar Santana", "amenity": "cafe", "lat": 47.5511296, "lon": 7.6241732}, {"id": 7465661977, "name": "Sun Store", "amenity": "pharmacy", "lat": 47.5409422, "lon": 7.6205762}, {"id": 7528950965, "name": "Dieci Pizzakurier", "amenity": "fast_food", "lat": 47.5338148, "lon": 7.6297849}, {"id": 7578166883, "name": "SAM'S Pizza Land", "amenity": "restaurant", "lat": 47.5410955, "lon": 7.6208991}, {"id": 8238707929, "name": "Schänzli", "amenity": "restaurant", "lat": 47.5366148, "lon": 7.6244956}, {"id": 9562305189, "name": "cafe flora mangia e bevi", "amenity": "restaurant", "lat": 47.5478024, "lon": 7.6267679}, {"id": 9562305190, "name": "Rebstock", "amenity": "restaurant", "lat": 47.5506791, "lon": 7.6243472}, {"id": 10124009024, "name": "n/a", "amenity": "parking", "lat": 47.5355437, "lon": 7.6272925}, {"id": 10846389185, "name": "n/a", "amenity": "parking", "lat": 47.5492549, "lon": 7.625468}, {"id": 10970797310, "name": "n/a", "amenity": "parking", "lat": 47.5398873, "lon": 7.6262758}, {"id": 12606445780, "name": "Freizeit- und Schulbibliothek Birsfelden", "amenity": "library", "lat": 47.5545342, "lon": 7.6242584}]}
{"address": "Volkmarstrasse 15, 8006 Zürich", "price": 2880, "property_id": 4002058756, "area": "115m²", "rooms": 4.5, "lat": 47.38532765, "lon": 8.543725200223658, "isochrone": {"features": [{"properties": {"fill-opacity": 0.33, "fillColor": "#bf4040", "opacity": 0.33, "fill": "#bf4040", "fillOpacity": 0.33, "color": "#bf4040", "contour": 5, "metric": "time"}, "geometry": {"coordinates": [[[8.543725, 47.392812], [8.541725, 47.392936], [8.540839, 47.392214], [8.538725, 47.392849], [8.538218, 47.391835], [8.536692, 47.391328], [8.536787, 47.388328], [8.535642, 47.387328], [8.537094, 47.386696], [8.537416, 47.385019], [8.538321, 47.383924], [8.541271, 47.381873], [8.541725, 47.381102], [8.542451, 47.381054], [8.543725, 47.379772], [8.543988, 47.380328], [8.54488, 47.380482], [8.54615, 47.379328], [8.546378, 47.37798], [8.547653, 47.377255], [8.548725, 47.377175], [8.548743, 47.377345], [8.548219, 47.377821], [8.548184, 47.379328], [8.549288, 47.381328], [8.549077, 47.382328], [8.549725, 47.382839], [8.550725, 47.381915], [8.5519, 47.382153], [8.552141, 47.382743], [8.551884, 47.383328], [8.5505, 47.384103], [8.549411, 47.386014], [8.549409, 47.386644], [8.550207, 47.387328], [8.548927, 47.389328], [8.548725, 47.390983], [8.545016, 47.392037], [8.544244, 47.390328], [8.543433, 47.390035], [8.543408, 47.391645], [8.544444, 47.392328], [8.543725, 47.392812]]], "type": "Polygon"}, "type": "Feature"}], "type": "FeatureCollection"}, "amenities": [{"id": 105506327, "name": "Zum Alten Löwen", "amenity": "restaurant", "lat": 47.3849796, "lon": 8.5482469}, {"id": 252407018, "name": "Ristorante Culmann", "amenity": "restaurant", "lat": 47.3794422, "lon": 8.5470198}, {"id": 252407019, "name": "La Fontana", "amenity": "restaurant", "lat": 47.3797201, "lon": 8.5469255}, {"id": 321364282, "name": "Tannenbar", "amenity": "cafe", "lat": 47.3773953, "lon": 8.5478673}, {"id": 365838427, "name": "Pizzeria Corallo", "amenity": "restaurant", "lat": 47.3865398, "lon": 8.5414596}, {"id": 365838929, "name": "Kreis 6", "amenity": "restaurant", "lat": 47.3861132, "lon": 8.5452851}, {"id": 365892432, "name": "Chuchi am Wasser", "amenity": "restaurant", "lat": 47.3830272, "lon": 8.5396636}, {"id": 504487282, "name": "The Lemon Grass", "amenity": "fast_food", "lat": 47.3857427, "lon": 8.539683}, {"id": 552929127, "name": "Drei Stuben", "amenity": "restaurant", "lat": 47.3832538, "lon": 8.5416447}, {"id": 552932425, "name": "Pizzeria Veneziana", "amenity": "restaurant", "lat": 47.383118, "lon": 8.5413332}, {"id": 632553574, "name": "Restaurant Haldenbach", "amenity": "restaurant", "lat": 47.3799672, "lon": 8.5469246}, {"id": 632562120, "name": "Züri Bistro", "amenity": "fast_food", "lat": 47.38053, "lon": 8.5479785}, {"id": 632562127, "name": "Ristorante Al Forno da Angelo", "amenity": "restaurant", "lat": 47.3805744, "lon": 8.5483371}, {"id": 633584154, "name": "Domino's", "amenity": "fast_food", "lat": 47.3784731, "lon": 8.547949}, {"id": 633584160, "name": "Café Oberstrass", "amenity": "cafe", "lat": 47.3782514, "lon": 8.5479609}, {"id": 633584181, "name": "Hot Pasta", "amenity": "restaurant", "lat": 47.3786854, "lon": 8.547952}, {"id": 633584200, "name": "The Alehouse Palmhof", "amenity": "pub", "lat": 47.3790827, "lon": 8.5478805}, {"id": 633584224, "name": "Lemon Grass", "amenity": "fast_food", "lat": 47.3796283, "lon": 8.5479597}, {"id": 792593919, "name": "La Casa", "amenity": "restaurant", "lat": 47.3901801, "lon": 8.5400652}, {"id": 792593930, "name": "Sorell Rex", "amenity": "cafe", "lat": 47.3847859, "lon": 8.5431484}, {"id": 792594129, "name": "Richie's Chicken", "amenity": "fast_food", "lat": 47.3905675, "lon": 8.5394452}, {"id": 866538630, "name": "Bakery Bakery", "amenity": "cafe", "lat": 47.3920571, "lon": 8.5391006}, {"id": 866541138, "name": "Café Unterstrass", "amenity": "cafe", "lat": 47.3921165, "lon": 8.5386272}, {"id": 891896164, "name": "Rigi Apotheke und Drogerie", "amenity": "pharmacy", "lat": 47.3857176, "lon": 8.5487292}, {"id": 943868646, "name": "Biotheke", "amenity": "pharmacy", "lat": 47.3836588, "lon": 8.5484321}, {"id": 943875479, "name": "Hausammann", "amenity": "cafe", "lat": 47.3832878, "lon": 8.548393}, {"id": 1357158514, "name": "Habib Bank", "amenity": "bank", "lat": 47.3817572, "lon": 8.5435756}, {"id": 1390807245, "name": "Apotheke Schaffhauserplatz", "amenity": "pharmacy", "lat": 47.3916892, "lon": 8.5383642}, {"id": 1867263239, "name": "Rubina", "amenity": "restaurant", "lat": 47.381545, "lon": 8.5483263}, {"id": 1986773362, "name": "Moudi's Lecker Garten", "amenity": "restaurant", "lat": 47.3909932, "lon": 8.5455952}, {"id": 2121176772, "name": "Kafi Seilbahn Rigiblick", "amenity": "cafe", "lat": 47.3853864, "lon": 8.5482515}, {"id": 2140368471, "name": "Bamboo Inn", "amenity": "restaurant", "lat": 47.3804786, "lon": 8.5472423}, {"id": 2140368560, "name": "Stapferstube da Rizzo", "amenity": "restaurant", "lat": 47.3821725, "lon": 8.5474623}, {"id": 2452626421, "name": "Fux und Haas", "amenity": "fast_food", "lat": 47.3857229, "lon": 8.5395166}, {"id": 2509647639, "name": "Janni Pizza Kurier", "amenity": "fast_food", "lat": 47.3866392, "lon": 8.539917}, {"id": 2746139382, "name": "Mama's Beck", "amenity": "restaurant", "lat": 47.3885695, "lon": 8.539287}, {"id": 2888172595, "name": "Santa Lucia Subito", "amenity": "restaurant", "lat": 47.3815179, "lon": 8.5422215}, {"id": 2888173290, "name": "Take Easy Thai Food", "amenity": "fast_food", "lat": 47.3811314, "lon": 8.542114}, {"id": 2904973400, "name": "Zam Dapor", "amenity": "restaurant", "lat": 47.3857107, "lon": 8.5420014}, {"id": 2957645174, "name": "Thali Indian Restaurant", "amenity": "restaurant", "lat": 47.390294, "lon": 8.5392273}, {"id": 3357441576, "name": "African Queen", "amenity": "restaurant", "lat": 47.3816229, "lon": 8.5421505}, {"id": 3381293318, "name": "SimSim", "amenity": "restaurant", "lat": 47.3878521, "lon": 8.5392302}, {"id": 3387706567, "name": "Bibliothek Erdwissenschaften", "amenity": "library", "lat": 47.3785235, "lon": 8.5473008}, {"id": 3987856802, "name": "Klara's Kitchen", "amenity": "fast_food", "lat": 47.3787999, "lon": 8.5479501}, {"id": 4053473354, "name": "Al Ventotto", "amenity": "restaurant", "lat": 47.3902274, "lon": 8.538794}, {"id": 4891858476, "name": "Mensa Institut Minerva", "amenity": "restaurant", "lat": 47.3819656, "lon": 8.5455532}, {"id": 4963589219, "name": "Klara‘s Kitchen", "amenity": "cafe", "lat": 47.3827596, "lon": 8.5437443}, {"id": 5386900841, "name": "Dieci Pizzakurier", "amenity": "fast_food", "lat": 47.3827555, "lon": 8.5505487}, {"id": 5938746755, "name": "Curry Corner", "amenity": "fast_food", "lat": 47.3833287, "lon": 8.541864}, {"id": 6070128841, "name": "Parkhaus Stampfenbach", "amenity": "parking", "lat": 47.3864863, "lon": 8.5390689}, {"id": 6205732851, "name": "Con Gusto", "amenity": "fast_food", "lat": 47.3919608, "lon": 8.5390827}, {"id": 6207463870, "name": "Bibliothek des Schweizerischen Instituts für Kinder- und Jugendmedien SIKJM", "amenity": "library", "lat": 47.3845291, "lon": 8.5397558}, {"id": 7055101045, "name": "Anoah", "amenity": "restaurant", "lat": 47.3848545, "lon": 8.5485426}, {"id": 7070435520, "name": "Natural Bites", "amenity": "cafe", "lat": 47.3803426, "lon": 8.5478344}, {"id": 9642595626, "name": "Stiftung m.a.c. – Sonderpädagogische Schule", "amenity": "school", "lat": 47.3854719, "lon": 8.5419658}, {"id": 9682468631, "name": "Dayschool Beckenhof", "amenity": "school", "lat": 47.3834916, "lon": 8.5413134}, {"id": 9697845464, "name": "Schule Minerva Zürich", "amenity": "school", "lat": 47.3818918, "lon": 8.5455529}, {"id": 9717546279, "name": "Neue Schule Zürich", "amenity": "school", "lat": 47.3835082, "lon": 8.5475639}, {"id": 9719866404, "name": "Schule Talenta Zürich", "amenity": "school", "lat": 47.3858578, "lon": 8.5418353}, {"id": 9726635896, "name": "Sekundarschule am Rigiplatz", "amenity": "school", "lat": 47.3858674, "lon": 8.5463793}, {"id": 10078000117, "name": "Tiny Fish", "amenity": "fast_food", "lat": 47.3784125, "lon": 8.5478096}, {"id": 10650748517, "name": "Café Bar Meierei", "amenity": "cafe", "lat": 47.3822549, "lon": 8.550719}, {"id": 10893221699, "name": "Blooming Juice", "amenity": "fast_food", "lat": 47.3914598, "lon": 8.539107}, {"id": 10949082348, "name": "differente", "amenity": "restaurant", "lat": 47.3881157, "lon": 8.5390656}, {"id": 10995816514, "name": "mi-te", "amenity": "restaurant", "lat": 47.3791998, "lon": 8.5479282}, {"id": 10995816516, "name": "Mesa Madrid", "amenity": "restaurant", "lat": 47.3833749, "lon": 8.5431961}, {"id": 11227223686, "name": "Bistro Pinto Take Away", "amenity": "restaurant", "lat": 47.3872577, "lon": 8.540021}, {"id": 11673717382, "name": "Bimbi's Take Away", "amenity": "restaurant", "lat": 47.3825112, "lon": 8.5414846}, {"id": 11778835755, "name": "Burger Boutique", "amenity": "fast_food", "lat": 47.3841513, "lon": 8.5481184}, {"id": 12090984377, "name": "Edi", "amenity": "restaurant", "lat": 47.3886532, "lon": 8.5392721}, {"id": 12117995033, "name": "Lernstudio", "amenity": "school", "lat": 47.3819111, "lon": 8.5456909}]}
{"address": "Niklaus Konrad-Strasse 4, 4500 Solothurn", "price": 2880, "property_id": 4002053936, "area": "115m²", "rooms": 4.5, "lat": 47.204513902108786, "lon": 7.539104019684887, "isochrone": {"features": [{"properties": {"fill-opacity": 0.33, "fillColor": "#bf4040", "opacity": 0.33, "fill": "#bf4040", "fillOpacity": 0.33, "color": "#bf4040", "contour": 5, "metric": "time"}, "geometry": {"coordinates": [[[7.556104, 47.221502], [7.555847, 47.220771], [7.555104, 47.220786], [7.55375, 47.219868], [7.552449, 47.219859], [7.5521, 47.220518], [7.551748, 47.218514], [7.550484, 47.217134], [7.547104, 47.216447], [7.5453, 47.216709], [7.543104, 47.219753], [7.540334, 47.216284], [7.539104, 47.216336], [7.53782, 47.215798], [7.538658, 47.213514], [7.538104, 47.213015], [7.534104, 47.212939], [7.533418, 47.213514], [7.533391, 47.214227], [7.533921, 47.214514], [7.533104, 47.215162], [7.531895, 47.214723], [7.530521, 47.213514], [7.532637, 47.213047], [7.532847, 47.211771], [7.532213, 47.210405], [7.530299, 47.209514], [7.532104, 47.207398], [7.533104, 47.208686], [7.534104, 47.206968], [7.536017, 47.207601], [7.537104, 47.207079], [7.538104, 47.207904], [7.539104, 47.206894], [7.541104, 47.206835], [7.54135, 47.206514], [7.539477, 47.206141], [7.539104, 47.205347], [7.538674, 47.206084], [7.535209, 47.206409], [7.535252, 47.205514], [7.534377, 47.205241], [7.534258, 47.20436], [7.53324, 47.204378], [7.533157, 47.203461], [7.532322, 47.203295], [7.532323, 47.201514], [7.531506, 47.201112], [7.531104, 47.200278], [7.530028, 47.200514], [7.529429, 47.202514], [7.530104, 47.203243], [7.531218, 47.2034], [7.531357, 47.204261], [7.53211, 47.204514], [7.530591, 47.205001], [7.530485, 47.205514], [7.529104, 47.205666], [7.527104, 47.205639], [7.525612, 47.205006], [7.524619, 47.203514], [7.524895, 47.201305], [7.526104, 47.199841], [7.527104, 47.200143], [7.528307, 47.199717], [7.528283, 47.198335], [7.527104, 47.198237], [7.526104, 47.197231], [7.524104, 47.197053], [7.522104, 47.195926], [7.510104, 47.196094], [7.507104, 47.194877], [7.504104, 47.195129], [7.501424, 47.194834], [7.500773, 47.193845], [7.497104, 47.193656], [7.496993, 47.192625], [7.494967, 47.192514], [7.498021, 47.192431], [7.499051, 47.190514], [7.498104, 47.189219], [7.495983, 47.188634], [7.49576, 47.187858], [7.494367, 47.187514], [7.496104, 47.18734], [7.496407, 47.188211], [7.497104, 47.188321], [7.500548, 47.187514], [7.500599, 47.189019], [7.502104, 47.190058], [7.50276, 47.189514], [7.502104, 47.188382], [7.503104, 47.18804], [7.504308, 47.18831], [7.505702, 47.190514], [7.505789, 47.191829], [7.506443, 47.191853], [7.507104, 47.191234], [7.508609, 47.191514], [7.507697, 47.192107], [7.508104, 47.192926], [7.510104, 47.193061], [7.511104, 47.19256], [7.513104, 47.193981], [7.519104, 47.193988], [7.5213, 47.194318], [7.522104, 47.1951], [7.532104, 47.194584], [7.534104, 47.193472], [7.536104, 47.193219], [7.540104, 47.193929], [7.541104, 47.194872], [7.544104, 47.194386], [7.546379, 47.193789], [7.548104, 47.191801], [7.548419, 47.192199], [7.549104, 47.192177], [7.549847, 47.191257], [7.551498, 47.190908], [7.551783, 47.189193], [7.553104, 47.188097], [7.556104, 47.188447], [7.556277, 47.190341], [7.556987, 47.191514], [7.556644, 47.192054], [7.556104, 47.192347], [7.553104, 47.19171], [7.551104, 47.192079], [7.550572, 47.193514], [7.551104, 47.194146], [7.552283, 47.194335], [7.553513, 47.195105], [7.557104, 47.195017], [7.557624, 47.195994], [7.559276, 47.196342], [7.559563, 47.197054], [7.561233, 47.197385], [7.561628, 47.19799], [7.563342, 47.198514], [7.564104, 47.199317], [7.565104, 47.199354], [7.565224, 47.200394], [7.567122, 47.200496], [7.567226, 47.201392], [7.570331, 47.201286], [7.571104, 47.202306], [7.571855, 47.202514], [7.570382, 47.203792], [7.565104, 47.204225], [7.564104, 47.20532], [7.56289, 47.205514], [7.563786, 47.206514], [7.561, 47.20741], [7.562104, 47.207849], [7.562707, 47.208911], [7.564177, 47.209441], [7.564463, 47.210155], [7.565189, 47.210429], [7.565266, 47.211352], [7.567675, 47.211514], [7.567313, 47.211723], [7.563104, 47.211703], [7.562104, 47.210395], [7.559756, 47.211166], [7.559104, 47.212071], [7.558878, 47.21174], [7.557801, 47.211817], [7.555398, 47.210514], [7.555806, 47.209514], [7.555104, 47.20853], [7.554072, 47.208482], [7.551974, 47.209644], [7.549104, 47.206835], [7.547607, 47.207017], [7.547739, 47.208879], [7.548872, 47.209514], [7.549622, 47.210996], [7.550781, 47.211514], [7.550266, 47.211676], [7.550357, 47.215514], [7.552147, 47.216471], [7.553606, 47.219012], [7.555631, 47.219514], [7.556302, 47.220711], [7.556104, 47.221502]]], "type": "Polygon"}, "type": "Feature"}], "type": "FeatureCollection"}, "amenities": [{"id": 292225874, "name": "UBS", "amenity": "atm", "lat": 47.2048431, "lon": 7.5407604}, {"id": 301667716, "name": "Restaurant Sternen", "amenity": "restaurant", "lat": 47.2121965, "lon": 7.5449478}, {"id": 301668363, "name": "Efem Imbiss & Café", "amenity": "fast_food", "lat": 47.2046306, "lon": 7.5405994}, {"id": 301764729, "name": "Vorstadt Bistro", "amenity": "cafe", "lat": 47.2048838, "lon": 7.5408996}, {"id": 301764730, "name": "Medbase Apotheke Solothurn", "amenity": "pharmacy", "lat": 47.2051064, "lon": 7.5405056}, {"id": 302828546, "name": "Caffè Spettacolo", "amenity": "cafe", "lat": 47.2042463, "lon": 7.54277}, {"id": 302828561, "name": "Suteria", "amenity": "cafe", "lat": 47.2081063, "lon": 7.5381924}, {"id": 302828563, "name": "TopPharm Hirsch Apotheke", "amenity": "pharmacy", "lat": 47.207909, "lon": 7.5374217}, {"id": 302828572, "name": "Kaffehalle", "amenity": "cafe", "lat": 47.2081276, "lon": 7.5355274}, {"id": 415415009, "name": "Roter Turm", "amenity": "restaurant", "lat": 47.2074597, "lon": 7.5368962}, {"id": 668900327, "name": "Martinshof", "amenity": "restaurant", "lat": 47.2040202, "lon": 7.5600713}, {"id": 800131296, "name": "Buchser – Bar und Chuchi", "amenity": "restaurant", "lat": 47.2201894, "lon": 7.5552292}, {"id": 830585900, "name": "Class Pizza Burger", "amenity": "restaurant", "lat": 47.213411, "lon": 7.5471937}, {"id": 830588129, "name": "Akropolis", "amenity": "restaurant", "lat": 47.2048882, "lon": 7.5389356}, {"id": 833710708, "name": "Die Grüne Fee", "amenity": "bar", "lat": 47.2074594, "lon": 7.5387601}, {"id": 939041589, "name": "Solo Imbiss", "amenity": "fast_food", "lat": 47.2048779, "lon": 7.5368448}, {"id": 939041596, "name": "Trattoria Napoli", "amenity": "restaurant", "lat": 47.2045375, "lon": 7.5362046}, {"id": 939041599, "name": "Notausgang", "amenity": "restaurant", "lat": 47.2044483, "lon": 7.5363896}, {"id": 939041612, "name": "The Dock", "amenity": "bar", "lat": 47.2051717, "lon": 7.5361348}, {"id": 939041616, "name": "Adler", "amenity": "restaurant", "lat": 47.2047763, "lon": 7.5361643}, {"id": 939041620, "name": "Altes Spital", "amenity": "restaurant", "lat": 47.2048314, "lon": 7.5354098}, {"id": 939041621, "name": "Sonne", "amenity": "restaurant", "lat": 47.2047854, "lon": 7.5363896}, {"id": 939041623, "name": "Vini-Al Grappolo", "amenity": "restaurant", "lat": 47.2049778, "lon": 7.5368094}, {"id": 939041634, "name": "Steinbock", "amenity": "pub", "lat": 47.2046387, "lon": 7.5379426}, {"id": 939041645, "name": "Fragale", "amenity": "restaurant", "lat": 47.2046861, "lon": 7.5375537}, {"id": 939041649, "name": "Fu-Lin", "amenity": "restaurant", "lat": 47.2037603, "lon": 7.5390531}, {"id": 939048292, "name": "Babylon", "amenity": "fast_food", "lat": 47.2072718, "lon": 7.5368205}, {"id": 939048295, "name": "Chicken Chaoticum", "amenity": "pub", "lat": 47.2082941, "lon": 7.5347806}, {"id": 939048298, "name": "Zunfthaus zu Wirthen", "amenity": "restaurant", "lat": 47.2075725, "lon": 7.5366033}, {"id": 939048299, "name": "Brasserie Federale", "amenity": "restaurant", "lat": 47.2077, "lon": 7.5367052}, {"id": 1305573211, "name": "McDonald's", "amenity": "fast_food", "lat": 47.2040461, "lon": 7.5415408}, {"id": 1305574961, "name": "Thai Sunshine", "amenity": "restaurant", "lat": 47.2047013, "lon": 7.5364428}, {"id": 1348523758, "name": "Steiner", "amenity": "cafe", "lat": 47.2049949, "lon": 7.5407086}, {"id": 1435404356, "name": "Giardino", "amenity": "restaurant", "lat": 47.2060736, "lon": 7.5624688}, {"id": 1445700155, "name": "n/a", "amenity": "parking", "lat": 47.2037855, "lon": 7.5398567}, {"id": 1612175339, "name": "Solheure", "amenity": "pub", "lat": 47.2070877, "lon": 7.5399342}, {"id": 1711878551, "name": "Kaufmännische Berufsschule", "amenity": "school", "lat": 47.2049253, "lon": 7.5382655}, {"id": 1711923342, "name": "NEST", "amenity": "cafe", "lat": 47.206079, "lon": 7.5356996}, {"id": 1711923360, "name": "Gallo Nero", "amenity": "restaurant", "lat": 47.2078324, "lon": 7.5365875}, {"id": 1711992336, "name": "Red John", "amenity": "pub", "lat": 47.2061179, "lon": 7.5358558}, {"id": 1711992359, "name": "Chutz", "amenity": "pub", "lat": 47.2061376, "lon": 7.5359472}, {"id": 1713911589, "name": "Tavola Calda", "amenity": "fast_food", "lat": 47.2051584, "lon": 7.5409779}, {"id": 1715927529, "name": "Cantinetta Bindella", "amenity": "restaurant", "lat": 47.2073052, "lon": 7.5397437}, {"id": 1715927538, "name": "Amun Take-Away", "amenity": "fast_food", "lat": 47.2049508, "lon": 7.540494}, {"id": 1820083459, "name": "n/a", "amenity": "atm", "lat": 47.2083247, "lon": 7.5349187}, {"id": 1825231595, "name": "Kulturm", "amenity": "bar", "lat": 47.208557, "lon": 7.534694}, {"id": 1825232428, "name": "Jonny's Grill Bistro Bar", "amenity": "restaurant", "lat": 47.208657, "lon": 7.53491}, {"id": 1825234424, "name": "Barterre", "amenity": "bar", "lat": 47.208584, "lon": 7.535309}, {"id": 1831316797, "name": "Il Ponte del Sole", "amenity": "restaurant", "lat": 47.2049206, "lon": 7.5360605}, {"id": 1832954732, "name": "Berner Kantonalbank", "amenity": "bank", "lat": 47.2080958, "lon": 7.5356377}, {"id": 2009081375, "name": "Raiffeisenbank Weissenstein", "amenity": "bank", "lat": 47.2082195, "lon": 7.5383002}, {"id": 2011278142, "name": "Barock Cafe", "amenity": "cafe", "lat": 47.2061416, "lon": 7.5361578}, {"id": 2336933387, "name": "Manora", "amenity": "restaurant", "lat": 47.2084144, "lon": 7.536277}, {"id": 2405737636, "name": "Postfinance", "amenity": "atm", "lat": 47.2079031, "lon": 7.5388512}, {"id": 2411862641, "name": "Hofer", "amenity": "cafe", "lat": 47.2080686, "lon": 7.5361749}, {"id": 2419805191, "name": "Birchi", "amenity": "restaurant", "lat": 47.2024748, "lon": 7.5546589}, {"id": 2419805193, "name": "n/a", "amenity": "atm", "lat": 47.203714, "lon": 7.5582157}, {"id": 2419805194, "name": "Raiffeisenbank", "amenity": "bank", "lat": 47.2038652, "lon": 7.5586608}, {"id": 2419805201, "name": "Best Kebab Pizza", "amenity": "fast_food", "lat": 47.2023847, "lon": 7.5539016}, {"id": 2419808444, "name": "Gusto Pizza", "amenity": "restaurant", "lat": 47.2039653, "lon": 7.5574576}, {"id": 2419808446, "name": "Boccalino", "amenity": "restaurant", "lat": 47.2037814, "lon": 7.5575745}, {"id": 2419808448, "name": "Gemeindebibliothek", "amenity": "library", "lat": 47.2027788, "lon": 7.5530885}, {"id": 2419808452, "name": "Villa Linde", "amenity": "bar", "lat": 47.2033526, "lon": 7.5572584}, {"id": 2419808457, "name": "Han Mongolian Barbecue", "amenity": "restaurant", "lat": 47.2029407, "lon": 7.5551911}, {"id": 2421227277, "name": "Bibliothek der Pädagogischen Hochschule", "amenity": "library", "lat": 47.212463, "lon": 7.5433011}, {"id": 2670017043, "name": "Hafebar", "amenity": "bar", "lat": 47.2056468, "lon": 7.5384611}, {"id": 2875065826, "name": "Kastanienbaum", "amenity": "restaurant", "lat": 47.2037471, "lon": 7.5615182}, {"id": 2875114901, "name": "n/a", "amenity": "atm", "lat": 47.2036376, "lon": 7.5600617}, {"id": 2875167761, "name": "Central Pizza und Kebab", "amenity": "fast_food", "lat": 47.2032506, "lon": 7.5568978}, {"id": 2875167762, "name": "Widder", "amenity": "restaurant", "lat": 47.2034093, "lon": 7.5565584}, {"id": 2875320103, "name": "Il Peperoncino", "amenity": "restaurant", "lat": 47.2026083, "lon": 7.5468779}, {"id": 3077030019, "name": "Subway", "amenity": "fast_food", "lat": 47.2041251, "lon": 7.5416014}, {"id": 3077108372, "name": "Bieltor", "amenity": "parking", "lat": 47.2082027, "lon": 7.5344142}, {"id": 3294202313, "name": "Flora mini Beiz", "amenity": "restaurant", "lat": 47.2085584, "lon": 7.5364103}, {"id": 3466147499, "name": "Migros Bank", "amenity": "bank", "lat": 47.2078919, "lon": 7.5372432}, {"id": 3466147503, "name": "lerns - Die Tagesschule", "amenity": "school", "lat": 47.2079556, "lon": 7.5374102}, {"id": 3473937432, "name": "McCafé", "amenity": "cafe", "lat": 47.2040292, "lon": 7.5416204}, {"id": 3503645629, "name": "Coop Restaurant", "amenity": "restaurant", "lat": 47.2033027, "lon": 7.5589743}, {"id": 3503645653, "name": "n/a", "amenity": "atm", "lat": 47.203918, "lon": 7.5574981}, {"id": 3519797888, "name": "Burristurm", "amenity": "restaurant", "lat": 47.2083494, "lon": 7.5347929}, {"id": 3519879172, "name": "n/a", "amenity": "atm", "lat": 47.2081971, "lon": 7.5383554}, {"id": 3585446195, "name": "U-Boot Stadtgrill", "amenity": "fast_food", "lat": 47.2083257, "lon": 7.5367629}, {"id": 3653682046, "name": "Restaurant Alterszentrum Wengistein", "amenity": "restaurant", "lat": 47.2192256, "lon": 7.5427074}, {"id": 3699461285, "name": "Pasha food", "amenity": "fast_food", "lat": 47.2084523, "lon": 7.5369045}, {"id": 3999541458, "name": "Thung Thong", "amenity": "restaurant", "lat": 47.2047057, "lon": 7.537415}, {"id": 4124143098, "name": "così Ristorante & Pizzeria", "amenity": "restaurant", "lat": 47.2047969, "lon": 7.5370633}, {"id": 4147259816, "name": "Mega Imbiss", "amenity": "fast_food", "lat": 47.2075071, "lon": 7.5387218}, {"id": 4147259823, "name": "Stadtcafé", "amenity": "cafe", "lat": 47.2078832, "lon": 7.5371486}, {"id": 4147284551, "name": "UBS", "amenity": "bank", "lat": 47.2077551, "lon": 7.534313}, {"id": 4161741461, "name": "Restaurant Thai Shop", "amenity": "restaurant", "lat": 47.2046512, "lon": 7.5355642}, {"id": 4266767138, "name": "Zum Chregu", "amenity": "restaurant", "lat": 47.2048129, "lon": 7.5358067}, {"id": 4266842689, "name": "Café Bar Landhaus", "amenity": "cafe", "lat": 47.2061982, "lon": 7.5363223}, {"id": 4266842690, "name": "Il Bar", "amenity": "cafe", "lat": 47.2062499, "lon": 7.536452}, {"id": 4273064056, "name": "H4", "amenity": "restaurant", "lat": 47.2058565, "lon": 7.5416093}, {"id": 4318161034, "name": "Stadtrösterei", "amenity": "cafe", "lat": 47.2049559, "lon": 7.5414198}, {"id": 4322755552, "name": "Nonna Rosetta", "amenity": "restaurant", "lat": 47.2044825, "lon": 7.535911}, {"id": 4422603878, "name": "Leopold's", "amenity": "restaurant", "lat": 47.2047568, "lon": 7.5311407}, {"id": 4422603879, "name": "Restaurant Leopold's", "amenity": "bar", "lat": 47.2047793, "lon": 7.5311262}, {"id": 4681419580, "name": "n/a", "amenity": "parking", "lat": 47.2177915, "lon": 7.5528177}, {"id": 4706592469, "name": "La Rondinella", "amenity": "restaurant", "lat": 47.2069102, "lon": 7.5558288}, {"id": 4729391560, "name": "Scintilla Kantine", "amenity": "restaurant", "lat": 47.2085027, "lon": 7.5579226}, {"id": 4809922536, "name": "Pizzeria", "amenity": "restaurant", "lat": 47.2016825, "lon": 7.529064}, {"id": 4987035195, "name": "bistro 9", "amenity": "restaurant", "lat": 47.1997461, "lon": 7.5385738}, {"id": 4987035196, "name": "n/a", "amenity": "restaurant", "lat": 47.1997673, "lon": 7.5402545}, {"id": 4987092811, "name": "La Couronne", "amenity": "restaurant", "lat": 47.2078934, "lon": 7.5385137}, {"id": 5305034656, "name": "Regiobank", "amenity": "bank", "lat": 47.203553, "lon": 7.5595788}, {"id": 5306732866, "name": "n/a", "amenity": "atm", "lat": 47.2035861, "lon": 7.5596714}, {"id": 5516394093, "name": "Bäckerei Duo", "amenity": "cafe", "lat": 47.2045978, "lon": 7.556822}, {"id": 5536034940, "name": "Baseltor", "amenity": "restaurant", "lat": 47.2086202, "lon": 7.5393286}, {"id": 5536087902, "name": "Apple's", "amenity": "fast_food", "lat": 47.2083132, "lon": 7.536903}, {"id": 5536114601, "name": "Lüthy Buchcafé", "amenity": "cafe", "lat": 47.2079602, "lon": 7.535633}, {"id": 5785960651, "name": "n/a", "amenity": "atm", "lat": 47.2042566, "lon": 7.5387939}, {"id": 5786694127, "name": "Argileh", "amenity": "bar", "lat": 47.2046631, "lon": 7.5376706}, {"id": 5819101043, "name": "Mensa FHNW", "amenity": "fast_food", "lat": 47.2124438, "lon": 7.54302}, {"id": 5824700234, "name": "Baloise Bank SoBa", "amenity": "bank", "lat": 47.208886, "lon": 7.5338666}, {"id": 6343197763, "name": "Bibliomedia", "amenity": "library", "lat": 47.2081517, "lon": 7.5422953}, {"id": 6549447901, "name": "Zone 11", "amenity": "restaurant", "lat": 47.2113742, "lon": 7.5362214}, {"id": 6808065180, "name": "Baloise Bank SoBa", "amenity": "atm", "lat": 47.2082554, "lon": 7.5340769}, {"id": 7298442702, "name": "n/a", "amenity": "atm", "lat": 47.2042644, "lon": 7.5422564}, {"id": 7486445714, "name": "Medbase", "amenity": "pharmacy", "lat": 47.2036341, "lon": 7.5603857}, {"id": 7574936353, "name": "Valiant", "amenity": "bank", "lat": 47.2117755, "lon": 7.5389663}, {"id": 8149202110, "name": "n/a", "amenity": "parking", "lat": 47.1980848, "lon": 7.5444719}, {"id": 8155090735, "name": "Gasthof Enge", "amenity": "restaurant", "lat": 47.195985, "lon": 7.546957}, {"id": 8237483378, "name": "Santas Oase", "amenity": "bar", "lat": 47.2061414, "lon": 7.5354487}, {"id": 8754037612, "name": "n/a", "amenity": "restaurant", "lat": 47.1927489, "lon": 7.5047842}, {"id": 9363591360, "name": "n/a", "amenity": "fast_food", "lat": 47.2080937, "lon": 7.534725}, {"id": 9379748446, "name": "Panini Bar", "amenity": "fast_food", "lat": 47.2063648, "lon": 7.5352939}, {"id": 9526797654, "name": "n/a", "amenity": "fast_food", "lat": 47.2045897, "lon": 7.541447}, {"id": 9775359202, "name": "Weinstüberl & Weinverkauf", "amenity": "bar", "lat": 47.2053474, "lon": 7.5367652}, {"id": 10893067316, "name": "Pfefferkorn", "amenity": "restaurant", "lat": 47.208274, "lon": 7.5378613}, {"id": 10961908105, "name": "n/a", "amenity": "fast_food", "lat": 47.2083162, "lon": 7.5369151}, {"id": 11387813944, "name": "n/a", "amenity": "parking", "lat": 47.1998299, "lon": 7.5320215}, {"id": 11844909931, "name": "Memo", "amenity": "fast_food", "lat": 47.2032608, "lon": 7.543415}, {"id": 12112631558, "name": "Solo Fresh & fast Crispy Chicken", "amenity": "restaurant", "lat": 47.2041652, "lon": 7.5388339}, {"id": 12613405657, "name": "Le Restaurant", "amenity": "restaurant", "lat": 47.2079783, "lon": 7.5385136}]}
{"address": "Hölzliweg 9, 8405 Winterthur", "price": 2880, "property_id": 4002014835, "area": "115m²", "rooms": 4.5, "lat": 47.4859972, "lon": 8.77093975, "isochrone": {"features": [{"properties": {"fill-opacity": 0.33, "fillColor": "#bf4040", "opacity": 0.33, "fill": "#bf4040", "fillOpacity": 0.33, "color": "#bf4040", "contour": 5, "metric": "time"}, "geometry": {"coordinates": [[[8.76494, 47.493284], [8.76394, 47.492101], [8.76294, 47.492497], [8.76194, 47.492184], [8.75994, 47.493522], [8.758899, 47.492957], [8.756758, 47.492997], [8.757749, 47.492807], [8.758377, 47.490997], [8.757387, 47.489997], [8.75694, 47.487625], [8.75494, 47.487548], [8.754177, 47.488234], [8.752375, 47.488432], [8.75094, 47.490169], [8.748581, 47.490356], [8.74808, 47.489997], [8.749428, 47.489485], [8.74994, 47.488386], [8.75156, 47.486997], [8.75294, 47.487539], [8.753284, 47.487341], [8.753559, 47.485997], [8.75694, 47.482028], [8.757502, 47.483435], [8.758375, 47.483433], [8.7586, 47.482337], [8.757326, 47.480997], [8.75994, 47.480017], [8.761136, 47.480801], [8.762359, 47.480416], [8.763578, 47.478997], [8.76394, 47.477226], [8.764525, 47.478411], [8.765326, 47.478383], [8.766659, 47.476997], [8.766871, 47.475066], [8.766375, 47.474997], [8.766969, 47.474997], [8.767855, 47.477997], [8.766951, 47.478997], [8.76794, 47.479314], [8.768184, 47.477242], [8.77094, 47.476568], [8.771329, 47.475997], [8.770376, 47.474997], [8.77061, 47.473668], [8.771253, 47.473684], [8.772683, 47.475254], [8.77394, 47.475358], [8.77494, 47.472706], [8.775637, 47.474299], [8.77694, 47.475472], [8.778326, 47.475384], [8.778762, 47.47482], [8.781834, 47.474997], [8.781997, 47.476997], [8.78344, 47.478498], [8.788085, 47.478997], [8.78794, 47.479802], [8.787868, 47.479069], [8.782495, 47.479552], [8.782056, 47.480113], [8.782556, 47.481997], [8.78194, 47.482205], [8.781382, 47.481555], [8.780594, 47.481652], [8.780624, 47.483313], [8.78394, 47.483356], [8.784272, 47.484665], [8.785054, 47.485112], [8.78394, 47.485308], [8.78294, 47.484343], [8.78194, 47.48558], [8.78094, 47.484478], [8.778573, 47.48463], [8.778299, 47.486357], [8.77694, 47.486543], [8.776019, 47.487997], [8.775704, 47.489997], [8.777393, 47.490997], [8.777988, 47.491997], [8.77594, 47.49236], [8.77494, 47.491655], [8.76894, 47.49252], [8.76794, 47.491599], [8.767296, 47.492353], [8.765528, 47.492586], [8.76494, 47.493284]]], "type": "Polygon"}, "type": "Feature"}], "type": "FeatureCollection"}, "amenities": [{"id": 277746978, "name": "Kafi Ass", "amenity": "restaurant", "lat": 47.4924964, "lon": 8.761252}, {"id": 632149361, "name": "Rössli", "amenity": "restaurant", "lat": 47.4822412, "lon": 8.7612677}, {"id": 651516563, "name": "Zürcher Kantonalbank", "amenity": "bank", "lat": 47.4844208, "lon": 8.7598959}, {"id": 1328945978, "name": "Amavita", "amenity": "pharmacy", "lat": 47.4851087, "lon": 8.7623802}, {"id": 1328945988, "name": "Mare et Monti", "amenity": "restaurant", "lat": 47.4849589, "lon": 8.7629776}, {"id": 1458559824, "name": "n/a", "amenity": "parking", "lat": 47.4811873, "lon": 8.7584555}, {"id": 1458560067, "name": "n/a", "amenity": "parking", "lat": 47.4821102, "lon": 8.756938}, {"id": 1458560387, "name": "n/a", "amenity": "parking", "lat": 47.4838172, "lon": 8.755557}, {"id": 1500785669, "name": "Shopping Seen", "amenity": "parking", "lat": 47.4847208, "lon": 8.7632508}, {"id": 1519474203, "name": "Migros Restaurant", "amenity": "restaurant", "lat": 47.4853872, "lon": 8.7627865}, {"id": 1832533157, "name": "n/a", "amenity": "parking", "lat": 47.4847321, "lon": 8.7556731}, {"id": 1832533433, "name": "n/a", "amenity": "parking", "lat": 47.484998, "lon": 8.7553469}, {"id": 1832533734, "name": "n/a", "amenity": "parking", "lat": 47.4852927, "lon": 8.7562722}, {"id": 1832534116, "name": "n/a", "amenity": "parking", "lat": 47.4859684, "lon": 8.7555791}, {"id": 2058933113, "name": "n/a", "amenity": "parking", "lat": 47.4833928, "lon": 8.7601269}, {"id": 2457539648, "name": "Restaurant Kafi Burehus", "amenity": "restaurant", "lat": 47.4866133, "lon": 8.7594559}, {"id": 4095400162, "name": "Café Restaurant Urban", "amenity": "cafe", "lat": 47.4882213, "lon": 8.7590845}, {"id": 4350890743, "name": "Café Mélange", "amenity": "cafe", "lat": 47.4843034, "lon": 8.7641677}, {"id": 4395329792, "name": "Take Away Seen", "amenity": "fast_food", "lat": 47.4837102, "lon": 8.7606874}, {"id": 4395329797, "name": "Jimmy’s Bar", "amenity": "bar", "lat": 47.483154, "lon": 8.7609805}, {"id": 4395329798, "name": "Krone Pub", "amenity": "pub", "lat": 47.483071, "lon": 8.7610753}, {"id": 5380764624, "name": "Erb", "amenity": "cafe", "lat": 47.4858482, "lon": 8.7631807}, {"id": 5770385050, "name": "Seen Pizza - Kebab", "amenity": "fast_food", "lat": 47.4844248, "lon": 8.7628281}, {"id": 6610954916, "name": "n/a", "amenity": "parking", "lat": 47.4828941, "lon": 8.7621569}, {"id": 7817745786, "name": "Zentrum Eule", "amenity": "school", "lat": 47.4870042, "lon": 8.7647046}, {"id": 9847569589, "name": "n/a", "amenity": "parking", "lat": 47.4821872, "lon": 8.7787059}, {"id": 11200227327, "name": "n/a", "amenity": "atm", "lat": 47.4850289, "lon": 8.7631583}, {"id": 11209621996, "name": "Villa Zauberhuet", "amenity": "school", "lat": 47.4879096, "lon": 8.7540898}, {"id": 12546601315, "name": "Post Apotheke", "amenity": "pharmacy", "lat": 47.4854996, "lon": 8.764709}, {"id": 12546601316, "name": "Top 1", "amenity": "restaurant", "lat": 47.4837338, "lon": 8.7601794}, {"id": 12583268649, "name": "Ginger Haus", "amenity": "restaurant", "lat": 47.4842096, "lon": 8.7597043}]}
{"address": "Weidmannstrasse 13, 8046 Zürich", "price": 2880, "property_id": 4001972648, "area": "115m²", "rooms": 4.5, "lat": 47.42325975, "lon": 8.502611041329322, "isochrone": {"features": [{"properties": {"fill-opacity": 0.33, "fillColor": "#bf4040", "opacity": 0.33, "fill": "#bf4040", "fillOpacity": 0.33, "color": "#bf4040", "contour": 5, "metric": "time"}, "geometry": {"coordinates": [[[8.511611, 47.436326], [8.510567, 47.43626], [8.511534, 47.436183], [8.512007, 47.43426], [8.514089, 47.433738], [8.515228, 47.43226], [8.511879, 47.430992], [8.511541, 47.429329], [8.508611, 47.429369], [8.507611, 47.428347], [8.504611, 47.428559], [8.504468, 47.427403], [8.499611, 47.427668], [8.497611, 47.426734], [8.493006, 47.426655], [8.492186, 47.426834], [8.490611, 47.428772], [8.489611, 47.429276], [8.487991, 47.42926], [8.488512, 47.42916], [8.488539, 47.428188], [8.489611, 47.428038], [8.49027, 47.42726], [8.489611, 47.426478], [8.487611, 47.426294], [8.487612, 47.42526], [8.487621, 47.426249], [8.492611, 47.425759], [8.493218, 47.424867], [8.494826, 47.424475], [8.49507, 47.423801], [8.491193, 47.42326], [8.493308, 47.422956], [8.494378, 47.422027], [8.496611, 47.42177], [8.498611, 47.419909], [8.499611, 47.420756], [8.500133, 47.42026], [8.499589, 47.419238], [8.502769, 47.419417], [8.502965, 47.418614], [8.504502, 47.417151], [8.506611, 47.415821], [8.509073, 47.41826], [8.510861, 47.41901], [8.511325, 47.420546], [8.511908, 47.420556], [8.512611, 47.419803], [8.513611, 47.419887], [8.513256, 47.421615], [8.514611, 47.422738], [8.516767, 47.423104], [8.516956, 47.423914], [8.517934, 47.42426], [8.516611, 47.42472], [8.516113, 47.423758], [8.514611, 47.423665], [8.513925, 47.424574], [8.512332, 47.424981], [8.511264, 47.42626], [8.512611, 47.426715], [8.513611, 47.425788], [8.514976, 47.425895], [8.515174, 47.42626], [8.514156, 47.42726], [8.514611, 47.427787], [8.518003, 47.427868], [8.518611, 47.4282], [8.518016, 47.428665], [8.516139, 47.428787], [8.51517, 47.429819], [8.515274, 47.430597], [8.518611, 47.430865], [8.519611, 47.431887], [8.522611, 47.432128], [8.523611, 47.433074], [8.526636, 47.433234], [8.526612, 47.433261], [8.52466, 47.433309], [8.52379, 47.433439], [8.52278, 47.433429], [8.521611, 47.432727], [8.518611, 47.432793], [8.517611, 47.432351], [8.516194, 47.432842], [8.515611, 47.435159], [8.515357, 47.434514], [8.513019, 47.434667], [8.512611, 47.435969], [8.511611, 47.436326]]], "type": "Polygon"}, "type": "Feature"}], "type": "FeatureCollection"}, "amenities": [{"id": 256437327, "name": "Waldhaus Katzensee", "amenity": "restaurant", "lat": 47.4292515, "lon": 8.4893752}, {"id": 315314715, "name": "My Kebab", "amenity": "fast_food", "lat": 47.4210295, "lon": 8.501703}, {"id": 315559019, "name": "Postfinance", "amenity": "atm", "lat": 47.419347, "lon": 8.5078018}, {"id": 317005198, "name": "CS Bancomat", "amenity": "atm", "lat": 47.4197551, "lon": 8.5079146}, {"id": 317005817, "name": "Migros Restaurant", "amenity": "restaurant", "lat": 47.420226, "lon": 8.5085756}, {"id": 317005851, "name": "Treff", "amenity": "fast_food", "lat": 47.4200404, "lon": 8.5085041}, {"id": 765769912, "name": "Medbase Apotheke Zehntenhaus", "amenity": "pharmacy", "lat": 47.4193712, "lon": 8.5067513}, {"id": 1102461658, "name": "Einkaufscenter ZH Affoltern", "amenity": "parking", "lat": 47.4206623, "lon": 8.5080402}, {"id": 1975523704, "name": "Wirtschaft Unterdorf", "amenity": "restaurant", "lat": 47.4262082, "lon": 8.5054134}, {"id": 2133810173, "name": "KuBaA", "amenity": "bar", "lat": 47.4215582, "lon": 8.5058913}, {"id": 2663342789, "name": "Restaurant Büsi", "amenity": "restaurant", "lat": 47.4270313, "lon": 8.5102272}, {"id": 3725379463, "name": "Pizzeria Piazza", "amenity": "restaurant", "lat": 47.4194454, "lon": 8.5060346}, {"id": 3725397475, "name": "Ristorante Pizzeria da Enzo", "amenity": "restaurant", "lat": 47.4184517, "lon": 8.5058744}, {"id": 3725402887, "name": "Hachi Sushi", "amenity": "restaurant", "lat": 47.4193443, "lon": 8.5069373}, {"id": 3725780317, "name": "Zähnte Kafi", "amenity": "cafe", "lat": 47.4197973, "lon": 8.5067754}, {"id": 3729613512, "name": "Restaurant Spice Garden", "amenity": "restaurant", "lat": 47.4193772, "lon": 8.5062829}, {"id": 3782913102, "name": "n/a", "amenity": "parking", "lat": 47.420667, "lon": 8.5075365}, {"id": 4472523737, "name": "PBZ Bibliothek Affoltern", "amenity": "library", "lat": 47.4245881, "lon": 8.5109267}, {"id": 4838594381, "name": "Dropa Affoltern", "amenity": "pharmacy", "lat": 47.420051, "lon": 8.5081901}, {"id": 5174433233, "name": "Kafitreff GZ Affoltern", "amenity": "cafe", "lat": 47.4246154, "lon": 8.5110044}, {"id": 5377673114, "name": "Cinnamon Garden", "amenity": "restaurant", "lat": 47.4192953, "lon": 8.5052369}, {"id": 5377673115, "name": "Bancomat ZKB", "amenity": "atm", "lat": 47.4197363, "lon": 8.5050552}, {"id": 9179370306, "name": "n/a", "amenity": "fast_food", "lat": 47.4292547, "lon": 8.5111259}, {"id": 9726557724, "name": "Privatschule A bis Z", "amenity": "school", "lat": 47.4257179, "lon": 8.5098522}, {"id": 10121414282, "name": "Up2You", "amenity": "fast_food", "lat": 47.419599, "lon": 8.5057955}, {"id": 11523655559, "name": "Da Bella Italia", "amenity": "restaurant", "lat": 47.4232082, "lon": 8.4994145}, {"id": 12059128556, "name": "Serendipity Viet Food", "amenity": "restaurant", "lat": 47.4231318, "lon": 8.499721}, {"id": 12146405973, "name": "Cho Cho Momo", "amenity": "restaurant", "lat": 47.4215944, "lon": 8.501763}, {"id": 12309295616, "name": "n/a", "amenity": "parking", "lat": 47.4191036, "lon": 8.5088216}]}
{"address": "Bavurtga 9 (Altbau), 7402 Bonaduz", "price": 2880, "property_id": 4001756784, "area": "115m²", "rooms": 4.5, "lat": null, "lon": null, "amenities": []}
{"address": "Ahornweg 23, 2542 Pieterlen", "price": 2880, "property_id": 4001669568, "area": "115m²", "rooms": 4.5, "lat": 47.17285930609854, "lon": 7.338240061537902, "isochrone": {"features": [{"properties": {"fill-opacity": 0.33, "fillColor": "#bf4040", "opacity": 0.33, "fill": "#bf4040", "fillOpacity": 0.33, "color": "#bf4040", "contour": 5, "metric": "time"}, "geometry": {"coordinates": [[[7.36724, 47.182892], [7.36624, 47.183369], [7.36424, 47.183303], [7.36224, 47.182157], [7.35924, 47.181597], [7.35824, 47.18206], [7.357595, 47.180504], [7.353799, 47.179301], [7.35324, 47.178542], [7.35124, 47.178505], [7.350879, 47.178859], [7.352404, 47.180695], [7.35224, 47.181169], [7.35024, 47.181006], [7.34924, 47.18021], [7.347034, 47.180066], [7.34624, 47.179179], [7.34512, 47.17998], [7.34324, 47.179258], [7.34224, 47.178249], [7.33824, 47.178284], [7.33724, 47.177584], [7.329198, 47.176902], [7.32824, 47.176279], [7.32624, 47.176074], [7.32556, 47.175539], [7.322495, 47.175604], [7.32124, 47.174891], [7.317512, 47.173859], [7.31524, 47.171414], [7.31424, 47.172714], [7.313113, 47.172859], [7.31224, 47.170356], [7.310864, 47.170483], [7.31024, 47.171957], [7.309881, 47.171219], [7.308819, 47.170859], [7.308627, 47.169472], [7.3078, 47.169419], [7.30724, 47.170353], [7.30569, 47.168409], [7.30324, 47.168087], [7.303018, 47.167637], [7.30724, 47.167205], [7.30824, 47.168456], [7.310294, 47.167805], [7.311542, 47.168161], [7.311506, 47.167859], [7.314435, 47.167054], [7.31524, 47.16611], [7.316733, 47.168367], [7.31924, 47.168536], [7.319875, 47.169224], [7.32124, 47.169545], [7.322718, 47.169337], [7.32324, 47.168545], [7.32524, 47.169969], [7.33194, 47.167559], [7.33324, 47.167463], [7.33424, 47.168285], [7.33524, 47.167305], [7.33824, 47.16685], [7.338564, 47.167535], [7.34024, 47.167721], [7.34569, 47.167409], [7.346133, 47.167859], [7.345888, 47.168859], [7.34724, 47.170119], [7.35424, 47.17015], [7.355968, 47.168859], [7.35524, 47.168068], [7.34994, 47.167859], [7.359814, 47.167433], [7.361523, 47.166859], [7.360732, 47.165368], [7.359705, 47.164859], [7.361391, 47.164709], [7.36424, 47.166166], [7.365827, 47.165446], [7.366129, 47.164748], [7.366986, 47.164606], [7.367205, 47.163824], [7.368664, 47.163859], [7.367352, 47.163972], [7.367328, 47.164947], [7.36658, 47.165199], [7.366006, 47.166625], [7.367404, 47.167696], [7.372089, 47.167709], [7.37224, 47.166811], [7.373994, 47.166859], [7.37226, 47.166879], [7.372251, 47.16787], [7.370564, 47.168183], [7.37024, 47.170122], [7.36824, 47.17031], [7.367761, 47.170859], [7.36824, 47.171449], [7.369782, 47.171859], [7.368835, 47.172454], [7.368885, 47.173215], [7.37024, 47.174533], [7.37124, 47.174215], [7.37162, 47.174479], [7.37224, 47.176914], [7.369784, 47.177404], [7.36924, 47.178322], [7.368261, 47.175838], [7.368448, 47.174859], [7.36624, 47.17241], [7.364962, 47.172581], [7.363823, 47.173442], [7.362783, 47.175403], [7.36275, 47.176349], [7.364289, 47.17781], [7.364602, 47.179498], [7.366459, 47.179641], [7.368913, 47.181187], [7.369093, 47.181859], [7.36724, 47.182892]]], "type": "Polygon"}, "type": "Feature"}], "type": "FeatureCollection"}, "amenities": [{"id": 1124057838, "name": "n/a", "amenity": "parking", "lat": 47.1668835, "lon": 7.3620718}, {"id": 1407146705, "name": "n/a", "amenity": "parking", "lat": 47.1650872, "lon": 7.3616554}, {"id": 2232534921, "name": "La Perla", "amenity": "restaurant", "lat": 47.1746758, "lon": 7.336839}, {"id": 2232538072, "name": "Ascot Pub", "amenity": "pub", "lat": 47.1752263, "lon": 7.3382981}, {"id": 3521295428, "name": "Löwen", "amenity": "restaurant", "lat": 47.18274, "lon": 7.3662249}, {"id": 3521297789, "name": "Hirschen", "amenity": "restaurant", "lat": 47.1814967, "lon": 7.3643205}, {"id": 8825552294, "name": "n/a", "amenity": "atm", "lat": 47.1746141, "lon": 7.3368858}, {"id": 9363777169, "name": "n/a", "amenity": "clinic", "lat": 47.1822209, "lon": 7.3652106}, {"id": 11248926397, "name": "Pizza Center", "amenity": "restaurant", "lat": 47.1830713, "lon": 7.3667025}, {"id": 11249008637, "name": "Naifan Thai Restaurant", "amenity": "restaurant", "lat": 47.1825303, "lon": 7.3664859}]}
{"address": "Via Sasso Corbaro 23, 6593 Cadenazzo", "price": 2880, "property_id": 4001668530, "area": "115m²", "rooms": 4.5, "lat": 46.15130057952928, "lon": 8.944419531213565, "isochrone": {"features": [{"properties": {"fill-opacity": 0.33, "fillColor": "#bf4040", "opacity": 0.33, "fill": "#bf4040", "fillOpacity": 0.33, "color": "#bf4040", "contour": 5, "metric": "time"}, "geometry": {"coordinates": [[[8.95342, 46.162954], [8.952118, 46.162602], [8.94842, 46.162641], [8.947749, 46.161971], [8.94642, 46.161767], [8.94542, 46.163082], [8.94453, 46.16319], [8.94385, 46.16187], [8.942213, 46.161507], [8.94142, 46.160518], [8.93842, 46.161185], [8.936697, 46.160578], [8.93642, 46.161016], [8.936108, 46.159612], [8.931582, 46.159301], [8.93742, 46.1588], [8.939747, 46.156301], [8.938631, 46.155089], [8.93742, 46.155964], [8.936166, 46.156047], [8.93542, 46.156904], [8.93242, 46.156817], [8.931685, 46.157566], [8.930745, 46.157626], [8.92942, 46.158383], [8.928072, 46.157301], [8.927871, 46.153849], [8.92642, 46.153485], [8.926061, 46.15266], [8.923853, 46.151867], [8.92242, 46.152093], [8.920303, 46.151301], [8.92142, 46.151026], [8.9247, 46.148301], [8.92642, 46.147495], [8.93142, 46.148037], [8.942603, 46.147484], [8.94242, 46.146976], [8.93742, 46.146921], [8.93642, 46.145911], [8.932018, 46.145702], [8.931675, 46.145301], [8.933916, 46.144797], [8.93442, 46.143553], [8.93542, 46.144992], [8.93642, 46.144977], [8.938286, 46.144167], [8.94142, 46.144137], [8.941669, 46.145051], [8.944956, 46.145301], [8.944046, 46.145927], [8.94442, 46.146607], [8.949628, 46.146509], [8.950323, 46.146301], [8.950254, 46.145135], [8.95142, 46.145109], [8.953135, 46.145585], [8.95342, 46.146445], [8.954218, 46.146099], [8.955503, 46.146217], [8.955153, 46.147567], [8.95742, 46.148008], [8.95842, 46.149203], [8.957537, 46.149418], [8.957967, 46.150753], [8.959753, 46.150967], [8.96042, 46.151584], [8.974776, 46.151945], [8.975455, 46.152301], [8.975664, 46.153545], [8.97542, 46.153914], [8.975286, 46.153434], [8.97442, 46.153555], [8.973117, 46.154998], [8.973153, 46.155568], [8.975124, 46.155301], [8.975497, 46.154378], [8.976182, 46.154063], [8.977519, 46.154301], [8.977558, 46.156301], [8.978566, 46.156447], [8.979748, 46.155972], [8.98042, 46.156282], [8.98142, 46.157976], [8.98242, 46.158104], [8.983236, 46.159484], [8.98442, 46.159787], [8.984847, 46.160301], [8.984798, 46.160679], [8.98242, 46.160693], [8.981855, 46.159865], [8.97942, 46.159771], [8.978852, 46.158868], [8.977106, 46.158614], [8.97642, 46.157844], [8.97442, 46.15844], [8.973696, 46.157024], [8.972077, 46.156643], [8.97142, 46.156079], [8.968913, 46.156301], [8.969551, 46.157432], [8.96742, 46.157513], [8.963524, 46.158405], [8.96242, 46.158458], [8.961913, 46.157807], [8.960103, 46.157617], [8.95942, 46.15676], [8.95842, 46.156797], [8.957217, 46.157098], [8.956855, 46.157736], [8.955107, 46.157988], [8.955068, 46.158652], [8.956119, 46.159], [8.957072, 46.158953], [8.957049, 46.15793], [8.958721, 46.158301], [8.957776, 46.158657], [8.95742, 46.159677], [8.955003, 46.159884], [8.95366, 46.161301], [8.953939, 46.162301], [8.95342, 46.162954]]], "type": "Polygon"}, "type": "Feature"}], "type": "FeatureCollection"}, "amenities": [{"id": 351962380, "name": "Ristorante Al Ponte", "amenity": "restaurant", "lat": 46.1522025, "lon": 8.9493151}, {"id": 363931468, "name": "Osteria Ronco", "amenity": "cafe", "lat": 46.1465396, "lon": 8.9411193}, {"id": 3169247143, "name": "Pharmacia Centrale", "amenity": "pharmacy", "lat": 46.1517314, "lon": 8.9461626}, {"id": 3262076051, "name": "Osteria Centrale", "amenity": "bar", "lat": 46.1506825, "lon": 8.9485094}, {"id": 3262076054, "name": "Bar Chiosco Gazebo", "amenity": "bar", "lat": 46.1523023, "lon": 8.9419857}, {"id": 3263056485, "name": "Raiffeisen", "amenity": "bank", "lat": 46.1518588, "lon": 8.9452132}, {"id": 4379469160, "name": "Farmacia Centro Contone", "amenity": "pharmacy", "lat": 46.1502041, "lon": 8.925713}, {"id": 4594384397, "name": "Snack-Bar Pagani", "amenity": "cafe", "lat": 46.15437, "lon": 8.9599623}, {"id": 4746081921, "name": "n/a", "amenity": "atm", "lat": 46.1562621, "lon": 8.9676937}, {"id": 5573060792, "name": "Pizza chez Boubou", "amenity": "restaurant", "lat": 46.1525202, "lon": 8.9399504}, {"id": 5811129786, "name": "Raiffeisen", "amenity": "bank", "lat": 46.1556496, "lon": 8.9767474}, {"id": 5834057649, "name": "Leilo Bar", "amenity": "pub", "lat": 46.1516511, "lon": 8.9458343}, {"id": 5835336601, "name": "Il Cantuccio", "amenity": "fast_food", "lat": 46.1524371, "lon": 8.9399602}, {"id": 5867564893, "name": "Biblioteca della Scuola Media di Cadenazzo", "amenity": "library", "lat": 46.1510167, "lon": 8.9418564}, {"id": 5926572180, "name": "Biblioteca comunale per ragazzi", "amenity": "library", "lat": 46.1504232, "lon": 8.9507171}, {"id": 6753134338, "name": "Farmacia Amavita", "amenity": "pharmacy", "lat": 46.1537396, "lon": 8.9621548}, {"id": 9906404511, "name": "Icecream And Cake Manufactory", "amenity": "cafe", "lat": 46.1484645, "lon": 8.9279818}, {"id": 9906441444, "name": "Cow Boy", "amenity": "restaurant", "lat": 46.150294, "lon": 8.9250201}, {"id": 10261258727, "name": "Pizzeria Bar CLUB", "amenity": "restaurant", "lat": 46.1507227, "lon": 8.9431726}, {"id": 12212723046, "name": "Osteria Bisnona", "amenity": "restaurant", "lat": 46.1513435, "lon": 8.9225375}]}
{"address": "Niklaus Konrad-Strasse 4, 4500 Solothurn", "price": 2880, "property_id": 4002053939, "area": "115m²", "rooms": 4.5, "lat": 47.204513902108786, "lon": 7.539104019684887, "isochrone": {"features": [{"properties": {"fill-opacity": 0.33, "fillColor": "#bf4040", "opacity": 0.33, "fill": "#bf4040", "fillOpacity": 0.33, "color": "#bf4040", "contour": 5, "metric": "time"}, "geometry": {"coordinates": [[[7.556104, 47.221502], [7.555847, 47.220771], [7.555104, 47.220786], [7.55375, 47.219868], [7.552449, 47.219859], [7.5521, 47.220518], [7.551748, 47.218514], [7.550484, 47.217134], [7.547104, 47.216447], [7.5453, 47.216709], [7.543104, 47.219753], [7.540334, 47.216284], [7.539104, 47.216336], [7.53782, 47.215798], [7.538658, 47.213514], [7.538104, 47.213015], [7.534104, 47.212939], [7.533418, 47.213514], [7.533391, 47.214227], [7.533921, 47.214514], [7.533104, 47.215162], [7.531895, 47.214723], [7.530521, 47.213514], [7.532637, 47.213047], [7.532847, 47.211771], [7.532213, 47.210405], [7.530299, 47.209514], [7.532104, 47.207398], [7.533104, 47.208686], [7.534104, 47.206968], [7.536017, 47.207601], [7.537104, 47.207079], [7.538104, 47.207904], [7.539104, 47.206894], [7.541104, 47.206835], [7.54135, 47.206514], [7.539477, 47.206141], [7.539104, 47.205347], [7.538674, 47.206084], [7.535209, 47.206409], [7.535252, 47.205514], [7.534377, 47.205241], [7.534258, 47.20436], [7.53324, 47.204378], [7.533157, 47.203461], [7.532322, 47.203295], [7.532323, 47.201514], [7.531506, 47.201112], [7.531104, 47.200278], [7.530028, 47.200514], [7.529429, 47.202514], [7.530104, 47.203243], [7.531218, 47.2034], [7.531357, 47.204261], [7.53211, 47.204514], [7.530591, 47.205001], [7.530485, 47.205514], [7.529104, 47.205666], [7.527104, 47.205639], [7.525612, 47.205006], [7.524619, 47.203514], [7.524895, 47.201305], [7.526104, 47.199841], [7.527104, 47.200143], [7.528307, 47.199717], [7.528283, 47.198335], [7.527104, 47.198237], [7.526104, 47.197231], [7.524104, 47.197053], [7.522104, 47.195926], [7.510104, 47.196094], [7.507104, 47.194877], [7.504104, 47.195129], [7.501424, 47.194834], [7.500773, 47.193845], [7.497104, 47.193656], [7.496993, 47.192625], [7.494967, 47.192514], [7.498021, 47.192431], [7.499051, 47.190514], [7.498104, 47.189219], [7.495983, 47.188634], [7.49576, 47.187858], [7.494367, 47.187514], [7.496104, 47.18734], [7.496407, 47.188211], [7.497104, 47.188321], [7.500548, 47.187514], [7.500599, 47.189019], [7.502104, 47.190058], [7.50276, 47.189514], [7.502104, 47.188382], [7.503104, 47.18804], [7.504308, 47.18831], [7.505702, 47.190514], [7.505789, 47.191829], [7.506443, 47.191853], [7.507104, 47.191234], [7.508609, 47.191514], [7.507697, 47.192107], [7.508104, 47.192926], [7.510104, 47.193061], [7.511104, 47.19256], [7.513104, 47.193981], [7.519104, 47.193988], [7.5213, 47.194318], [7.522104, 47.1951], [7.532104, 47.194584], [7.534104, 47.193472], [7.536104, 47.193219], [7.540104, 47.193929], [7.541104, 47.194872], [7.544104, 47.194386], [7.546379, 47.193789], [7.548104, 47.191801], [7.548419, 47.192199], [7.549104, 47.192177], [7.549847, 47.191257], [7.551498, 47.190908], [7.551783, 47.189193], [7.553104, 47.188097], [7.556104, 47.188447], [7.556277, 47.190341], [7.556987, 47.191514], [7.556644, 47.192054], [7.556104, 47.192347], [7.553104, 47.19171], [7.551104, 47.192079], [7.550572, 47.193514], [7.551104, 47.194146], [7.552283, 47.194335], [7.553513, 47.195105], [7.557104, 47.195017], [7.557624, 47.195994], [7.559276, 47.196342], [7.559563, 47.197054], [7.561233, 47.197385], [7.561628, 47.19799], [7.563342, 47.198514], [7.564104, 47.199317], [7.565104, 47.199354], [7.565224, 47.200394], [7.567122, 47.200496], [7.567226, 47.201392], [7.570331, 47.201286], [7.571104, 47.202306], [7.571855, 47.202514], [7.570382, 47.203792], [7.565104, 47.204225], [7.564104, 47.20532], [7.56289, 47.205514], [7.563786, 47.206514], [7.561, 47.20741], [7.562104, 47.207849], [7.562707, 47.208911], [7.564177, 47.209441], [7.564463, 47.210155], [7.565189, 47.210429], [7.565266, 47.211352], [7.567675, 47.211514], [7.567313, 47.211723], [7.563104, 47.211703], [7.562104, 47.210395], [7.559756, 47.211166], [7.559104, 47.212071], [7.558878, 47.21174], [7.557801, 47.211817], [7.555398, 47.210514], [7.555806, 47.209514], [7.555104, 47.20853], [7.554072, 47.208482], [7.551974, 47.209644], [7.549104, 47.206835], [7.547607, 47.207017], [7.547739, 47.208879], [7.548872, 47.209514], [7.549622, 47.210996], [7.550781, 47.211514], [7.550266, 47.211676], [7.550357, 47.215514], [7.552147, 47.216471], [7.553606, 47.219012], [7.555631, 47.219514], [7.556302, 47.220711], [7.556104, 47.221502]]], "type": "Polygon"}, "type": "Feature"}], "type": "FeatureCollection"}, "amenities": [{"id": 292225874, "name": "UBS", "amenity": "atm", "lat": 47.2048431, "lon": 7.5407604}, {"id": 301667716, "name": "Restaurant Sternen", "amenity": "restaurant", "lat": 47.2121965, "lon": 7.5449478}, {"id": 301668363, "name": "Efem Imbiss & Café", "amenity": "fast_food", "lat": 47.2046306, "lon": 7.5405994}, {"id": 301764729, "name": "Vorstadt Bistro", "amenity": "cafe", "lat": 47.2048838, "lon": 7.5408996}, {"id": 301764730, "name": "Medbase Apotheke Solothurn", "amenity": "pharmacy", "lat": 47.2051064, "lon": 7.5405056}, {"id": 302828546, "name": "Caffè Spettacolo", "amenity": "cafe", "lat": 47.2042463, "lon": 7.54277}, {"id": 302828561, "name": "Suteria", "amenity": "cafe", "lat": 47.2081063, "lon": 7.5381924}, {"id": 302828563, "name": "TopPharm Hirsch Apotheke", "amenity": "pharmacy", "lat": 47.207909, "lon": 7.5374217}, {"id": 302828572, "name": "Kaffehalle", "amenity": "cafe", "lat": 47.2081276, "lon": 7.5355274}, {"id": 415415009, "name": "Roter Turm", "amenity": "restaurant", "lat": 47.2074597, "lon": 7.5368962}, {"id": 668900327, "name": "Martinshof", "amenity": "restaurant", "lat": 47.2040202, "lon": 7.5600713}, {"id": 800131296, "name": "Buchser – Bar und Chuchi", "amenity": "restaurant", "lat": 47.2201894, "lon": 7.5552292}, {"id": 830585900, "name": "Class Pizza Burger", "amenity": "restaurant", "lat": 47.213411, "lon": 7.5471937}, {"id": 830588129, "name": "Akropolis", "amenity": "restaurant", "lat": 47.2048882, "lon": 7.5389356}, {"id": 833710708, "name": "Die Grüne Fee", "amenity": "bar", "lat": 47.2074594, "lon": 7.5387601}, {"id": 939041589, "name": "Solo Imbiss", "amenity": "fast_food", "lat": 47.2048779, "lon": 7.5368448}, {"id": 939041596, "name": "Trattoria Napoli", "amenity": "restaurant", "lat": 47.2045375, "lon": 7.5362046}, {"id": 939041599, "name": "Notausgang", "amenity": "restaurant", "lat": 47.2044483, "lon": 7.5363896}, {"id": 939041612, "name": "The Dock", "amenity": "bar", "lat": 47.2051717, "lon": 7.5361348}, {"id": 939041616, "name": "Adler", "amenity": "restaurant", "lat": 47.2047763, "lon": 7.5361643}, {"id": 939041620, "name": "Altes Spital", "amenity": "restaurant", "lat": 47.2048314, "lon": 7.5354098}, {"id": 939041621, "name": "Sonne", "amenity": "restaurant", "lat": 47.2047854, "lon": 7.5363896}, {"id": 939041623, "name": "Vini-Al Grappolo", "amenity": "restaurant", "lat": 47.2049778, "lon": 7.5368094}, {"id": 939041634, "name": "Steinbock", "amenity": "pub", "lat": 47.2046387, "lon": 7.5379426}, {"id": 939041645, "name": "Fragale", "amenity": "restaurant", "lat": 47.2046861, "lon": 7.5375537}, {"id": 939041649, "name": "Fu-Lin", "amenity": "restaurant", "lat": 47.2037603, "lon": 7.5390531}, {"id": 939048292, "name": "Babylon", "amenity": "fast_food", "lat": 47.2072718, "lon": 7.5368205}, {"id": 939048295, "name": "Chicken Chaoticum", "amenity": "pub", "lat": 47.2082941, "lon": 7.5347806}, {"id": 939048298, "name": "Zunfthaus zu Wirthen", "amenity": "restaurant", "lat": 47.2075725, "lon": 7.5366033}, {"id": 939048299, "name": "Brasserie Federale", "amenity": "restaurant", "lat": 47.2077, "lon": 7.5367052}, {"id": 1305573211, "name": "McDonald's", "amenity": "fast_food", "lat": 47.2040461, "lon": 7.5415408}, {"id": 1305574961, "name": "Thai Sunshine", "amenity": "restaurant", "lat": 47.2047013, "lon": 7.5364428}, {"id": 1348523758, "name": "Steiner", "amenity": "cafe", "lat": 47.2049949, "lon": 7.5407086}, {"id": 1435404356, "name": "Giardino", "amenity": "restaurant", "lat": 47.2060736, "lon": 7.5624688}, {"id": 1445700155, "name": "n/a", "amenity": "parking", "lat": 47.2037855, "lon": 7.5398567}, {"id": 1612175339, "name": "Solheure", "amenity": "pub", "lat": 47.2070877, "lon": 7.5399342}, {"id": 1711878551, "name": "Kaufmännische Berufsschule", "amenity": "school", "lat": 47.2049253, "lon": 7.5382655}, {"id": 1711923342, "name": "NEST", "amenity": "cafe", "lat": 47.206079, "lon": 7.5356996}, {"id": 1711923360, "name": "Gallo Nero", "amenity": "restaurant", "lat": 47.2078324, "lon": 7.5365875}, {"id": 1711992336, "name": "Red John", "amenity": "pub", "lat": 47.2061179, "lon": 7.5358558}, {"id": 1711992359, "name": "Chutz", "amenity": "pub", "lat": 47.2061376, "lon": 7.5359472}, {"id": 1713911589, "name": "Tavola Calda", "amenity": "fast_food", "lat": 47.2051584, "lon": 7.5409779}, {"id": 1715927529, "name": "Cantinetta Bindella", "amenity": "restaurant", "lat": 47.2073052, "lon": 7.5397437}, {"id": 1715927538, "name": "Amun Take-Away", "amenity": "fast_food", "lat": 47.2049508, "lon": 7.540494}, {"id": 1820083459, "name": "n/a", "amenity": "atm", "lat": 47.2083247, "lon": 7.5349187}, {"id": 1825231595, "name": "Kulturm", "amenity": "bar", "lat": 47.208557, "lon": 7.534694}, {"id": 1825232428, "name": "Jonny's Grill Bistro Bar", "amenity": "restaurant", "lat": 47.208657, "lon": 7.53491}, {"id": 1825234424, "name": "Barterre", "amenity": "bar", "lat": 47.208584, "lon": 7.535309}, {"id": 1831316797, "name": "Il Ponte del Sole", "amenity": "restaurant", "lat": 47.2049206, "lon": 7.5360605}, {"id": 1832954732, "name": "Berner Kantonalbank", "amenity": "bank", "lat": 47.2080958, "lon": 7.5356377}, {"id": 2009081375, "name": "Raiffeisenbank Weissenstein", "amenity": "bank", "lat": 47.2082195, "lon": 7.5383002}, {"id": 2011278142, "name": "Barock Cafe", "amenity": "cafe", "lat": 47.2061416, "lon": 7.5361578}, {"id": 2336933387, "name": "Manora", "amenity": "restaurant", "lat": 47.2084144, "lon": 7.536277}, {"id": 2405737636, "name": "Postfinance", "amenity": "atm", "lat": 47.2079031, "lon": 7.5388512}, {"id": 2411862641, "name": "Hofer", "amenity": "cafe", "lat": 47.2080686, "lon": 7.5361749}, {"id": 2419805191, "name": "Birchi", "amenity": "restaurant", "lat": 47.2024748, "lon": 7.5546589}, {"id": 2419805193, "name": "n/a", "amenity": "atm", "lat": 47.203714, "lon": 7.5582157}, {"id": 2419805194, "name": "Raiffeisenbank", "amenity": "bank", "lat": 47.2038652, "lon": 7.5586608}, {"id": 2419805201, "name": "Best Kebab Pizza", "amenity": "fast_food", "lat": 47.2023847, "lon": 7.5539016}, {"id": 2419808444, "name": "Gusto Pizza", "amenity": "restaurant", "lat": 47.2039653, "lon": 7.5574576}, {"id": 2419808446, "name": "Boccalino", "amenity": "restaurant", "lat": 47.2037814, "lon": 7.5575745}, {"id": 2419808448, "name": "Gemeindebibliothek", "amenity": "library", "lat": 47.2027788, "lon": 7.5530885}, {"id": 2419808452, "name": "Villa Linde", "amenity": "bar", "lat": 47.2033526, "lon": 7.5572584}, {"id": 2419808457, "name": "Han Mongolian Barbecue", "amenity": "restaurant", "lat": 47.2029407, "lon": 7.5551911}, {"id": 2421227277, "name": "Bibliothek der Pädagogischen Hochschule", "amenity": "library", "lat": 47.212463, "lon": 7.5433011}, {"id": 2670017043, "name": "Hafebar", "amenity": "bar", "lat": 47.2056468, "lon": 7.5384611}, {"id": 2875065826, "name": "Kastanienbaum", "amenity": "restaurant", "lat": 47.2037471, "lon": 7.5615182}, {"id": 2875114901, "name": "n/a", "amenity": "atm", "lat": 47.2036376, "lon": 7.5600617}, {"id": 2875167761, "name": "Central Pizza und Kebab", "amenity": "fast_food", "lat": 47.2032506, "lon": 7.5568978}, {"id": 2875167762, "name": "Widder", "amenity": "restaurant", "lat": 47.2034093, "lon": 7.5565584}, {"id": 2875320103, "name": "Il Peperoncino", "amenity": "restaurant", "lat": 47.2026083, "lon": 7.5468779}, {"id": 3077030019, "name": "Subway", "amenity": "fast_food", "lat": 47.2041251, "lon": 7.5416014}, {"id": 3077108372, "name": "Bieltor", "amenity": "parking", "lat": 47.2082027, "lon": 7.5344142}, {"id": 3294202313, "name": "Flora mini Beiz", "amenity": "restaurant", "lat": 47.2085584, "lon": 7.5364103}, {"id": 3466147499, "name": "Migros Bank", "amenity": "bank", "lat": 47.2078919, "lon": 7.5372432}, {"id": 3466147503, "name": "lerns - Die Tagesschule", "amenity": "school", "lat": 47.2079556, "lon": 7.5374102}, {"id": 3473937432, "name": "McCafé", "amenity": "cafe", "lat": 47.2040292, "lon": 7.5416204}, {"id": 3503645629, "name": "Coop Restaurant", "amenity": "restaurant", "lat": 47.2033027, "lon": 7.5589743}, {"id": 3503645653, "name": "n/a", "amenity": "atm", "lat": 47.203918, "lon": 7.5574981}, {"id": 3519797888, "name": "Burristurm", "amenity": "restaurant", "lat": 47.2083494, "lon": 7.5347929}, {"id": 3519879172, "name": "n/a", "amenity": "atm", "lat": 47.2081971, "lon": 7.5383554}, {"id": 3585446195, "name": "U-Boot Stadtgrill", "amenity": "fast_food", "lat": 47.2083257, "lon": 7.5367629}, {"id": 3653682046, "name": "Restaurant Alterszentrum Wengistein", "amenity": "restaurant", "lat": 47.2192256, "lon": 7.5427074}, {"id": 3699461285, "name": "Pasha food", "amenity": "fast_food", "lat": 47.2084523, "lon": 7.5369045}, {"id": 3999541458, "name": "Thung Thong", "amenity": "restaurant", "lat": 47.2047057, "lon": 7.537415}, {"id": 4124143098, "name": "così Ristorante & Pizzeria", "amenity": "restaurant", "lat": 47.2047969, "lon": 7.5370633}, {"id": 4147259816, "name": "Mega Imbiss", "amenity": "fast_food", "lat": 47.2075071, "lon": 7.5387218}, {"id": 4147259823, "name": "Stadtcafé", "amenity": "cafe", "lat": 47.2078832, "lon": 7.5371486}, {"id": 4147284551, "name": "UBS", "amenity": "bank", "lat": 47.2077551, "lon": 7.534313}, {"id": 4161741461, "name": "Restaurant Thai Shop", "amenity": "restaurant", "lat": 47.2046512, "lon": 7.5355642}, {"id": 4266767138, "name": "Zum Chregu", "amenity": "restaurant", "lat": 47.2048129, "lon": 7.5358067}, {"id": 4266842689, "name": "Café Bar Landhaus", "amenity": "cafe", "lat": 47.2061982, "lon": 7.5363223}, {"id": 4266842690, "name": "Il Bar", "amenity": "cafe", "lat": 47.2062499, "lon": 7.536452}, {"id": 4273064056, "name": "H4", "amenity": "restaurant", "lat": 47.2058565, "lon": 7.5416093}, {"id": 4318161034, "name": "Stadtrösterei", "amenity": "cafe", "lat": 47.2049559, "lon": 7.5414198}, {"id": 4322755552, "name": "Nonna Rosetta", "amenity": "restaurant", "lat": 47.2044825, "lon": 7.535911}, {"id": 4422603878, "name": "Leopold's", "amenity": "restaurant", "lat": 47.2047568, "lon": 7.5311407}, {"id": 4422603879, "name": "Restaurant Leopold's", "amenity": "bar", "lat": 47.2047793, "lon": 7.5311262}, {"id": 4681419580, "name": "n/a", "amenity": "parking", "lat": 47.2177915, "lon": 7.5528177}, {"id": 4706592469, "name": "La Rondinella", "amenity": "restaurant", "lat": 47.2069102, "lon": 7.5558288}, {"id": 4729391560, "name": "Scintilla Kantine", "amenity": "restaurant", "lat": 47.2085027, "lon": 7.5579226}, {"id": 4809922536, "name": "Pizzeria", "amenity": "restaurant", "lat": 47.2016825, "lon": 7.529064}, {"id": 4987035195, "name": "bistro 9", "amenity": "restaurant", "lat": 47.1997461, "lon": 7.5385738}, {"id": 4987035196, "name": "n/a", "amenity": "restaurant", "lat": 47.1997673, "lon": 7.5402545}, {"id": 4987092811, "name": "La Couronne", "amenity": "restaurant", "lat": 47.2078934, "lon": 7.5385137}, {"id": 5305034656, "name": "Regiobank", "amenity": "bank", "lat": 47.203553, "lon": 7.5595788}, {"id": 5306732866, "name": "n/a", "amenity": "atm", "lat": 47.2035861, "lon": 7.5596714}, {"id": 5516394093, "name": "Bäckerei Duo", "amenity": "cafe", "lat": 47.2045978, "lon": 7.556822}, {"id": 5536034940, "name": "Baseltor", "amenity": "restaurant", "lat": 47.2086202, "lon": 7.5393286}, {"id": 5536087902, "name": "Apple's", "amenity": "fast_food", "lat": 47.2083132, "lon": 7.536903}, {"id": 5536114601, "name": "Lüthy Buchcafé", "amenity": "cafe", "lat": 47.2079602, "lon": 7.535633}, {"id": 5785960651, "name": "n/a", "amenity": "atm", "lat": 47.2042566, "lon": 7.5387939}, {"id": 5786694127, "name": "Argileh", "amenity": "bar", "lat": 47.2046631, "lon": 7.5376706}, {"id": 5819101043, "name": "Mensa FHNW", "amenity": "fast_food", "lat": 47.2124438, "lon": 7.54302}, {"id": 5824700234, "name": "Baloise Bank SoBa", "amenity": "bank", "lat": 47.208886, "lon": 7.5338666}, {"id": 6343197763, "name": "Bibliomedia", "amenity": "library", "lat": 47.2081517, "lon": 7.5422953}, {"id": 6549447901, "name": "Zone 11", "amenity": "restaurant", "lat": 47.2113742, "lon": 7.5362214}, {"id": 6808065180, "name": "Baloise Bank SoBa", "amenity": "atm", "lat": 47.2082554, "lon": 7.5340769}, {"id": 7298442702, "name": "n/a", "amenity": "atm", "lat": 47.2042644, "lon": 7.5422564}, {"id": 7486445714, "name": "Medbase", "amenity": "pharmacy", "lat": 47.2036341, "lon": 7.5603857}, {"id": 7574936353, "name": "Valiant", "amenity": "bank", "lat": 47.2117755, "lon": 7.5389663}, {"id": 8149202110, "name": "n/a", "amenity": "parking", "lat": 47.1980848, "lon": 7.5444719}, {"id": 8155090735, "name": "Gasthof Enge", "amenity": "restaurant", "lat": 47.195985, "lon": 7.546957}, {"id": 8237483378, "name": "Santas Oase", "amenity": "bar", "lat": 47.2061414, "lon": 7.5354487}, {"id": 8754037612, "name": "n/a", "amenity": "restaurant", "lat": 47.1927489, "lon": 7.5047842}, {"id": 9363591360, "name": "n/a", "amenity": "fast_food", "lat": 47.2080937, "lon": 7.534725}, {"id": 9379748446, "name": "Panini Bar", "amenity": "fast_food", "lat": 47.2063648, "lon": 7.5352939}, {"id": 9526797654, "name": "n/a", "amenity": "fast_food", "lat": 47.2045897, "lon": 7.541447}, {"id": 9775359202, "name": "Weinstüberl & Weinverkauf", "amenity": "bar", "lat": 47.2053474, "lon": 7.5367652}, {"id": 10893067316, "name": "Pfefferkorn", "amenity": "restaurant", "lat": 47.208274, "lon": 7.5378613}, {"id": 10961908105, "name": "n/a", "amenity": "fast_food", "lat": 47.2083162, "lon": 7.5369151}, {"id": 11387813944, "name": "n/a", "amenity": "parking", "lat": 47.1998299, "lon": 7.5320215}, {"id": 11844909931, "name": "Memo", "amenity": "fast_food", "lat": 47.2032608, "lon": 7.543415}, {"id": 12112631558, "name": "Solo Fresh & fast Crispy Chicken", "amenity": "restaurant", "lat": 47.2041652, "lon": 7.5388339}, {"id": 12613405657, "name": "Le Restaurant", "amenity": "restaurant", "lat": 47.2079783, "lon": 7.5385136}]}
{"address": "Seeblickstr. 12, 9010 St. Gallen", "price": 2880, "property_id": 4002039822, "area": "115m²", "rooms": 4.5, "lat": 47.44059395, "lon": 9.377784349999999, "isochrone": {"features": [{"properties": {"fill-opacity": 0.33, "fillColor": "#bf4040", "opacity": 0.33, "fill": "#bf4040", "fillOpacity": 0.33, "color": "#bf4040", "contour": 5, "metric": "time"}, "geometry": {"coordinates": [[[9.386784, 47.446783], [9.385784, 47.446978], [9.385151, 47.446227], [9.382784, 47.446077], [9.381784, 47.445015], [9.379784, 47.444975], [9.377784, 47.442924], [9.376241, 47.44305], [9.374784, 47.444185], [9.373784, 47.443277], [9.372784, 47.444307], [9.369784, 47.444148], [9.369288, 47.443594], [9.37033, 47.44114], [9.371129, 47.441249], [9.371784, 47.441923], [9.372934, 47.441744], [9.372014, 47.440594], [9.374014, 47.438594], [9.373301, 47.438077], [9.371437, 47.437941], [9.370784, 47.43595], [9.369975, 47.436594], [9.369784, 47.437479], [9.369558, 47.43682], [9.369486, 47.435594], [9.37029, 47.434594], [9.369784, 47.433387], [9.370784, 47.433268], [9.372156, 47.431594], [9.371784, 47.431119], [9.370784, 47.431037], [9.369784, 47.432238], [9.369458, 47.43192], [9.369541, 47.430351], [9.370784, 47.430146], [9.371381, 47.429594], [9.370041, 47.427594], [9.369862, 47.426594], [9.370517, 47.426327], [9.371816, 47.426562], [9.372784, 47.427829], [9.373784, 47.427054], [9.374784, 47.427303], [9.377784, 47.429875], [9.379784, 47.429222], [9.380784, 47.429564], [9.38113, 47.430248], [9.383463, 47.430594], [9.383784, 47.431744], [9.384392, 47.431201], [9.385784, 47.431276], [9.387508, 47.43287], [9.390136, 47.432946], [9.390784, 47.432621], [9.391356, 47.434022], [9.392973, 47.435594], [9.391363, 47.436173], [9.390402, 47.437594], [9.392784, 47.439207], [9.393784, 47.438244], [9.394784, 47.438313], [9.395161, 47.439217], [9.395979, 47.439594], [9.395564, 47.441594], [9.396087, 47.442291], [9.396134, 47.444245], [9.396976, 47.444785], [9.396798, 47.445594], [9.396784, 47.445596], [9.39678, 47.445589], [9.396506, 47.444873], [9.395358, 47.444594], [9.393071, 47.442308], [9.391426, 47.442235], [9.388784, 47.445591], [9.387424, 47.444954], [9.387019, 47.44336], [9.385572, 47.443382], [9.384798, 47.444594], [9.3861, 47.445279], [9.387117, 47.446594], [9.386784, 47.446783]]], "type": "Polygon"}, "type": "Feature"}], "type": "FeatureCollection"}, "amenities": [{"id": 276171898, "name": "St. Galler Kantonalbank", "amenity": "atm", "lat": 47.4329589, "lon": 9.3835908}, {"id": 445064237, "name": "Wienerberg", "amenity": "restaurant", "lat": 47.4310484, "lon": 9.3735727}, {"id": 445368973, "name": "Schwyter Uni-Beck", "amenity": "cafe", "lat": 47.4328273, "lon": 9.3782718}, {"id": 445419849, "name": "Alpenchique", "amenity": "bar", "lat": 47.4275336, "lon": 9.3745034}, {"id": 445422751, "name": "Rotmontenhof", "amenity": "restaurant", "lat": 47.4370776, "lon": 9.3776357}, {"id": 538035106, "name": "Netts Schützengarten", "amenity": "restaurant", "lat": 47.4297095, "lon": 9.3790265}, {"id": 538035107, "name": "Englers Steakhouse", "amenity": "restaurant", "lat": 47.4296106, "lon": 9.3795549}, {"id": 538035109, "name": "Candela", "amenity": "restaurant", "lat": 47.4294654, "lon": 9.3793256}, {"id": 538039673, "name": "Radisson BLU Parking", "amenity": "parking", "lat": 47.4308579, "lon": 9.3800874}, {"id": 660397221, "name": "Jägerhof", "amenity": "restaurant", "lat": 47.4306647, "lon": 9.3832589}, {"id": 660628243, "name": "Selbstbedienungsrestaurant Badi Rotmonten", "amenity": "fast_food", "lat": 47.4353605, "lon": 9.3741533}, {"id": 714200838, "name": "n/a", "amenity": "parking", "lat": 47.4294849, "lon": 9.3717}, {"id": 911971437, "name": "HSG Cafeteria A", "amenity": "cafe", "lat": 47.4317199, "lon": 9.3745076}, {"id": 911971441, "name": "HSG Cafeteria B", "amenity": "cafe", "lat": 47.432265, "lon": 9.374793}, {"id": 1539782196, "name": "August Bar", "amenity": "bar", "lat": 47.4272899, "lon": 9.3745692}, {"id": 2808678551, "name": "n/a", "amenity": "atm", "lat": 47.4312313, "lon": 9.3823995}, {"id": 3642084193, "name": "Böschenmühle", "amenity": "parking", "lat": 47.4323075, "lon": 9.3868875}, {"id": 4707791993, "name": "Evangelisches Pflegeheim", "amenity": "clinic", "lat": 47.4420365, "lon": 9.3950979}, {"id": 5680123010, "name": "Nannini Pastabar", "amenity": "restaurant", "lat": 47.4393109, "lon": 9.3949246}, {"id": 7389408741, "name": "n/a", "amenity": "parking", "lat": 47.433004, "lon": 9.3761579}, {"id": 7389641926, "name": "n/a", "amenity": "parking", "lat": 47.4296201, "lon": 9.3723286}, {"id": 7393350146, "name": "HSG Mensa", "amenity": "restaurant", "lat": 47.4312445, "lon": 9.3740872}, {"id": 7393352244, "name": "Universitätsbibliothek St.Gallen", "amenity": "library", "lat": 47.4328793, "lon": 9.375203}, {"id": 7394616330, "name": "n/a", "amenity": "parking", "lat": 47.4380156, "lon": 9.3765338}, {"id": 7394684591, "name": "n/a", "amenity": "parking", "lat": 47.4371758, "lon": 9.3767964}, {"id": 7840638541, "name": "Migros Take Away", "amenity": "fast_food", "lat": 47.4356165, "lon": 9.3924724}, {"id": 7840638542, "name": "Migros Restaurant", "amenity": "restaurant", "lat": 47.4357605, "lon": 9.3921277}, {"id": 8356692809, "name": "n/a", "amenity": "parking", "lat": 47.427491, "lon": 9.3743667}, {"id": 8380157467, "name": "Vin", "amenity": "fast_food", "lat": 47.4318581, "lon": 9.3816875}, {"id": 8637451701, "name": "[ad]hoc", "amenity": "bar", "lat": 47.431127, "lon": 9.3739412}, {"id": 8764127775, "name": "MeetingPoint", "amenity": "bar", "lat": 47.4272569, "lon": 9.3736703}, {"id": 12218885965, "name": "n/a", "amenity": "parking", "lat": 47.4395953, "lon": 9.3809115}, {"id": 12229092165, "name": "n/a", "amenity": "parking", "lat": 47.4394536, "lon": 9.3806368}, {"id": 12229092166, "name": "n/a", "amenity": "parking", "lat": 47.439389, "lon": 9.3805741}, {"id": 12462498191, "name": "n/a", "amenity": "parking", "lat": 47.4349081, "lon": 9.3843388}, {"id": 12464802959, "name": "n/a", "amenity": "parking", "lat": 47.4361743, "lon": 9.3911819}, {"id": 12464802968, "name": "n/a", "amenity": "parking", "lat": 47.4361509, "lon": 9.3909689}, {"id": 12466466000, "name": "n/a", "amenity": "parking", "lat": 47.4362459, "lon": 9.3868543}, {"id": 12629023000, "name": "n/a", "amenity": "library", "lat": 47.4317197, "lon": 9.3754157}]}
{"address": "Bellerivestrasse 49, 8008 Zürich", "price": 2880, "property_id": 4002033013, "area": "115m²", "rooms": 4.5, "lat": 47.3566457, "lon": 8.551761367777775, "isochrone": {"features": [{"properties": {"fill-opacity": 0.33, "fillColor": "#bf4040", "opacity": 0.33, "fill": "#bf4040", "fillOpacity": 0.33, "color": "#bf4040", "contour": 5, "metric": "time"}, "geometry": {"coordinates": [[[8.548761, 47.36566], [8.546761, 47.36524], [8.545761, 47.366099], [8.5451, 47.365646], [8.545296, 47.363646], [8.546043, 47.362928], [8.54631, 47.361194], [8.547011, 47.360646], [8.547188, 47.358072], [8.548897, 47.356781], [8.549158, 47.355043], [8.550364, 47.355043], [8.550878, 47.355763], [8.552218, 47.352102], [8.552761, 47.351874], [8.553619, 47.352788], [8.554761, 47.352857], [8.555238, 47.352123], [8.556929, 47.351813], [8.557761, 47.350911], [8.558947, 47.350831], [8.560974, 47.348859], [8.56135, 47.347235], [8.562346, 47.34623], [8.564025, 47.345909], [8.566067, 47.343951], [8.566434, 47.342319], [8.567309, 47.341646], [8.567479, 47.338646], [8.568587, 47.337646], [8.568761, 47.336096], [8.56944, 47.338646], [8.568074, 47.340646], [8.569202, 47.341646], [8.568761, 47.342867], [8.56944, 47.342967], [8.569832, 47.343646], [8.568148, 47.344032], [8.567929, 47.344813], [8.563756, 47.348641], [8.563112, 47.349646], [8.563036, 47.35192], [8.561761, 47.352202], [8.561589, 47.353473], [8.560826, 47.353646], [8.561637, 47.355646], [8.559492, 47.358646], [8.562787, 47.35962], [8.564299, 47.359646], [8.563171, 47.360056], [8.562982, 47.360867], [8.560761, 47.361913], [8.56009, 47.360317], [8.557385, 47.360269], [8.556761, 47.362209], [8.554761, 47.363836], [8.553624, 47.363508], [8.553198, 47.364646], [8.549906, 47.364791], [8.548761, 47.36566]]], "type": "Polygon"}, "type": "Feature"}], "type": "FeatureCollection"}, "amenities": [{"id": 107488702, "name": "n/a", "amenity": "cafe", "lat": 47.3471855, "lon": 8.5624808}, {"id": 268411248, "name": "Hotel Seegarten", "amenity": "restaurant", "lat": 47.3613874, "lon": 8.549412}, {"id": 268420651, "name": "Ginger", "amenity": "restaurant", "lat": 47.3618394, "lon": 8.5506873}, {"id": 268421310, "name": "Tiffins", "amenity": "restaurant", "lat": 47.3618934, "lon": 8.551033}, {"id": 268421599, "name": "Suan Long", "amenity": "restaurant", "lat": 47.3630112, "lon": 8.5495281}, {"id": 268470209, "name": "Quaglinos", "amenity": "restaurant", "lat": 47.3641688, "lon": 8.5472235}, {"id": 268470293, "name": "Du Théatre", "amenity": "restaurant", "lat": 47.363996, "lon": 8.5473846}, {"id": 268470809, "name": "Co Chin Chin", "amenity": "restaurant", "lat": 47.3620903, "lon": 8.5508626}, {"id": 268471384, "name": "Amalfi", "amenity": "restaurant", "lat": 47.3606695, "lon": 8.5499916}, {"id": 268473118, "name": "Bimi", "amenity": "restaurant", "lat": 47.3637174, "lon": 8.5494425}, {"id": 268474433, "name": "Restaurant Pumpstation", "amenity": "restaurant", "lat": 47.3637531, "lon": 8.5462955}, {"id": 268474472, "name": "Drinx Bar db", "amenity": "pub", "lat": 47.3637126, "lon": 8.547619}, {"id": 268482384, "name": "Yooji's", "amenity": "restaurant", "lat": 47.3582879, "lon": 8.5541672}, {"id": 268488025, "name": "Cafe Black", "amenity": "cafe", "lat": 47.3617349, "lon": 8.5485487}, {"id": 268488783, "name": "Parkhaus Utoquai", "amenity": "parking", "lat": 47.3617898, "lon": 8.5482086}, {"id": 268601209, "name": "Gesundheitszentrum für das Alter Wildbach", "amenity": "restaurant", "lat": 47.3575819, "lon": 8.5575836}, {"id": 268601323, "name": "Parkhaus Zürichhorn", "amenity": "parking", "lat": 47.3557489, "lon": 8.5531163}, {"id": 268601822, "name": "Parkhaus Feldegg", "amenity": "parking", "lat": 47.3603851, "lon": 8.5536988}, {"id": 268602010, "name": "Ländli", "amenity": "restaurant", "lat": 47.3627304, "lon": 8.5545618}, {"id": 268602187, "name": "Bistro", "amenity": "parking", "lat": 47.3631336, "lon": 8.5488848}, {"id": 268602878, "name": "Lulu", "amenity": "restaurant", "lat": 47.3649869, "lon": 8.5460635}, {"id": 270692604, "name": "NA081", "amenity": "restaurant", "lat": 47.3597536, "lon": 8.5524861}, {"id": 270797381, "name": "Neumünster", "amenity": "restaurant", "lat": 47.3596206, "lon": 8.5585046}, {"id": 270798260, "name": "Strand-Restaurant Tiefenbrunnen", "amenity": "restaurant", "lat": 47.3519701, "lon": 8.5580482}, {"id": 270799706, "name": "Mühlebach", "amenity": "cafe", "lat": 47.3639923, "lon": 8.5517729}, {"id": 271149013, "name": "Migros Restaurant", "amenity": "restaurant", "lat": 47.3654324, "lon": 8.5478765}, {"id": 271203888, "name": "Bar Lounge Tietzes", "amenity": "pub", "lat": 47.3440548, "lon": 8.5670721}, {"id": 271217159, "name": "La Trattoria Blumenau", "amenity": "restaurant", "lat": 47.3490341, "lon": 8.5631953}, {"id": 271672265, "name": "Silk", "amenity": "restaurant", "lat": 47.3643407, "lon": 8.5470929}, {"id": 273502894, "name": "Valentino", "amenity": "cafe", "lat": 47.3601706, "lon": 8.550781}, {"id": 275341574, "name": "Cheti's Curry", "amenity": "restaurant", "lat": 47.3650488, "lon": 8.5486637}, {"id": 485617147, "name": "Escoffier", "amenity": "restaurant", "lat": 47.3605504, "lon": 8.5524597}, {"id": 485617148, "name": "Stripped Pizza", "amenity": "restaurant", "lat": 47.3602524, "lon": 8.5521363}, {"id": 1291611937, "name": "gooods", "amenity": "fast_food", "lat": 47.3499921, "lon": 8.5614135}, {"id": 1291638554, "name": "Chinagarten Take Away", "amenity": "fast_food", "lat": 47.3545576, "lon": 8.5519589}, {"id": 1416153972, "name": "Postfinance", "amenity": "atm", "lat": 47.3577163, "lon": 8.5540421}, {"id": 1510019206, "name": "Misoga", "amenity": "restaurant", "lat": 47.3614068, "lon": 8.5608856}, {"id": 1710700206, "name": "Ristorante Frascati", "amenity": "restaurant", "lat": 47.3608803, "lon": 8.5478901}, {"id": 1728845231, "name": "D-Vino", "amenity": "pub", "lat": 47.3584615, "lon": 8.553987}, {"id": 1728953807, "name": "Sazio Osteria", "amenity": "restaurant", "lat": 47.3635603, "lon": 8.5495722}, {"id": 1750109103, "name": "CS Bancomat", "amenity": "atm", "lat": 47.3601542, "lon": 8.5524501}, {"id": 1768690515, "name": "Minerva Apotheke", "amenity": "pharmacy", "lat": 47.3614842, "lon": 8.5610538}, {"id": 2225137764, "name": "Credit Suisse", "amenity": "bank", "lat": 47.3652354, "lon": 8.5481418}, {"id": 2225269508, "name": "Lombard Odier & Cie", "amenity": "bank", "lat": 47.3642135, "lon": 8.5464473}, {"id": 2289574750, "name": "Sazio Take Away", "amenity": "fast_food", "lat": 47.3635165, "lon": 8.5496085}, {"id": 2456775289, "name": "blindekuh", "amenity": "restaurant", "lat": 47.3583286, "lon": 8.5571633}, {"id": 3019152928, "name": "Wild Bowls", "amenity": "restaurant", "lat": 47.3636395, "lon": 8.5495067}, {"id": 3075095235, "name": "Babu's Bakery & Coffeehouse", "amenity": "cafe", "lat": 47.3653311, "lon": 8.5475291}, {"id": 3389526413, "name": "Studio Bellerive", "amenity": "restaurant", "lat": 47.3623277, "lon": 8.5475678}, {"id": 3389538257, "name": "Eden Kitchen & Bar", "amenity": "restaurant", "lat": 47.3627091, "lon": 8.5473718}, {"id": 3523102254, "name": "TopPharm Apotheke Höschgasse", "amenity": "pharmacy", "lat": 47.3577116, "lon": 8.5547536}, {"id": 3528789347, "name": "Confiserie Freytag", "amenity": "cafe", "lat": 47.357029, "lon": 8.5549279}, {"id": 3547784304, "name": "Cafeteria UZH Botanischer Garten", "amenity": "cafe", "lat": 47.3588123, "lon": 8.5595427}, {"id": 3551593268, "name": "Pill Apotheke Fröhlichstrasse", "amenity": "pharmacy", "lat": 47.355307, "lon": 8.557001}, {"id": 3554644444, "name": "Seefeldbar", "amenity": "bar", "lat": 47.3547507, "lon": 8.5571903}, {"id": 3558236013, "name": "Brasserie Seefeld", "amenity": "restaurant", "lat": 47.3526098, "lon": 8.5591926}, {"id": 3581352897, "name": "La Zagra", "amenity": "restaurant", "lat": 47.3488821, "lon": 8.5633128}, {"id": 4089670858, "name": "Bibliothek der Institute für Systematische Botanik und für Pflanzenbiologie", "amenity": "library", "lat": 47.3588388, "lon": 8.5595046}, {"id": 4199335192, "name": "Klinik Tiefenbrunnen", "amenity": "clinic", "lat": 47.3435979, "lon": 8.5681466}, {"id": 4472557764, "name": "PBZ Bibliothek Riesbach", "amenity": "library", "lat": 47.3592693, "lon": 8.5539566}, {"id": 4566888345, "name": "n/a", "amenity": "parking", "lat": 47.3511274, "lon": 8.5617765}, {"id": 4827130180, "name": "Kaimug", "amenity": "fast_food", "lat": 47.3653927, "lon": 8.5479063}, {"id": 4833061567, "name": "Totò", "amenity": "restaurant", "lat": 47.3580896, "lon": 8.5538491}, {"id": 4833061571, "name": "Restaurant Kiosk", "amenity": "restaurant", "lat": 47.358135, "lon": 8.5478933}, {"id": 4833061574, "name": "Devil's Place", "amenity": "bar", "lat": 47.3641299, "lon": 8.5470627}, {"id": 4833061582, "name": "Conti", "amenity": "restaurant", "lat": 47.3645073, "lon": 8.5474123}, {"id": 4838594393, "name": "Benu", "amenity": "pharmacy", "lat": 47.3638878, "lon": 8.5488655}, {"id": 4880906379, "name": "Tibits", "amenity": "restaurant", "lat": 47.3649526, "lon": 8.5478868}, {"id": 4889986278, "name": "Bistro Horizont", "amenity": "cafe", "lat": 47.3602322, "lon": 8.5544097}, {"id": 4935627373, "name": "Iroquois", "amenity": "restaurant", "lat": 47.3582918, "lon": 8.5537364}, {"id": 4935627374, "name": "Metzg", "amenity": "restaurant", "lat": 47.355851, "lon": 8.556448}, {"id": 4935627376, "name": "Tüfenegg", "amenity": "restaurant", "lat": 47.3553163, "lon": 8.5541539}, {"id": 4935627377, "name": "Enoteca Riviera", "amenity": "restaurant", "lat": 47.3549625, "lon": 8.5550456}, {"id": 4935627380, "name": "Mura Omakase Restaurant", "amenity": "restaurant", "lat": 47.3545891, "lon": 8.5561613}, {"id": 4935627381, "name": "Miracle", "amenity": "restaurant", "lat": 47.3545311, "lon": 8.5560474}, {"id": 4935627392, "name": "Le Beaujolais", "amenity": "restaurant", "lat": 47.3554751, "lon": 8.5568172}, {"id": 4942450537, "name": "Credit Suisse", "amenity": "atm", "lat": 47.3651831, "lon": 8.5481025}, {"id": 4958366046, "name": "Pizzeria Capri", "amenity": "restaurant", "lat": 47.3604176, "lon": 8.5501478}, {"id": 4958366050, "name": "Tibits Bistro Zürich", "amenity": "restaurant", "lat": 47.3647473, "lon": 8.5475997}, {"id": 4958366051, "name": "Seehof", "amenity": "restaurant", "lat": 47.364315, "lon": 8.5477947}, {"id": 4958439555, "name": "Giusi's", "amenity": "restaurant", "lat": 47.3637686, "lon": 8.5545452}, {"id": 4996185541, "name": "Mame", "amenity": "cafe", "lat": 47.3641224, "lon": 8.5493423}, {"id": 5344545424, "name": "Kornsilo", "amenity": "cafe", "lat": 47.3517143, "lon": 8.560923}, {"id": 5431084536, "name": "Gainsbourg", "amenity": "bar", "lat": 47.3628263, "lon": 8.5491218}, {"id": 5677762209, "name": "GZ Riesbach Cafeteria", "amenity": "cafe", "lat": 47.359245, "lon": 8.5540563}, {"id": 5688147984, "name": "Kai Sushi", "amenity": "restaurant", "lat": 47.3629249, "lon": 8.5497941}, {"id": 5688147986, "name": "Joe & The Juice", "amenity": "cafe", "lat": 47.3628232, "lon": 8.5498902}, {"id": 5688147987, "name": "bubblish", "amenity": "cafe", "lat": 47.3630144, "lon": 8.5497095}, {"id": 5859687885, "name": "Japan saku", "amenity": "restaurant", "lat": 47.3643245, "lon": 8.5478329}, {"id": 5888416187, "name": "Hammam Salon", "amenity": "restaurant", "lat": 47.3569676, "lon": 8.5586356}, {"id": 5922544703, "name": "Razzia Bar", "amenity": "bar", "lat": 47.3609151, "lon": 8.5515444}, {"id": 6715729834, "name": "Hull's School", "amenity": "school", "lat": 47.3656237, "lon": 8.548774}, {"id": 8124534023, "name": "La Muña", "amenity": "restaurant", "lat": 47.3628911, "lon": 8.5472553}, {"id": 9151768393, "name": "Onkozentrum Zürich Seefeld", "amenity": "clinic", "lat": 47.3529907, "lon": 8.5586867}, {"id": 9178520572, "name": "Bernhard Bar Cafe", "amenity": "cafe", "lat": 47.3650806, "lon": 8.5461982}, {"id": 9291427952, "name": "Blaue Ente", "amenity": "bar", "lat": 47.3517875, "lon": 8.5611622}, {"id": 9291427953, "name": "Blaue Ente", "amenity": "restaurant", "lat": 47.3519503, "lon": 8.5611316}, {"id": 9626430086, "name": "n/a", "amenity": "parking", "lat": 47.3640629, "lon": 8.5495435}, {"id": 9726348419, "name": "Tandem IMS, Zürich", "amenity": "school", "lat": 47.3585537, "lon": 8.5542336}, {"id": 9726515094, "name": "Freie Privatschule Zürich", "amenity": "school", "lat": 47.3478076, "lon": 8.5644682}, {"id": 9752219318, "name": "Monocle Café", "amenity": "cafe", "lat": 47.3596826, "lon": 8.5507962}, {"id": 10036043537, "name": "Primarschule KIDS at LAKE Zollikon", "amenity": "school", "lat": 47.3397874, "lon": 8.5679674}, {"id": 10152314163, "name": "The Studio", "amenity": "cafe", "lat": 47.3638328, "lon": 8.5478715}, {"id": 10948858492, "name": "8008 See Lounge", "amenity": "bar", "lat": 47.3468389, "lon": 8.5625315}, {"id": 11235345732, "name": "Resident Café & Eventlocation", "amenity": "cafe", "lat": 47.3627415, "lon": 8.548895}, {"id": 11579521243, "name": "Maison 33", "amenity": "cafe", "lat": 47.3572728, "lon": 8.5526229}, {"id": 11744871126, "name": "Kaisin", "amenity": "restaurant", "lat": 47.3639582, "lon": 8.5478294}, {"id": 11843562096, "name": "Spuntino", "amenity": "cafe", "lat": 47.3546706, "lon": 8.5576663}, {"id": 12561243401, "name": "Weera Pura", "amenity": "restaurant", "lat": 47.3571792, "lon": 8.5531184}, {"id": 12663326764, "name": "Razzia Restaurant", "amenity": "restaurant", "lat": 47.3608124, "lon": 8.5516525}]}
{"address": "Ludwigstr. 5, 9010 St. Gallen", "price": 2880, "property_id": 4002028634, "area": "115m²", "rooms": 4.5, "lat": 47.43990895, "lon": 9.377419517139657, "isochrone": {"features": [{"properties": {"fill-opacity": 0.33, "fillColor": "#bf4040", "opacity": 0.33, "fill": "#bf4040", "fillOpacity": 0.33, "color": "#bf4040", "contour": 5, "metric": "time"}, "geometry": {"coordinates": [[[9.38642, 47.447131], [9.385863, 47.446465], [9.38342, 47.446328], [9.38242, 47.445419], [9.37942, 47.445209], [9.37842, 47.444591], [9.377914, 47.443415], [9.376083, 47.443245], [9.37542, 47.442707], [9.37442, 47.443496], [9.36942, 47.443214], [9.37042, 47.440666], [9.371119, 47.442209], [9.373577, 47.442067], [9.372649, 47.440909], [9.372672, 47.439909], [9.37342, 47.439162], [9.374558, 47.439048], [9.374662, 47.437667], [9.37342, 47.438538], [9.37242, 47.438555], [9.37042, 47.436351], [9.369743, 47.436909], [9.370075, 47.437909], [9.36942, 47.438695], [9.369038, 47.43829], [9.369043, 47.435909], [9.369708, 47.435198], [9.369787, 47.433909], [9.368637, 47.432909], [9.37042, 47.432577], [9.37142, 47.433359], [9.371785, 47.432909], [9.371682, 47.431646], [9.369044, 47.431284], [9.368834, 47.430909], [9.371053, 47.429909], [9.369594, 47.427909], [9.36942, 47.425198], [9.370757, 47.425571], [9.371188, 47.42614], [9.37342, 47.425898], [9.37442, 47.42628], [9.374954, 47.427374], [9.376003, 47.427909], [9.376143, 47.429186], [9.37806, 47.430269], [9.37842, 47.430938], [9.37942, 47.429203], [9.38042, 47.429451], [9.383274, 47.430909], [9.382567, 47.431056], [9.382789, 47.43254], [9.384081, 47.43257], [9.384733, 47.431222], [9.385734, 47.431594], [9.386583, 47.432745], [9.38842, 47.432718], [9.38942, 47.433329], [9.390519, 47.43281], [9.391014, 47.434315], [9.392514, 47.434814], [9.392476, 47.435909], [9.391484, 47.435974], [9.389869, 47.436909], [9.390438, 47.437909], [9.39342, 47.439271], [9.39442, 47.438299], [9.395588, 47.438909], [9.395729, 47.442909], [9.396586, 47.443909], [9.396596, 47.444733], [9.397157, 47.444909], [9.396349, 47.44498], [9.395898, 47.444431], [9.394327, 47.443909], [9.393549, 47.44278], [9.39142, 47.442494], [9.38842, 47.445599], [9.387538, 47.44479], [9.387581, 47.443747], [9.385972, 47.443357], [9.38542, 47.442627], [9.384074, 47.443909], [9.386659, 47.445669], [9.386935, 47.446909], [9.38642, 47.447131]]], "type": "Polygon"}, "type": "Feature"}], "type": "FeatureCollection"}, "amenities": [{"id": 276171898, "name": "St. Galler Kantonalbank", "amenity": "atm", "lat": 47.4329589, "lon": 9.3835908}, {"id": 445064237, "name": "Wienerberg", "amenity": "restaurant", "lat": 47.4310484, "lon": 9.3735727}, {"id": 445368973, "name": "Schwyter Uni-Beck", "amenity": "cafe", "lat": 47.4328273, "lon": 9.3782718}, {"id": 445419849, "name": "Alpenchique", "amenity": "bar", "lat": 47.4275336, "lon": 9.3745034}, {"id": 445420023, "name": "Eiscafé Gekko", "amenity": "cafe", "lat": 47.4268922, "lon": 9.3744683}, {"id": 445420030, "name": "Sushi Bar Wasabi", "amenity": "restaurant", "lat": 47.4267666, "lon": 9.3744883}, {"id": 445420081, "name": "Sauceria", "amenity": "restaurant", "lat": 47.4266685, "lon": 9.3745146}, {"id": 445420385, "name": "WIR", "amenity": "bank", "lat": 47.427097, "lon": 9.3734871}, {"id": 445422751, "name": "Rotmontenhof", "amenity": "restaurant", "lat": 47.4370776, "lon": 9.3776357}, {"id": 538035107, "name": "Englers Steakhouse", "amenity": "restaurant", "lat": 47.4296106, "lon": 9.3795549}, {"id": 538035109, "name": "Candela", "amenity": "restaurant", "lat": 47.4294654, "lon": 9.3793256}, {"id": 538039673, "name": "Radisson BLU Parking", "amenity": "parking", "lat": 47.4308579, "lon": 9.3800874}, {"id": 660628243, "name": "Selbstbedienungsrestaurant Badi Rotmonten", "amenity": "fast_food", "lat": 47.4353605, "lon": 9.3741533}, {"id": 714200838, "name": "n/a", "amenity": "parking", "lat": 47.4294849, "lon": 9.3717}, {"id": 737390699, "name": "Metzgertor", "amenity": "pub", "lat": 47.4271928, "lon": 9.3746816}, {"id": 884300473, "name": "Paparazzo Bar", "amenity": "bar", "lat": 47.4266664, "lon": 9.3738565}, {"id": 884300476, "name": "Blumenberg", "amenity": "restaurant", "lat": 47.4266928, "lon": 9.37389}, {"id": 884300483, "name": "Barista St. Gallen", "amenity": "cafe", "lat": 47.4261611, "lon": 9.3736514}, {"id": 911971437, "name": "HSG Cafeteria A", "amenity": "cafe", "lat": 47.4317199, "lon": 9.3745076}, {"id": 911971441, "name": "HSG Cafeteria B", "amenity": "cafe", "lat": 47.432265, "lon": 9.374793}, {"id": 1539782196, "name": "August Bar", "amenity": "bar", "lat": 47.4272899, "lon": 9.3745692}, {"id": 1539782466, "name": "Schwarzer Engel", "amenity": "restaurant", "lat": 47.4269336, "lon": 9.3745668}, {"id": 2808678551, "name": "n/a", "amenity": "atm", "lat": 47.4312313, "lon": 9.3823995}, {"id": 3166509662, "name": "Alt St.Gallen", "amenity": "restaurant", "lat": 47.4270548, "lon": 9.3743632}, {"id": 3166509669, "name": "Picante", "amenity": "bar", "lat": 47.427085, "lon": 9.3743958}, {"id": 3166509864, "name": "chillout bar Lunaris", "amenity": "bar", "lat": 47.4271656, "lon": 9.374476}, {"id": 3166509865, "name": "krug", "amenity": "restaurant", "lat": 47.427274, "lon": 9.374873}, {"id": 3166509868, "name": "samosa", "amenity": "restaurant", "lat": 47.4268712, "lon": 9.3745737}, {"id": 4092106793, "name": "Migrosbank", "amenity": "bank", "lat": 47.4259607, "lon": 9.3734114}, {"id": 4092587390, "name": "Senso Kitchen", "amenity": "restaurant", "lat": 47.4261967, "lon": 9.3740371}, {"id": 4707791993, "name": "Evangelisches Pflegeheim", "amenity": "clinic", "lat": 47.4420365, "lon": 9.3950979}, {"id": 5680123010, "name": "Nannini Pastabar", "amenity": "restaurant", "lat": 47.4393109, "lon": 9.3949246}, {"id": 5680159568, "name": "Espenmoos", "amenity": "restaurant", "lat": 47.4389006, "lon": 9.3952366}, {"id": 7389408741, "name": "n/a", "amenity": "parking", "lat": 47.433004, "lon": 9.3761579}, {"id": 7389641926, "name": "n/a", "amenity": "parking", "lat": 47.4296201, "lon": 9.3723286}, {"id": 7393350146, "name": "HSG Mensa", "amenity": "restaurant", "lat": 47.4312445, "lon": 9.3740872}, {"id": 7393352244, "name": "Universitätsbibliothek St.Gallen", "amenity": "library", "lat": 47.4328793, "lon": 9.375203}, {"id": 7394616330, "name": "n/a", "amenity": "parking", "lat": 47.4380156, "lon": 9.3765338}, {"id": 7394684591, "name": "n/a", "amenity": "parking", "lat": 47.4371758, "lon": 9.3767964}, {"id": 7503475174, "name": "Maverick's Cocktail Bar", "amenity": "bar", "lat": 47.4268371, "lon": 9.3742725}, {"id": 7503565608, "name": "Café am Ring", "amenity": "cafe", "lat": 47.4265342, "lon": 9.3739767}, {"id": 7503565617, "name": "DeeOne", "amenity": "cafe", "lat": 47.4264939, "lon": 9.3743182}, {"id": 7840638541, "name": "Migros Take Away", "amenity": "fast_food", "lat": 47.4356165, "lon": 9.3924724}, {"id": 7840638542, "name": "Migros Restaurant", "amenity": "restaurant", "lat": 47.4357605, "lon": 9.3921277}, {"id": 8356692809, "name": "n/a", "amenity": "parking", "lat": 47.427491, "lon": 9.3743667}, {"id": 8380157467, "name": "Vin", "amenity": "fast_food", "lat": 47.4318581, "lon": 9.3816875}, {"id": 8637451701, "name": "[ad]hoc", "amenity": "bar", "lat": 47.431127, "lon": 9.3739412}, {"id": 8764127775, "name": "MeetingPoint", "amenity": "bar", "lat": 47.4272569, "lon": 9.3736703}, {"id": 8913653923, "name": "Escape Bar", "amenity": "bar", "lat": 47.4263422, "lon": 9.3740276}, {"id": 9965877227, "name": "Rock Story", "amenity": "bar", "lat": 47.42707, "lon": 9.3745118}, {"id": 12218885965, "name": "n/a", "amenity": "parking", "lat": 47.4395953, "lon": 9.3809115}, {"id": 12229092165, "name": "n/a", "amenity": "parking", "lat": 47.4394536, "lon": 9.3806368}, {"id": 12229092166, "name": "n/a", "amenity": "parking", "lat": 47.439389, "lon": 9.3805741}, {"id": 12462498191, "name": "n/a", "amenity": "parking", "lat": 47.4349081, "lon": 9.3843388}, {"id": 12464802968, "name": "n/a", "amenity": "parking", "lat": 47.4361509, "lon": 9.3909689}, {"id": 12466466000, "name": "n/a", "amenity": "parking", "lat": 47.4362459, "lon": 9.3868543}, {"id": 12629023000, "name": "n/a", "amenity": "library", "lat": 47.4317197, "lon": 9.3754157}]}
{"address": "Via G. Brentani 16, 6900 Lugano", "price": 2880, "property_id": 4002028631, "area": "115m²", "rooms": 4.5, "lat": null, "lon": null, "amenities": []}
{"address": "Via G. Brentani 16, 6900 Lugano", "price": 2880, "property_id": 4002028630, "area": "115m²", "rooms": 4.5, "lat": null, "lon": null, "amenities": []}
{"address": "Guggistrasse 14 A, 6005 Luzern", "price": 2880, "property_id": 4002006119, "area": "115m²", "rooms": 4.5, "lat": 47.0442778, "lon": 8.2996906, "isochrone": {"features": [{"properties": {"fill-opacity": 0.33, "fillColor": "#bf4040", "opacity": 0.33, "fill": "#bf4040", "fillOpacity": 0.33, "color": "#bf4040", "contour": 5, "metric": "time"}, "geometry": {"coordinates": [[[8.301691, 47.050834], [8.300691, 47.051111], [8.298384, 47.050278], [8.29917, 47.047278], [8.298691, 47.046753], [8.296522, 47.047278], [8.296306, 47.048893], [8.295653, 47.049316], [8.295582, 47.047386], [8.293691, 47.047527], [8.292691, 47.047034], [8.291691, 47.047406], [8.290513, 47.047278], [8.289743, 47.046278], [8.292691, 47.045911], [8.293416, 47.045004], [8.294691, 47.04481], [8.295194, 47.044278], [8.293381, 47.041969], [8.294199, 47.039786], [8.295691, 47.039695], [8.296015, 47.038953], [8.294161, 47.038808], [8.291585, 47.037172], [8.291691, 47.036744], [8.292691, 47.036794], [8.294175, 47.035762], [8.294691, 47.030491], [8.295352, 47.033617], [8.298407, 47.035278], [8.298136, 47.036278], [8.299383, 47.037585], [8.30018, 47.037278], [8.299242, 47.035278], [8.300691, 47.034911], [8.301281, 47.035687], [8.302029, 47.035616], [8.302507, 47.033095], [8.303691, 47.032127], [8.303401, 47.034278], [8.304547, 47.035278], [8.304411, 47.036278], [8.306691, 47.03705], [8.308691, 47.036136], [8.308407, 47.038562], [8.309691, 47.038751], [8.310691, 47.038186], [8.311866, 47.038278], [8.311583, 47.039278], [8.312779, 47.040278], [8.312417, 47.041004], [8.310438, 47.041025], [8.309277, 47.042864], [8.309217, 47.043751], [8.309691, 47.044196], [8.310719, 47.044278], [8.309737, 47.044325], [8.309691, 47.046228], [8.306606, 47.046193], [8.30698, 47.047567], [8.301691, 47.050834]]], "type": "Polygon"}, "type": "Feature"}], "type": "FeatureCollection"}, "amenities": [{"id": 311534836, "name": "Neustadt", "amenity": "restaurant", "lat": 47.0444975, "lon": 8.308674}, {"id": 330346226, "name": "Parterre", "amenity": "pub", "lat": 47.0447619, "lon": 8.3077395}, {"id": 507040020, "name": "Oskar", "amenity": "restaurant", "lat": 47.0443317, "lon": 8.3086867}, {"id": 507040932, "name": "Bar Berlin", "amenity": "bar", "lat": 47.0439223, "lon": 8.3084694}, {"id": 507123381, "name": "n/a", "amenity": "atm", "lat": 47.0464013, "lon": 8.3063568}, {"id": 515660030, "name": "Militärgarten", "amenity": "restaurant", "lat": 47.0364246, "lon": 8.3027748}, {"id": 621102495, "name": "n/a", "amenity": "parking", "lat": 47.045583, "lon": 8.309285}, {"id": 622117454, "name": "Haifischbar", "amenity": "pub", "lat": 47.0465099, "lon": 8.3043846}, {"id": 622289996, "name": "Café Bar Piccolino", "amenity": "cafe", "lat": 47.0494785, "lon": 8.3004231}, {"id": 644532757, "name": "Drei Könige", "amenity": "restaurant", "lat": 47.0494899, "lon": 8.3007794}, {"id": 644617980, "name": "Toscana", "amenity": "restaurant", "lat": 47.0500311, "lon": 8.3019634}, {"id": 651966210, "name": "Pikante", "amenity": "restaurant", "lat": 47.049775, "lon": 8.3012857}, {"id": 1014513017, "name": "Bei Miguel", "amenity": "pub", "lat": 47.0475079, "lon": 8.302278}, {"id": 1068970629, "name": "Café Meyer", "amenity": "restaurant", "lat": 47.0454215, "lon": 8.3093691}, {"id": 1069059482, "name": "Helvetia", "amenity": "restaurant", "lat": 47.0459672, "lon": 8.3068468}, {"id": 1069059514, "name": "Zone 5", "amenity": "bar", "lat": 47.0452835, "lon": 8.3087593}, {"id": 1069059545, "name": "Weisses Schloss", "amenity": "restaurant", "lat": 47.045799, "lon": 8.3051527}, {"id": 1069059563, "name": "Salü", "amenity": "cafe", "lat": 47.0458283, "lon": 8.3064919}, {"id": 1069059583, "name": "Nachbar", "amenity": "bar", "lat": 47.0458738, "lon": 8.305106}, {"id": 1069059599, "name": "Houdini", "amenity": "cafe", "lat": 47.0458747, "lon": 8.3076142}, {"id": 1119431811, "name": "Wirtshaus zum Eichhof", "amenity": "restaurant", "lat": 47.0399426, "lon": 8.3005903}, {"id": 1232193102, "name": "Newborn", "amenity": "bar", "lat": 47.0452671, "lon": 8.3095636}, {"id": 1291790574, "name": "Jodlerwirt", "amenity": "restaurant", "lat": 47.0501883, "lon": 8.3019741}, {"id": 1291790580, "name": "Il Cortile", "amenity": "restaurant", "lat": 47.0504102, "lon": 8.3021877}, {"id": 1292171079, "name": "Asia Mr. Rung", "amenity": "restaurant", "lat": 47.0497268, "lon": 8.299415}, {"id": 1292171151, "name": "Bar 58", "amenity": "bar", "lat": 47.0496143, "lon": 8.3013741}, {"id": 1318518539, "name": "Wolf", "amenity": "restaurant", "lat": 47.0458038, "lon": 8.3063911}, {"id": 1353731049, "name": "Bistro Meile", "amenity": "cafe", "lat": 47.0488511, "lon": 8.3022832}, {"id": 1359284591, "name": "Drei Könige", "amenity": "bar", "lat": 47.049542, "lon": 8.3008897}, {"id": 1423740022, "name": "Nefes Sisha Bar", "amenity": "bar", "lat": 47.0477079, "lon": 8.3031947}, {"id": 1518396127, "name": "Moosmatt", "amenity": "restaurant", "lat": 47.0396733, "lon": 8.3037669}, {"id": 1518396150, "name": "Habibi's Cafe & Restaurant", "amenity": "restaurant", "lat": 47.0398264, "lon": 8.3045718}, {"id": 1604641348, "name": "Mee Marathi", "amenity": "restaurant", "lat": 47.0505484, "lon": 8.3011839}, {"id": 1811149663, "name": "Barbès", "amenity": "restaurant", "lat": 47.045985, "lon": 8.30752}, {"id": 1821541393, "name": "Peperoncini", "amenity": "cafe", "lat": 47.0454377, "lon": 8.3037027}, {"id": 1939744074, "name": "Penthouse", "amenity": "bar", "lat": 47.0481586, "lon": 8.3055261}, {"id": 1939744077, "name": "Mekong", "amenity": "restaurant", "lat": 47.0481843, "lon": 8.3053784}, {"id": 1939744082, "name": "Khoua Vientiane", "amenity": "restaurant", "lat": 47.0477535, "lon": 8.3057646}, {"id": 1939744084, "name": "Coffeeshop", "amenity": "cafe", "lat": 47.0482409, "lon": 8.3055152}, {"id": 1939744089, "name": "Thai Garden", "amenity": "restaurant", "lat": 47.0480892, "lon": 8.3052711}, {"id": 1939744091, "name": "La Cucina", "amenity": "restaurant", "lat": 47.0479172, "lon": 8.3058605}, {"id": 1948870044, "name": "Daniele Winebar", "amenity": "restaurant", "lat": 47.0466019, "lon": 8.3063238}, {"id": 1948870049, "name": "Kaiten", "amenity": "restaurant", "lat": 47.0467537, "lon": 8.3061958}, {"id": 1948870050, "name": "Angkor Take Away", "amenity": "restaurant", "lat": 47.0468927, "lon": 8.3067295}, {"id": 1948870057, "name": "Stromboli", "amenity": "cafe", "lat": 47.0464101, "lon": 8.3064801}, {"id": 1948903137, "name": "Privatbank Reichmuth & Co.", "amenity": "bank", "lat": 47.0501823, "lon": 8.3025024}, {"id": 2000559963, "name": "Alfred Caffebar", "amenity": "cafe", "lat": 47.0451386, "lon": 8.3075077}, {"id": 2583452522, "name": "Vegitat", "amenity": "restaurant", "lat": 47.0422682, "lon": 8.3064155}, {"id": 2583452527, "name": "Kaiten", "amenity": "restaurant", "lat": 47.0427784, "lon": 8.3066577}, {"id": 2704255918, "name": "Restaurant Allmend - Kegelsporthalle", "amenity": "restaurant", "lat": 47.0360968, "lon": 8.3035845}, {"id": 3562955898, "name": "El Rincón Argentino", "amenity": "restaurant", "lat": 47.0457467, "lon": 8.3060473}, {"id": 3622682584, "name": "Neustadt Apotheke", "amenity": "pharmacy", "lat": 47.0454013, "lon": 8.3069846}, {"id": 3657585281, "name": "n/a", "amenity": "atm", "lat": 47.0479337, "lon": 8.3045833}, {"id": 3657585285, "name": "Restaurant Fass", "amenity": "restaurant", "lat": 47.0462823, "lon": 8.3043652}, {"id": 3699596675, "name": "Café Nizza Bar", "amenity": "bar", "lat": 47.0482129, "lon": 8.305887}, {"id": 3699596676, "name": "Pinakarri", "amenity": "cafe", "lat": 47.048923, "lon": 8.3012699}, {"id": 3699596682, "name": "Thai Lanna", "amenity": "restaurant", "lat": 47.0476483, "lon": 8.3021402}, {"id": 3804157266, "name": "Volver", "amenity": "restaurant", "lat": 47.0426619, "lon": 8.3065889}, {"id": 3976421659, "name": "by neville's indian dining", "amenity": "restaurant", "lat": 47.0464309, "lon": 8.3064424}, {"id": 4003343427, "name": "Hinicht", "amenity": "bar", "lat": 47.0468825, "lon": 8.3050851}, {"id": 4003553190, "name": "Casa N°1", "amenity": "restaurant", "lat": 47.0429195, "lon": 8.3038464}, {"id": 4004257615, "name": "n/a", "amenity": "parking", "lat": 47.046599, "lon": 8.3036954}, {"id": 4004257815, "name": "Western Union", "amenity": "bank", "lat": 47.0481082, "lon": 8.3028634}, {"id": 4004257915, "name": "Tandoori Indian", "amenity": "restaurant", "lat": 47.0480304, "lon": 8.3029513}, {"id": 4004258204, "name": "Eva Kebab", "amenity": "fast_food", "lat": 47.047824, "lon": 8.3029425}, {"id": 4004258900, "name": "kostbar", "amenity": "bar", "lat": 47.0466715, "lon": 8.3047733}, {"id": 4036285591, "name": "Valiant", "amenity": "bank", "lat": 47.047833, "lon": 8.3046518}, {"id": 4043374991, "name": "Astoria", "amenity": "parking", "lat": 47.047852, "lon": 8.3054265}, {"id": 4046612772, "name": "Tavolino", "amenity": "restaurant", "lat": 47.0422482, "lon": 8.3061022}, {"id": 4209111886, "name": "Raedwulf", "amenity": "pub", "lat": 47.0493831, "lon": 8.3025083}, {"id": 4209128492, "name": "Bar León", "amenity": "bar", "lat": 47.049503, "lon": 8.3023446}, {"id": 4335163549, "name": "BAYTS", "amenity": "restaurant", "lat": 47.0417709, "lon": 8.305903}, {"id": 4484721293, "name": "Aurum", "amenity": "cafe", "lat": 47.049108, "lon": 8.3007613}, {"id": 4842509623, "name": "Asian Takeaway", "amenity": "restaurant", "lat": 47.03976, "lon": 8.3037657}, {"id": 4872027292, "name": "Tacuba", "amenity": "cafe", "lat": 47.038658, "lon": 8.3007294}, {"id": 5018129623, "name": "Made in Sud", "amenity": "fast_food", "lat": 47.0470738, "lon": 8.3038339}, {"id": 5092854082, "name": "Neubad Bistro", "amenity": "restaurant", "lat": 47.0412775, "lon": 8.3070569}, {"id": 5282412594, "name": "Gardist", "amenity": "bar", "lat": 47.0419264, "lon": 8.3053938}, {"id": 5732675469, "name": "Falkens's Burger & Pizza", "amenity": "fast_food", "lat": 47.0490122, "lon": 8.3008805}, {"id": 5779570178, "name": "melissa‘s kitchen", "amenity": "cafe", "lat": 47.0486241, "lon": 8.3030225}, {"id": 5784608753, "name": "Die Kneipe", "amenity": "pub", "lat": 47.0495838, "lon": 8.3013291}, {"id": 5836796342, "name": "Dieci Pizzakurier", "amenity": "fast_food", "lat": 47.045078, "lon": 8.3036813}, {"id": 5893245286, "name": "Don Feri", "amenity": "restaurant", "lat": 47.0426139, "lon": 8.3037411}, {"id": 5981208785, "name": "Kostgeberei", "amenity": "restaurant", "lat": 47.0418295, "lon": 8.3048778}, {"id": 6205585186, "name": "Indian Restaurant Luzern", "amenity": "restaurant", "lat": 47.0434863, "lon": 8.3038132}, {"id": 6417865487, "name": "Erwins Imbiss Stube", "amenity": "fast_food", "lat": 47.0403235, "lon": 8.3096012}, {"id": 6700463195, "name": "Mini Food", "amenity": "fast_food", "lat": 47.0480893, "lon": 8.302892}, {"id": 6944692327, "name": "Pastarazzi", "amenity": "restaurant", "lat": 47.043666, "lon": 8.3063453}, {"id": 6944692329, "name": "Majorelle", "amenity": "cafe", "lat": 47.0444172, "lon": 8.3058223}, {"id": 7075250585, "name": "l‘arbre", "amenity": "bar", "lat": 47.0473095, "lon": 8.3067358}, {"id": 7197807887, "name": "WIR Bank", "amenity": "bank", "lat": 47.0422371, "lon": 8.302409}, {"id": 7606484986, "name": "Café Nord", "amenity": "cafe", "lat": 47.0450638, "lon": 8.3065323}, {"id": 7856693585, "name": "Kommod", "amenity": "restaurant", "lat": 47.0508255, "lon": 8.2999768}, {"id": 7935119891, "name": "Daruma", "amenity": "restaurant", "lat": 47.0500367, "lon": 8.3028382}, {"id": 8109010670, "name": "Liebenau", "amenity": "bar", "lat": 47.0500065, "lon": 8.3029627}, {"id": 9105812367, "name": "Two Hands", "amenity": "cafe", "lat": 47.0460843, "lon": 8.3077308}, {"id": 9105819660, "name": "Glou", "amenity": "cafe", "lat": 47.0458862, "lon": 8.3066548}, {"id": 9127970245, "name": "meinRad", "amenity": "fast_food", "lat": 47.0400625, "lon": 8.3042059}, {"id": 9198050996, "name": "Go Tacos", "amenity": "fast_food", "lat": 47.0458792, "lon": 8.3086228}, {"id": 9245783985, "name": "Kaffeekranz", "amenity": "cafe", "lat": 47.0436289, "lon": 8.3060778}, {"id": 9442245059, "name": "École française", "amenity": "school", "lat": 47.0465218, "lon": 8.2909991}, {"id": 9521436310, "name": "Parkhaus Hirzenmatt", "amenity": "parking", "lat": 47.0469387, "lon": 8.3066768}, {"id": 9853413426, "name": "n/a", "amenity": "parking", "lat": 47.0395682, "lon": 8.3114146}, {"id": 9964531359, "name": "Mairübe", "amenity": "restaurant", "lat": 47.0455094, "lon": 8.309363}, {"id": 10116032018, "name": "n/a", "amenity": "parking", "lat": 47.0471592, "lon": 8.3054565}, {"id": 10116032019, "name": "n/a", "amenity": "parking", "lat": 47.0472541, "lon": 8.3056869}, {"id": 10116032020, "name": "n/a", "amenity": "parking", "lat": 47.0472161, "lon": 8.3057343}, {"id": 10116032022, "name": "n/a", "amenity": "parking", "lat": 47.0469948, "lon": 8.3050399}, {"id": 10116032023, "name": "n/a", "amenity": "parking", "lat": 47.0466471, "lon": 8.3051742}, {"id": 10116032024, "name": "n/a", "amenity": "parking", "lat": 47.0464917, "lon": 8.3053149}, {"id": 10116032025, "name": "n/a", "amenity": "parking", "lat": 47.0463908, "lon": 8.305264}, {"id": 10116032026, "name": "n/a", "amenity": "parking", "lat": 47.0460496, "lon": 8.305142}, {"id": 10116032027, "name": "n/a", "amenity": "parking", "lat": 47.0459225, "lon": 8.3050267}, {"id": 10116032028, "name": "n/a", "amenity": "parking", "lat": 47.0459749, "lon": 8.3051544}, {"id": 10116032029, "name": "n/a", "amenity": "parking", "lat": 47.0460469, "lon": 8.3053398}, {"id": 10116032030, "name": "n/a", "amenity": "parking", "lat": 47.0458578, "lon": 8.3057303}, {"id": 10116032031, "name": "n/a", "amenity": "parking", "lat": 47.0460072, "lon": 8.3055963}, {"id": 10116032032, "name": "n/a", "amenity": "parking", "lat": 47.0460415, "lon": 8.3056885}, {"id": 10116032033, "name": "n/a", "amenity": "parking", "lat": 47.0459031, "lon": 8.3058049}, {"id": 10116032034, "name": "n/a", "amenity": "parking", "lat": 47.0457647, "lon": 8.305917}, {"id": 10116032035, "name": "n/a", "amenity": "parking", "lat": 47.0456963, "lon": 8.3054307}, {"id": 10116032037, "name": "n/a", "amenity": "parking", "lat": 47.0451353, "lon": 8.305739}, {"id": 10116032038, "name": "n/a", "amenity": "parking", "lat": 47.0444614, "lon": 8.3054399}, {"id": 10116032039, "name": "n/a", "amenity": "parking", "lat": 47.0449278, "lon": 8.306422}, {"id": 10116032040, "name": "n/a", "amenity": "parking", "lat": 47.0448517, "lon": 8.3065346}, {"id": 10116032041, "name": "n/a", "amenity": "parking", "lat": 47.0447144, "lon": 8.3061874}, {"id": 10931462054, "name": "n/a", "amenity": "parking", "lat": 47.041142, "lon": 8.3097369}, {"id": 10931462055, "name": "n/a", "amenity": "parking", "lat": 47.040681, "lon": 8.3099858}, {"id": 10931462056, "name": "n/a", "amenity": "parking", "lat": 47.0403041, "lon": 8.3092431}, {"id": 11064369023, "name": "n/a", "amenity": "parking", "lat": 47.047652, "lon": 8.3068071}, {"id": 11064369025, "name": "n/a", "amenity": "parking", "lat": 47.047603, "lon": 8.3065345}, {"id": 11064369026, "name": "n/a", "amenity": "parking", "lat": 47.0474157, "lon": 8.306077}, {"id": 11608216204, "name": "n/a", "amenity": "parking", "lat": 47.0421685, "lon": 8.3068721}, {"id": 12193139160, "name": "Taberna Latina", "amenity": "restaurant", "lat": 47.0433432, "lon": 8.3037722}, {"id": 12384207937, "name": "Café Tacuba Eichwald", "amenity": "cafe", "lat": 47.037062, "lon": 8.3013064}, {"id": 12663198311, "name": "Incline Concept Store", "amenity": "restaurant", "lat": 47.0434264, "lon": 8.3065951}, {"id": 12673368901, "name": "Helen", "amenity": "restaurant", "lat": 47.0437605, "lon": 8.3084862}]}
