{"name": "moana", "lat": 47.3439521, "lon": 8.5297852, "amenity": "cafe"}
{"name": "Il Grappolo", "lat": 47.3361381, "lon": 8.5322408, "amenity": "restaurant"}
{"name": "Yan-Ruyi", "lat": 47.3441094, "lon": 8.53266, "amenity": "restaurant"}
{"name": "Boom", "lat": 47.3266149, "lon": 8.5292088, "amenity": "restaurant"}
{"name": "Ziegel oh Lac", "lat": 47.3435586, "lon": 8.5368559, "amenity": "restaurant"}
{"name": "UBS Restaurant Flur", "lat": 47.382807, "lon": 8.4929412, "amenity": "restaurant"}
{"name": "Freihof Pizzeria Etna", "lat": 47.383491, "lon": 8.4995953, "amenity": "restaurant"}
{"name": "Shilla", "lat": 47.3814984, "lon": 8.5025715, "amenity": "restaurant"}
{"name": "Letzigrund", "lat": 47.3825781, "lon": 8.5012681, "amenity": "restaurant"}
{"name": "Pizza Züri", "lat": 47.3842422, "lon": 8.4978272, "amenity": "restaurant"}
{"name": "Turbinenhalle", "lat": 47.3841009, "lon": 8.4964028, "amenity": "restaurant"}
{"name": "Z am Park", "lat": 47.3765101, "lon": 8.511279, "amenity": "restaurant"}
{"name": "Gabbiano", "lat": 47.409767, "lon": 8.5374793, "amenity": "restaurant"}
{"name": "Zeughauskeller", "lat": 47.3703727, "lon": 8.5399233, "amenity": "restaurant"}
{"name": "Sprüngli Café-Bar", "lat": 47.3692939, "lon": 8.5392157, "amenity": "cafe"}
{"name": "Zum Alten Löwen", "lat": 47.3849796, "lon": 8.5482469, "amenity": "restaurant"}
{"name": "n/a", "lat": 47.3471855, "lon": 8.5624808, "amenity": "cafe"}
{"name": "Cafe Medina", "lat": 47.3420405, "lon": 8.5304612, "amenity": "restaurant"}
{"name": "Haus Hiltl", "lat": 47.3733042, "lon": 8.5367495, "amenity": "restaurant"}
{"name": "Kafi Öfeli", "lat": 47.3845988, "lon": 8.4772959, "amenity": "cafe"}
{"name": "Ristorante Culmann", "lat": 47.3794422, "lon": 8.5470198, "amenity": "restaurant"}
{"name": "La Fontana", "lat": 47.3797201, "lon": 8.5469255, "amenity": "restaurant"}
{"name": "Il Postino", "lat": 47.400103, "lon": 8.5436425, "amenity": "restaurant"}
{"name": "Peking Garden", "lat": 47.3910962, "lon": 8.4888858, "amenity": "restaurant"}
{"name": "Waldhaus Katzensee", "lat": 47.4292515, "lon": 8.4893752, "amenity": "restaurant"}
{"name": "Oberhof", "lat": 47.3734628, "lon": 8.553472, "amenity": "restaurant"}
{"name": "Dar", "lat": 47.3835914, "lon": 8.5283234, "amenity": "restaurant"}
{"name": "Rosengarten", "lat": 47.3697879, "lon": 8.5563885, "amenity": "restaurant"}
{"name": "Grain", "lat": 47.3761503, "lon": 8.559374, "amenity": "restaurant"}
{"name": "Wirtschaft Ziegelhütte", "lat": 47.3995321, "lon": 8.5727756, "amenity": "restaurant"}
{"name": "Pho 50", "lat": 47.3773106, "lon": 8.5130089, "amenity": "restaurant"}
{"name": "Taverne da Angelo", "lat": 47.3761581, "lon": 8.5147672, "amenity": "restaurant"}
{"name": "Restaurant Waldmannsburg", "lat": 47.3791543, "lon": 8.6166817, "amenity": "restaurant"}
{"name": "Pizzeria Il Faro", "lat": 47.3968938, "lon": 8.6138054, "amenity": "restaurant"}
{"name": "Club P1", "lat": 47.4010079, "lon": 8.6056519, "amenity": "bar"}
{"name": "Tasteria", "lat": 47.4145066, "lon": 8.5330149, "amenity": "restaurant"}
{"name": "Kai Sushi", "lat": 47.4143917, "lon": 8.539455, "amenity": "restaurant"}
{"name": "Ploy-Thai", "lat": 47.3639501, "lon": 8.5201156, "amenity": "restaurant"}
{"name": "Soho", "lat": 47.3884346, "lon": 8.5208041, "amenity": "restaurant"}
{"name": "Shangrila Tibet", "lat": 47.3697414, "lon": 8.5100698, "amenity": "restaurant"}
{"name": "Walter Buchmann", "lat": 47.3623912, "lon": 8.5189172, "amenity": "cafe"}
{"name": "AnaMiRa", "lat": 47.3641859, "lon": 8.5204226, "amenity": "restaurant"}
{"name": "Hopfenau", "lat": 47.3651417, "lon": 8.5200023, "amenity": "restaurant"}
{"name": "Jane Fine Food", "lat": 47.3673432, "lon": 8.5200355, "amenity": "restaurant"}
{"name": "Swaad", "lat": 47.3592215, "lon": 8.5162289, "amenity": "restaurant"}
{"name": "Hotel Seegarten", "lat": 47.3613874, "lon": 8.549412, "amenity": "restaurant"}
{"name": "Ginger", "lat": 47.3618394, "lon": 8.5506873, "amenity": "restaurant"}
{"name": "Tiffins", "lat": 47.3618934, "lon": 8.551033, "amenity": "restaurant"}
{"name": "Suan Long", "lat": 47.3630112, "lon": 8.5495281, "amenity": "restaurant"}
{"name": "Kronenhalle", "lat": 47.3675511, "lon": 8.5457188, "amenity": "restaurant"}
{"name": "Terrasse Restaurant", "lat": 47.3678872, "lon": 8.5443882, "amenity": "restaurant"}
{"name": "Café Bar ODEON", "lat": 47.3677942, "lon": 8.5451446, "amenity": "restaurant"}
{"name": "Rosaly's", "lat": 47.3673843, "lon": 8.5458541, "amenity": "restaurant"}
{"name": "Yooji's", "lat": 47.3671867, "lon": 8.546484, "amenity": "restaurant"}
{"name": "Commercio", "lat": 47.3659313, "lon": 8.5490837, "amenity": "restaurant"}
{"name": "Quaglinos", "lat": 47.3641688, "lon": 8.5472235, "amenity": "restaurant"}
{"name": "Du Théatre", "lat": 47.363996, "lon": 8.5473846, "amenity": "restaurant"}
{"name": "Co Chin Chin", "lat": 47.3620903, "lon": 8.5508626, "amenity": "restaurant"}
{"name": "Amalfi", "lat": 47.3606695, "lon": 8.5499916, "amenity": "restaurant"}
{"name": "Bimi", "lat": 47.3637174, "lon": 8.5494425, "amenity": "restaurant"}
{"name": "Restaurant Pumpstation", "lat": 47.3637531, "lon": 8.5462955, "amenity": "restaurant"}
{"name": "Bohemia", "lat": 47.364789, "lon": 8.5548938, "amenity": "restaurant"}
{"name": "Nooba", "lat": 47.3651703, "lon": 8.554528, "amenity": "restaurant"}
{"name": "Yooji's", "lat": 47.3582879, "lon": 8.5541672, "amenity": "restaurant"}
{"name": "Cafe Black", "lat": 47.3617349, "lon": 8.5485487, "amenity": "cafe"}
{"name": "Gesundheitszentrum für das Alter Wildbach", "lat": 47.3575819, "lon": 8.5575836, "amenity": "restaurant"}
{"name": "Ländli", "lat": 47.3627304, "lon": 8.5545618, "amenity": "restaurant"}
{"name": "Santa Lucia", "lat": 47.3663196, "lon": 8.5467367, "amenity": "restaurant"}
{"name": "Lulu", "lat": 47.3649869, "lon": 8.5460635, "amenity": "restaurant"}
{"name": "Grünwald", "lat": 47.4179171, "lon": 8.4826063, "amenity": "restaurant"}
{"name": "House of Ren", "lat": 47.3638611, "lon": 8.5311821, "amenity": "restaurant"}
{"name": "Restaurant Dübi Ice", "lat": 47.3895907, "lon": 8.627177, "amenity": "restaurant"}
{"name": "Weisse Rose", "lat": 47.3682061, "lon": 8.5456652, "amenity": "restaurant"}
{"name": "Minine", "lat": 47.3690028, "lon": 8.5500485, "amenity": "restaurant"}
{"name": "NA081", "lat": 47.3597536, "lon": 8.5524861, "amenity": "restaurant"}
{"name": "Sonnenberg", "lat": 47.3673483, "lon": 8.5675093, "amenity": "restaurant"}
{"name": "Aroma", "lat": 47.3654698, "lon": 8.5636573, "amenity": "restaurant"}
{"name": "Sol", "lat": 47.3652823, "lon": 8.5648541, "amenity": "bar"}
{"name": "Villa Böcklin", "lat": 47.364072, "lon": 8.5606338, "amenity": "cafe"}
{"name": "Alters- & Pflegewohnheim Neumünster", "lat": 47.3629817, "lon": 8.5594513, "amenity": "cafe"}
{"name": "Restaurant Zauberberg", "lat": 47.3632165, "lon": 8.5599915, "amenity": "restaurant"}
{"name": "Lin Lin", "lat": 47.3623472, "lon": 8.5587815, "amenity": "restaurant"}
{"name": "ButchersTable", "lat": 47.3615601, "lon": 8.5603652, "amenity": "restaurant"}
{"name": "Neumünster", "lat": 47.3596206, "lon": 8.5585046, "amenity": "restaurant"}
{"name": "Strand-Restaurant Tiefenbrunnen", "lat": 47.3519701, "lon": 8.5580482, "amenity": "restaurant"}
{"name": "Wolfbach", "lat": 47.3703441, "lon": 8.552204, "amenity": "restaurant"}
{"name": "Afghan Anar", "lat": 47.3697919, "lon": 8.5529812, "amenity": "restaurant"}
{"name": "Café Berner", "lat": 47.3695588, "lon": 8.5540543, "amenity": "cafe"}
{"name": "Mühlebach", "lat": 47.3639923, "lon": 8.5517729, "amenity": "cafe"}
{"name": "Blockhus", "lat": 47.3681833, "lon": 8.5451811, "amenity": "restaurant"}
{"name": "Hotel Hechtplatz Bar", "lat": 47.3682148, "lon": 8.5452505, "amenity": "bar"}
{"name": "Weisser Wind", "lat": 47.3688249, "lon": 8.5455086, "amenity": "restaurant"}
{"name": "Oberdorf Beck", "lat": 47.3686693, "lon": 8.545625, "amenity": "cafe"}
{"name": "Papa Joe's Zürich", "lat": 47.3687595, "lon": 8.5445743, "amenity": "restaurant"}
{"name": "Molino", "lat": 47.3690472, "lon": 8.5439586, "amenity": "restaurant"}
{"name": "Conditorei schober", "lat": 47.3708689, "lon": 8.5418241, "amenity": "cafe"}
{"name": "Zunfthaus zur Meisen", "lat": 47.3700612, "lon": 8.5416945, "amenity": "restaurant"}
{"name": "Bei Moudi am Kunsthaus", "lat": 47.3707349, "lon": 8.5479863, "amenity": "restaurant"}
{"name": "Orsini", "lat": 47.3701032, "lon": 8.5401242, "amenity": "restaurant"}
{"name": "Santa Lucia", "lat": 47.3700603, "lon": 8.5398264, "amenity": "restaurant"}
{"name": "Heugümper", "lat": 47.3702715, "lon": 8.5401314, "amenity": "restaurant"}
{"name": "Zunfthaus zur Waag", "lat": 47.3702401, "lon": 8.5403116, "amenity": "restaurant"}
{"name": "Münsterhöfli", "lat": 47.3700175, "lon": 8.5403598, "amenity": "restaurant"}
{"name": "Puro", "lat": 47.3693, "lon": 8.5405687, "amenity": "restaurant"}
{"name": "Milchbar", "lat": 47.3689961, "lon": 8.5402339, "amenity": "restaurant"}
{"name": "Outback Lodge", "lat": 47.3670788, "lon": 8.5477023, "amenity": "restaurant"}
{"name": "Weisses Kreuz", "lat": 47.3661112, "lon": 8.5486513, "amenity": "restaurant"}
{"name": "Migros Restaurant", "lat": 47.3654324, "lon": 8.5478765, "amenity": "restaurant"}
{"name": "Outpost", "lat": 47.3841997, "lon": 8.5741522, "amenity": "restaurant"}
{"name": "Dieci Restaurant", "lat": 47.3843967, "lon": 8.5751844, "amenity": "restaurant"}
{"name": "La Trattoria Blumenau", "lat": 47.3490341, "lon": 8.5631953, "amenity": "restaurant"}
{"name": "Pflegezentrum Rehalp", "lat": 47.3515572, "lon": 8.5778661, "amenity": "cafe"}
{"name": "Burgwies", "lat": 47.3578267, "lon": 8.5724184, "amenity": "restaurant"}
{"name": "Cafeteria", "lat": 47.3583262, "lon": 8.5707217, "amenity": "cafe"}
{"name": "Antiquaria da marco", "lat": 47.3608497, "lon": 8.5665611, "amenity": "restaurant"}
{"name": "Stiftung Perla Park", "lat": 47.3608126, "lon": 8.5659833, "amenity": "cafe"}
{"name": "Marcellino Pane e Vino", "lat": 47.3602234, "lon": 8.5655522, "amenity": "restaurant"}
{"name": "Royal Panda", "lat": 47.3643316, "lon": 8.5545739, "amenity": "restaurant"}
{"name": "Restaurant Schipfe 16", "lat": 47.373118, "lon": 8.5417898, "amenity": "restaurant"}
{"name": "Brasserie Lipp", "lat": 47.3743748, "lon": 8.5394674, "amenity": "restaurant"}
{"name": "Lotti", "lat": 47.3751744, "lon": 8.5397124, "amenity": "restaurant"}
{"name": "Starbucks", "lat": 47.3736638, "lon": 8.5392193, "amenity": "cafe"}
{"name": "Confiserie Honold", "lat": 47.3736029, "lon": 8.538956, "amenity": "cafe"}
{"name": "Silk", "lat": 47.3643407, "lon": 8.5470929, "amenity": "restaurant"}
{"name": "Belcafe", "lat": 47.3670907, "lon": 8.5451486, "amenity": "cafe"}
{"name": "Valentino", "lat": 47.3601706, "lon": 8.550781, "amenity": "cafe"}
{"name": "Trinity", "lat": 47.3676805, "lon": 8.5372866, "amenity": "restaurant"}
{"name": "Oak Bar", "lat": 47.3675501, "lon": 8.5375522, "amenity": "bar"}
{"name": "FLOR Café Bar", "lat": 47.3615761, "lon": 8.5513602, "amenity": "cafe;bar"}
{"name": "Cheti's Curry", "lat": 47.3650488, "lon": 8.5486637, "amenity": "restaurant"}
{"name": "Starbucks", "lat": 47.3661724, "lon": 8.5469837, "amenity": "cafe"}
{"name": "Dupont Brasserie & Bar", "lat": 47.3761856, "lon": 8.5413414, "amenity": "restaurant"}
{"name": "Sala of Tokyo", "lat": 47.3761821, "lon": 8.5402129, "amenity": "restaurant"}
{"name": "Santa Lucia", "lat": 47.3722057, "lon": 8.5437442, "amenity": "restaurant"}
{"name": "Walliser Kanne", "lat": 47.3766974, "lon": 8.5388369, "amenity": "restaurant"}
{"name": "Café Felix", "lat": 47.3752928, "lon": 8.538374, "amenity": "cafe"}
{"name": "Piazzetta", "lat": 47.3763896, "lon": 8.539384, "amenity": "cafe"}
{"name": "SAM'S Pizza Land", "lat": 47.3760268, "lon": 8.5384828, "amenity": "restaurant"}
{"name": "Baryton", "lat": 47.37605, "lon": 8.5383251, "amenity": "bar"}
{"name": "Schützengasse", "lat": 47.3771315, "lon": 8.5375254, "amenity": "restaurant"}
{"name": "Astra", "lat": 47.3743934, "lon": 8.535549, "amenity": "restaurant"}
{"name": "Pizza Bros", "lat": 47.4097743, "lon": 8.537357, "amenity": "restaurant"}
{"name": "Glogge-Egge", "lat": 47.3729055, "lon": 8.5366859, "amenity": "restaurant"}
{"name": "James Joyce", "lat": 47.3722044, "lon": 8.5371777, "amenity": "restaurant"}
{"name": "Aurora", "lat": 47.3732035, "lon": 8.5379816, "amenity": "restaurant"}
{"name": "Café Zähringer", "lat": 47.3735998, "lon": 8.5447955, "amenity": "restaurant"}
{"name": "Il Tartufo", "lat": 47.360198, "lon": 8.5333948, "amenity": "restaurant"}
{"name": "L'Altro", "lat": 47.3600645, "lon": 8.5340786, "amenity": "restaurant"}
{"name": "Sternen Da Guido", "lat": 47.3597047, "lon": 8.5318434, "amenity": "restaurant"}
{"name": "San Marco", "lat": 47.3635082, "lon": 8.5323081, "amenity": "restaurant"}
{"name": "Ruen Tai", "lat": 47.3637422, "lon": 8.5325109, "amenity": "restaurant"}
{"name": "La Mimosa", "lat": 47.3635147, "lon": 8.5339001, "amenity": "restaurant"}
{"name": "Restaurant Belvoirpark", "lat": 47.3577263, "lon": 8.533274, "amenity": "restaurant"}
{"name": "Barfly'z", "lat": 47.365884, "lon": 8.5367894, "amenity": "bar"}
{"name": "Old Inn", "lat": 47.365841, "lon": 8.5325611, "amenity": "restaurant"}
{"name": "Fujiya of Japan", "lat": 47.3643354, "lon": 8.5321297, "amenity": "restaurant"}
{"name": "Seebad Enge", "lat": 47.3617348, "lon": 8.5370495, "amenity": "bar"}
{"name": "Plaza Bar", "lat": 47.3741673, "lon": 8.524726, "amenity": "bar"}
{"name": "Don Weber", "lat": 47.3878614, "lon": 8.5244404, "amenity": "restaurant"}
{"name": "Quartier 5 Restaurant & Bar", "lat": 47.393791, "lon": 8.5132196, "amenity": "restaurant"}
{"name": "Cucina", "lat": 47.3936197, "lon": 8.5078042, "amenity": "restaurant"}
{"name": "Hotz", "lat": 47.3708561, "lon": 8.6394754, "amenity": "cafe"}
{"name": "KWEER", "lat": 47.3735537, "lon": 8.5446241, "amenity": "bar"}
{"name": "Bubbles", "lat": 47.372671, "lon": 8.528216, "amenity": "restaurant"}
{"name": "St. Jakob Beck", "lat": 47.3738054, "lon": 8.5278402, "amenity": "cafe"}
{"name": "Primitivo", "lat": 47.3851137, "lon": 8.5362371, "amenity": "restaurant"}
{"name": "Hang's", "lat": 47.3972052, "lon": 8.5408759, "amenity": "restaurant"}
{"name": "Starbucks", "lat": 47.3647025, "lon": 8.5317713, "amenity": "cafe"}
{"name": "Les Halles", "lat": 47.3878633, "lon": 8.5186448, "amenity": "restaurant"}
{"name": "Toscano im Puls 5", "lat": 47.3900555, "lon": 8.5179098, "amenity": "restaurant"}
{"name": "Sphères", "lat": 47.3919262, "lon": 8.5187946, "amenity": "bar"}
{"name": "Fusio", "lat": 47.4143333, "lon": 8.5403532, "amenity": "restaurant"}
{"name": "Die Waid", "lat": 47.3999623, "lon": 8.5154056, "amenity": "restaurant"}
{"name": "Sonne", "lat": 47.3772976, "lon": 8.5269997, "amenity": "restaurant"}
{"name": "Rebstock", "lat": 47.4198706, "lon": 8.5480159, "amenity": "restaurant"}
{"name": "Dông Quê", "lat": 47.4202502, "lon": 8.5484299, "amenity": "restaurant"}
{"name": "Family Grill", "lat": 47.4194842, "lon": 8.5469086, "amenity": "restaurant"}
{"name": "Metzgerhalle", "lat": 47.4100617, "lon": 8.5464781, "amenity": "restaurant"}
{"name": "Rolli's Steakhouse", "lat": 47.4098258, "lon": 8.5464212, "amenity": "restaurant"}
{"name": "Bellucci", "lat": 47.4109387, "lon": 8.5469906, "amenity": "restaurant"}
{"name": "Kobal", "lat": 47.3756685, "lon": 8.5243755, "amenity": "restaurant"}
{"name": "Nikos", "lat": 47.377552, "lon": 8.4983437, "amenity": "restaurant"}
{"name": "Tenz Momo", "lat": 47.3775516, "lon": 8.5262968, "amenity": "restaurant"}
{"name": "Jaime El Barco", "lat": 47.4148171, "lon": 8.5408969, "amenity": "restaurant"}
{"name": "Kitchen & Bar by Courtyard", "lat": 47.4143135, "lon": 8.5408549, "amenity": "restaurant"}
{"name": "Santa Lucia", "lat": 47.4092055, "lon": 8.5462331, "amenity": "restaurant"}
{"name": "Cheyenne", "lat": 47.4099302, "lon": 8.5457062, "amenity": "restaurant"}
{"name": "Il Salento", "lat": 47.3792831, "lon": 8.4948742, "amenity": "restaurant"}
{"name": "La Baracca", "lat": 47.3761736, "lon": 8.522301, "amenity": "restaurant"}
{"name": "Chichería Cantina", "lat": 47.3739825, "lon": 8.5222246, "amenity": "restaurant"}
{"name": "Fribourger Stübli", "lat": 47.375039, "lon": 8.5281814, "amenity": "restaurant"}
{"name": "LILY'S", "lat": 47.3825398, "lon": 8.5296036, "amenity": "restaurant"}
{"name": "FiveSpice", "lat": 47.3758295, "lon": 8.5164278, "amenity": "restaurant"}
{"name": "Garibaldi", "lat": 47.3648388, "lon": 8.5323564, "amenity": "bar"}
{"name": "Suan Long", "lat": 47.3748589, "lon": 8.5244037, "amenity": "restaurant"}
{"name": "Yuma", "lat": 47.374422, "lon": 8.5239732, "amenity": "restaurant"}
{"name": "Elisaburg", "lat": 47.3724091, "lon": 8.5232069, "amenity": "bar"}
{"name": "Le Cèdre", "lat": 47.3738833, "lon": 8.5264947, "amenity": "restaurant"}
{"name": "Sarajevska Ćevabdžinica", "lat": 47.3779936, "lon": 8.4926226, "amenity": "restaurant"}
{"name": "Neumarkt", "lat": 47.3725811, "lon": 8.5456297, "amenity": "bar"}
{"name": "Derby", "lat": 47.3761196, "lon": 8.5163348, "amenity": "restaurant"}
{"name": "Rosi", "lat": 47.376432, "lon": 8.5162699, "amenity": "restaurant"}
{"name": "EquiTable", "lat": 47.3778609, "lon": 8.5211491, "amenity": "restaurant"}
{"name": "Dali's Bar", "lat": 47.3748228, "lon": 8.5178061, "amenity": "bar"}
{"name": "L'Artista", "lat": 47.375093, "lon": 8.5178314, "amenity": "restaurant"}
{"name": "The Butcher", "lat": 47.4141814, "lon": 8.6222862, "amenity": "restaurant"}
{"name": "Zur Goldige Guttere", "lat": 47.3744885, "lon": 8.516816, "amenity": "restaurant"}
{"name": "Miki Ramen", "lat": 47.3752742, "lon": 8.5165912, "amenity": "restaurant"}
{"name": "Masala", "lat": 47.3730187, "lon": 8.5289781, "amenity": "restaurant"}
{"name": "Migros Restaurant", "lat": 47.420226, "lon": 8.5085756, "amenity": "restaurant"}
{"name": "Antica Roma", "lat": 47.3702232, "lon": 8.531828, "amenity": "restaurant"}
{"name": "CaBaRe", "lat": 47.4138889, "lon": 8.4774567, "amenity": "cafe"}
{"name": "S-Family", "lat": 47.374375, "lon": 8.5177655, "amenity": "restaurant"}
{"name": "Brick", "lat": 47.3754357, "lon": 8.5244774, "amenity": "bar"}
{"name": "Starbucks", "lat": 47.3765801, "lon": 8.5441952, "amenity": "cafe"}
{"name": "Rheinfelder Bierhalle", "lat": 47.3759081, "lon": 8.5441559, "amenity": "restaurant"}
{"name": "Karl der Grosse", "lat": 47.3697813, "lon": 8.5445846, "amenity": "restaurant"}
{"name": "Restaurant Werdinsel", "lat": 47.3993584, "lon": 8.4893633, "amenity": "restaurant"}
{"name": "Camino", "lat": 47.3770714, "lon": 8.5327288, "amenity": "restaurant"}
{"name": "Ooki Pavillon Letzigrund", "lat": 47.3807554, "lon": 8.5040594, "amenity": "restaurant"}
{"name": "La Catedral", "lat": 47.3707577, "lon": 8.5238038, "amenity": "bar"}
{"name": "Stazione Paradiso", "lat": 47.3867368, "lon": 8.5340332, "amenity": "restaurant"}
{"name": "bQm Kulturcafé & Bar", "lat": 47.3759249, "lon": 8.5466398, "amenity": "cafe"}
{"name": "SV Mensa Polyterrasse", "lat": 47.3763026, "lon": 8.5465369, "amenity": "restaurant"}
{"name": "Tannenbar", "lat": 47.3773953, "lon": 8.5478673, "amenity": "cafe"}
{"name": "Clausiusbar", "lat": 47.3772558, "lon": 8.5470004, "amenity": "restaurant"}
{"name": "food&lab", "lat": 47.378314, "lon": 8.548805, "amenity": "restaurant"}
{"name": "Bernerhof", "lat": 47.3745992, "lon": 8.5320588, "amenity": "restaurant"}
{"name": "Ristorante Italia", "lat": 47.3763729, "lon": 8.5292946, "amenity": "restaurant"}
{"name": "Gonzalez", "lat": 47.3962653, "lon": 8.5402882, "amenity": "restaurant"}
{"name": "Rathaus-Café", "lat": 47.3720795, "lon": 8.5426076, "amenity": "cafe"}
{"name": "Johanniter", "lat": 47.3757513, "lon": 8.5441431, "amenity": "restaurant"}
{"name": "Bierhalle Wolf", "lat": 47.3758264, "lon": 8.543866, "amenity": "restaurant"}
{"name": "Tao's", "lat": 47.3714506, "lon": 8.540148, "amenity": "restaurant"}
{"name": "Kropf", "lat": 47.3706516, "lon": 8.5402164, "amenity": "restaurant"}
{"name": "Bindella", "lat": 47.3706846, "lon": 8.5406432, "amenity": "restaurant"}
{"name": "Aargauerhof", "lat": 47.3773665, "lon": 8.526169, "amenity": "restaurant"}
{"name": "Caffé Handelshof", "lat": 47.3730817, "lon": 8.5355865, "amenity": "cafe"}
{"name": "Zunfthaus zur Schmiden", "lat": 47.3721828, "lon": 8.5439082, "amenity": "restaurant"}
{"name": "Gran Café Motta", "lat": 47.372316, "lon": 8.5429593, "amenity": "cafe"}
{"name": "Kantorei", "lat": 47.3724275, "lon": 8.5455328, "amenity": "restaurant"}
{"name": "Wystube Isebähnli", "lat": 47.3731637, "lon": 8.5448384, "amenity": "bar"}
{"name": "Beke", "lat": 47.3748597, "lon": 8.5149995, "amenity": "restaurant"}
{"name": "Schiwago", "lat": 47.3723327, "lon": 8.5104366, "amenity": "restaurant"}
{"name": "Treffpunkt", "lat": 47.3704984, "lon": 8.5099138, "amenity": "restaurant"}
{"name": "Gotthard", "lat": 47.3769125, "lon": 8.5258364, "amenity": "restaurant"}
{"name": "Acid", "lat": 47.3771013, "lon": 8.5260052, "amenity": "bar"}
{"name": "Frohsinn", "lat": 47.4317595, "lon": 8.5732007, "amenity": "restaurant"}
{"name": "Bistro Sunnetal", "lat": 47.3710269, "lon": 8.6435926, "amenity": "restaurant"}
{"name": "Bababobo", "lat": 47.3757528, "lon": 8.6305457, "amenity": "restaurant"}
{"name": "Sternen", "lat": 47.3704299, "lon": 8.6390634, "amenity": "restaurant"}
{"name": "Yu-An", "lat": 47.3726012, "lon": 8.5273865, "amenity": "restaurant"}
{"name": "Ristorante Bar Certo", "lat": 47.372245, "lon": 8.5289743, "amenity": "restaurant"}
{"name": "Köchlistube", "lat": 47.3732235, "lon": 8.5237696, "amenity": "restaurant"}
{"name": "Pelikanbar", "lat": 47.3717506, "lon": 8.5364943, "amenity": "bar"}
{"name": "Kaufleuten Restaurant", "lat": 47.3716325, "lon": 8.5363568, "amenity": "restaurant"}
{"name": "Uncle 7", "lat": 47.381874, "lon": 8.5338089, "amenity": "restaurant"}
{"name": "Vulkan", "lat": 47.3819982, "lon": 8.5336329, "amenity": "restaurant"}
{"name": "Stall 6", "lat": 47.3751438, "lon": 8.5349263, "amenity": "bar"}
{"name": "El Lokal", "lat": 47.3744071, "lon": 8.5336734, "amenity": "bar"}
{"name": "Kir Royal", "lat": 47.3768022, "lon": 8.52612, "amenity": "bar"}
{"name": "Restaurant B", "lat": 47.3777467, "lon": 8.5244364, "amenity": "restaurant"}
{"name": "Plüsch", "lat": 47.3713351, "lon": 8.5163363, "amenity": "cafe"}
{"name": "Santa Lucia Subito", "lat": 47.3848593, "lon": 8.5084472, "amenity": "restaurant"}
{"name": "Pizzeria Corallo", "lat": 47.3865398, "lon": 8.5414596, "amenity": "restaurant"}
{"name": "Kreis 6", "lat": 47.3861132, "lon": 8.5452851, "amenity": "restaurant"}
{"name": "Chuchi am Wasser", "lat": 47.3830272, "lon": 8.5396636, "amenity": "restaurant"}
{"name": "Luigi", "lat": 47.3789263, "lon": 8.5444555, "amenity": "restaurant"}
{"name": "Restaurant Waidhof", "lat": 47.4242466, "lon": 8.5251723, "amenity": "restaurant"}
{"name": "zum Grünen Glas", "lat": 47.3715334, "lon": 8.5457722, "amenity": "restaurant"}
{"name": "Piadina Bar", "lat": 47.37272, "lon": 8.5438402, "amenity": "restaurant"}
{"name": "Haus zum Rüden", "lat": 47.3708573, "lon": 8.5432024, "amenity": "restaurant"}
{"name": "Mère Catherine", "lat": 47.3708655, "lon": 8.543806, "amenity": "restaurant"}
{"name": "Le Pain Quotidien", "lat": 47.3683702, "lon": 8.5605979, "amenity": "cafe"}
{"name": "Arcade Pizzeria", "lat": 47.371054, "lon": 8.5243486, "amenity": "restaurant"}
{"name": "Weinstube 1923", "lat": 47.3764199, "lon": 8.5441261, "amenity": "restaurant"}
{"name": "Schurter", "lat": 47.3763302, "lon": 8.5440373, "amenity": "cafe"}
{"name": "La Pasta", "lat": 47.3760133, "lon": 8.5441095, "amenity": "restaurant"}
{"name": "Pizzeria Da Raffaele", "lat": 47.375826, "lon": 8.5441268, "amenity": "restaurant"}
{"name": "N-68", "lat": 47.3756656, "lon": 8.5441177, "amenity": "restaurant"}
{"name": "Rank", "lat": 47.3754161, "lon": 8.5440085, "amenity": "restaurant"}
{"name": "Rank", "lat": 47.3753537, "lon": 8.5439974, "amenity": "restaurant"}
{"name": "Tasca Romero", "lat": 47.3748977, "lon": 8.5437335, "amenity": "restaurant"}
{"name": "Osteria Borgo", "lat": 47.3746589, "lon": 8.5437374, "amenity": "restaurant"}
{"name": "Steakhouse Old Town", "lat": 47.3736974, "lon": 8.5436412, "amenity": "restaurant"}
{"name": "Vallocaia", "lat": 47.3734874, "lon": 8.5436348, "amenity": "restaurant"}
{"name": "Brasserie Louis", "lat": 47.3730001, "lon": 8.5438598, "amenity": "restaurant"}
{"name": "Spaghetti Factory", "lat": 47.3729061, "lon": 8.5436598, "amenity": "restaurant"}
{"name": "Trattoria Sempre", "lat": 47.3729877, "lon": 8.5436586, "amenity": "restaurant"}
{"name": "Raclette Factory", "lat": 47.3723807, "lon": 8.5439299, "amenity": "restaurant"}
{"name": "Rheinfelder Bierhaus", "lat": 47.3721304, "lon": 8.5437352, "amenity": "restaurant"}
{"name": "Café & Conditorei 1842", "lat": 47.3714893, "lon": 8.5443699, "amenity": "cafe"}
{"name": "Andorra", "lat": 47.3712636, "lon": 8.5443044, "amenity": "cafe"}
{"name": "Bodega Española", "lat": 47.3712211, "lon": 8.5441611, "amenity": "restaurant"}
{"name": "Cucina", "lat": 47.370856, "lon": 8.5445409, "amenity": "restaurant"}
{"name": "Wöschi", "lat": 47.3405767, "lon": 8.5381016, "amenity": "restaurant"}
{"name": "Restaurant Sunneberg", "lat": 47.4195084, "lon": 8.5439267, "amenity": "restaurant"}
{"name": "Vapiano", "lat": 47.358483, "lon": 8.5229939, "amenity": "restaurant"}
{"name": "Hong-Kong Food Paradise", "lat": 47.3585224, "lon": 8.5233652, "amenity": "restaurant"}
{"name": "LaSalle", "lat": 47.3886695, "lon": 8.5191166, "amenity": "restaurant"}
{"name": "Paprika", "lat": 47.3786937, "lon": 8.5065553, "amenity": "restaurant"}
{"name": "Piccolo Giardino", "lat": 47.380803, "lon": 8.5257086, "amenity": "cafe"}
{"name": "Kafischnaps", "lat": 47.3912249, "lon": 8.5359972, "amenity": "cafe"}
{"name": "RestaurantBar", "lat": 47.4085258, "lon": 8.5464126, "amenity": "restaurant"}
{"name": "Restaurant Bahnhof Wiedikon", "lat": 47.3709038, "lon": 8.5233636, "amenity": "restaurant"}
{"name": "Da Carlo", "lat": 47.3956584, "lon": 8.6075448, "amenity": "restaurant"}
{"name": "zur Trotte", "lat": 47.3562321, "lon": 8.6286055, "amenity": "restaurant"}
{"name": "Löwen", "lat": 47.3953422, "lon": 8.5258288, "amenity": "bar"}
{"name": "Jolly Bar", "lat": 47.4215832, "lon": 8.550392, "amenity": "bar"}
{"name": "Al Dente", "lat": 47.4238766, "lon": 8.5587045, "amenity": "restaurant"}
{"name": "Kreuz Debbies Dorfbeiz", "lat": 47.3709637, "lon": 8.6393968, "amenity": "restaurant"}
{"name": "Alumni Lounge", "lat": 47.4082566, "lon": 8.506734, "amenity": "cafe"}
{"name": "Fusion meal & coffee", "lat": 47.4077482, "lon": 8.5078578, "amenity": "restaurant"}
{"name": "n/a", "lat": 47.3123642, "lon": 8.5336603, "amenity": "cafe"}
{"name": "Zen", "lat": 47.3217269, "lon": 8.5216676, "amenity": "restaurant"}
{"name": "Restaurant & Pizzaria TOMATE", "lat": 47.3197595, "lon": 8.5218071, "amenity": "restaurant"}
{"name": "Pot Belly's", "lat": 47.3200287, "lon": 8.5211205, "amenity": "bar"}
{"name": "Soodmatte", "lat": 47.3185558, "lon": 8.5241889, "amenity": "cafe"}
{"name": "Bistro 909", "lat": 47.3111795, "lon": 8.5273108, "amenity": "restaurant"}
{"name": "Al Ponte", "lat": 47.3120312, "lon": 8.526914, "amenity": "restaurant"}
{"name": "Capri", "lat": 47.3118567, "lon": 8.527944, "amenity": "restaurant"}
{"name": "barfüsser", "lat": 47.3124603, "lon": 8.5274193, "amenity": "restaurant"}
{"name": "Flora", "lat": 47.3121147, "lon": 8.5243463, "amenity": "restaurant"}
{"name": "Café Disler", "lat": 47.3115979, "lon": 8.5256939, "amenity": "cafe"}
{"name": "threeOfive", "lat": 47.3899318, "lon": 8.5212819, "amenity": "restaurant"}
{"name": "Bar & Kiosk Flussbad Unterer Letten", "lat": 47.3893649, "lon": 8.5297423, "amenity": "cafe"}
{"name": "Bistro Park Stadelhofen", "lat": 47.3662927, "lon": 8.5477565, "amenity": "cafe"}
{"name": "Boungustaio", "lat": 47.3216011, "lon": 8.5450259, "amenity": "restaurant"}
{"name": "Oberer Mönchhof", "lat": 47.3259006, "lon": 8.5448146, "amenity": "restaurant"}
{"name": "LA Brea SoCal Tacos", "lat": 47.3821979, "lon": 8.5317241, "amenity": "restaurant"}
{"name": "Spicy Box", "lat": 47.382624, "lon": 8.5312467, "amenity": "restaurant"}
{"name": "Corazón", "lat": 47.3734574, "lon": 8.5449046, "amenity": "restaurant"}
{"name": "Nooch Asian Kitchen", "lat": 47.3887272, "lon": 8.5213785, "amenity": "restaurant"}
{"name": "Brauerei Steinfels", "lat": 47.3884825, "lon": 8.5211173, "amenity": "restaurant"}
{"name": "Tibetasia", "lat": 47.3844648, "lon": 8.5278368, "amenity": "restaurant"}
{"name": "Rüsterei Grill", "lat": 47.3581573, "lon": 8.5225902, "amenity": "restaurant"}
{"name": "Bistro Limmat", "lat": 47.3870499, "lon": 8.5299899, "amenity": "cafe"}
{"name": "Damas", "lat": 47.384599, "lon": 8.5275777, "amenity": "restaurant"}
{"name": "Werd", "lat": 47.3720798, "lon": 8.5270244, "amenity": "restaurant"}
{"name": "Paneolio", "lat": 47.3731595, "lon": 8.5261099, "amenity": "restaurant"}
{"name": "Saigon", "lat": 47.3729919, "lon": 8.5327533, "amenity": "restaurant"}
{"name": "Choupette", "lat": 47.363839, "lon": 8.5322818, "amenity": "restaurant"}
{"name": "Eisenhof", "lat": 47.3836276, "lon": 8.5287302, "amenity": "restaurant"}
{"name": "Felix", "lat": 47.3674528, "lon": 8.544578, "amenity": "cafe"}
{"name": "Cucina", "lat": 47.3761362, "lon": 8.5338456, "amenity": "restaurant"}
{"name": "Roter Stein", "lat": 47.3885734, "lon": 8.4847702, "amenity": "restaurant"}
{"name": "Nordbrücke", "lat": 47.39337, "lon": 8.5294371, "amenity": "restaurant"}
{"name": "The Artisan", "lat": 47.3935843, "lon": 8.5296761, "amenity": "restaurant"}
{"name": "Chez Nhan", "lat": 47.3645425, "lon": 8.520783, "amenity": "restaurant"}
{"name": "Vietnam", "lat": 47.3606785, "lon": 8.5179538, "amenity": "restaurant"}
{"name": "Utoburg", "lat": 47.3616035, "lon": 8.5180157, "amenity": "restaurant"}
{"name": "Fallender Brunnenhof", "lat": 47.402817, "lon": 8.5355605, "amenity": "restaurant"}
{"name": "Zum Weissen Rössli", "lat": 47.3750359, "lon": 8.4841815, "amenity": "restaurant"}
{"name": "Café Max-Bill", "lat": 47.414347, "lon": 8.5401427, "amenity": "cafe"}
{"name": "Hong-Kong Food Paradise", "lat": 47.4135291, "lon": 8.5387892, "amenity": "restaurant"}
{"name": "Escoffier", "lat": 47.3605504, "lon": 8.5524597, "amenity": "restaurant"}
{"name": "Stripped Pizza", "lat": 47.3602524, "lon": 8.5521363, "amenity": "restaurant"}
{"name": "New Avataar", "lat": 47.3938594, "lon": 8.5311096, "amenity": "restaurant"}
{"name": "da Toni", "lat": 47.3090025, "lon": 8.5544369, "amenity": "restaurant"}
{"name": "Rose", "lat": 47.3089881, "lon": 8.5551974, "amenity": "restaurant"}
{"name": "Spiga", "lat": 47.4085621, "lon": 8.5953513, "amenity": "restaurant"}
{"name": "Zum Guten Glück", "lat": 47.372707, "lon": 8.519818, "amenity": "restaurant"}
{"name": "Schlossgarten", "lat": 47.3170981, "lon": 8.539929, "amenity": "restaurant"}
{"name": "Kafi für Dich", "lat": 47.3772107, "lon": 8.5229952, "amenity": "cafe"}
{"name": "Restaurant Sonne Libanon", "lat": 47.3822104, "lon": 8.4838926, "amenity": "restaurant"}
{"name": "Café Boy", "lat": 47.3779179, "lon": 8.5160184, "amenity": "restaurant"}
{"name": "Villa Grillhaus", "lat": 47.3963892, "lon": 8.4823067, "amenity": "restaurant"}
{"name": "Kafi Tintefisch", "lat": 47.3930337, "lon": 8.5197395, "amenity": "cafe"}
{"name": "Drei Stuben", "lat": 47.3832538, "lon": 8.5416447, "amenity": "restaurant"}
{"name": "Pizzeria Veneziana", "lat": 47.383118, "lon": 8.5413332, "amenity": "restaurant"}
{"name": "Marea", "lat": 47.3745643, "lon": 8.5432628, "amenity": "cafe"}
{"name": "Grande", "lat": 47.3753724, "lon": 8.543539, "amenity": "cafe"}
{"name": "Grande Cafe & Bar", "lat": 47.3754177, "lon": 8.543598, "amenity": "bar"}
{"name": "Topolino Plaza", "lat": 47.3965547, "lon": 8.6138893, "amenity": "cafe"}
{"name": "Miglio", "lat": 47.3964338, "lon": 8.6132097, "amenity": "restaurant"}
{"name": "Safran", "lat": 47.3962547, "lon": 8.6135679, "amenity": "restaurant"}
{"name": "Villa Barone", "lat": 47.3968792, "lon": 8.6173975, "amenity": "restaurant"}
{"name": "Cafe Mühle", "lat": 47.3952273, "lon": 8.6239761, "amenity": "cafe"}
{"name": "Starbucks", "lat": 47.3801255, "lon": 8.5374525, "amenity": "cafe"}
{"name": "Thai Erawan", "lat": 47.3681056, "lon": 8.5358071, "amenity": "restaurant"}
{"name": "Central", "lat": 47.3749683, "lon": 8.5258392, "amenity": "bar"}
{"name": "Hardhof", "lat": 47.3781646, "lon": 8.5109337, "amenity": "restaurant"}
{"name": "Kafi Dihei", "lat": 47.3752564, "lon": 8.5132591, "amenity": "cafe"}
{"name": "Gambrinus", "lat": 47.3787576, "lon": 8.5270372, "amenity": "restaurant"}
{"name": "Café Lang", "lat": 47.3851076, "lon": 8.5314772, "amenity": "cafe"}
{"name": "AMO e lino", "lat": 47.3847471, "lon": 8.5311137, "amenity": "restaurant"}
{"name": "Pak Lok Haus", "lat": 47.4141717, "lon": 8.6001887, "amenity": "restaurant"}
{"name": "La Perla Del Sud", "lat": 47.3307586, "lon": 8.5155905, "amenity": "restaurant"}
{"name": "AN", "lat": 47.3740895, "lon": 8.536128, "amenity": "restaurant"}
{"name": "Babu's Bakery & Coffeehouse", "lat": 47.3730935, "lon": 8.534363, "amenity": "cafe"}
{"name": "Kasheme", "lat": 47.3827935, "lon": 8.5295411, "amenity": "bar"}
{"name": "Akara‘s", "lat": 47.3906861, "lon": 8.4887363, "amenity": "restaurant"}
{"name": "Brasserie Spirgarten", "lat": 47.387399, "lon": 8.4854595, "amenity": "restaurant"}
{"name": "Restaurant Singapore", "lat": 47.3831915, "lon": 8.5000558, "amenity": "restaurant"}
{"name": "Schumacher Bistro", "lat": 47.3983442, "lon": 8.5993968, "amenity": "restaurant"}
{"name": "Salmen", "lat": 47.3960411, "lon": 8.4482564, "amenity": "restaurant"}
{"name": "Zhong Hua", "lat": 47.3752173, "lon": 8.5447395, "amenity": "restaurant"}
{"name": "Bocuci: Bottega & Cucina", "lat": 47.3791435, "lon": 8.545208, "amenity": "restaurant"}
{"name": "Restaurant Haldenbach", "lat": 47.3799672, "lon": 8.5469246, "amenity": "restaurant"}
{"name": "Ristorante Al Forno da Angelo", "lat": 47.3805744, "lon": 8.5483371, "amenity": "restaurant"}
{"name": "Café Oberstrass", "lat": 47.3782514, "lon": 8.5479609, "amenity": "cafe"}
{"name": "Hot Pasta", "lat": 47.3786854, "lon": 8.547952, "amenity": "restaurant"}
{"name": "Henrici", "lat": 47.3726776, "lon": 8.5436817, "amenity": "cafe"}
{"name": "s' Werkstattkafi", "lat": 47.3993129, "lon": 8.616534, "amenity": "cafe"}
{"name": "Wien Zeile", "lat": 47.3740356, "lon": 8.544474, "amenity": "restaurant"}
{"name": "Predigerhof", "lat": 47.3742828, "lon": 8.5444638, "amenity": "bar"}
{"name": "Raffael's Cafe & Bistro", "lat": 47.3680759, "lon": 8.5453811, "amenity": "cafe"}
{"name": "Starbucks", "lat": 47.3680495, "lon": 8.5448701, "amenity": "cafe"}
{"name": "Bianchi", "lat": 47.3735273, "lon": 8.5430124, "amenity": "restaurant"}
{"name": "Weinschenke", "lat": 47.3734009, "lon": 8.5434614, "amenity": "restaurant"}
{"name": "Simon's Steakhouse", "lat": 47.3733831, "lon": 8.5436343, "amenity": "restaurant"}
{"name": "Colibri", "lat": 47.3733914, "lon": 8.5440513, "amenity": "cafe"}
{"name": "Blue Monkey", "lat": 47.3726391, "lon": 8.5432845, "amenity": "bar"}
{"name": "Blue Monkey", "lat": 47.372579, "lon": 8.5433042, "amenity": "restaurant"}
{"name": "six", "lat": 47.3731387, "lon": 8.5431629, "amenity": "bar"}
{"name": "Regenbogen", "lat": 47.3731353, "lon": 8.5432846, "amenity": "bar"}
{"name": "Madrid", "lat": 47.3731853, "lon": 8.5446831, "amenity": "restaurant"}
{"name": "Bauern Schänke", "lat": 47.3724243, "lon": 8.5452101, "amenity": "restaurant"}
{"name": "01bar", "lat": 47.373723, "lon": 8.5430379, "amenity": "bar"}
{"name": "Restaurant Gasthof Hirschen", "lat": 47.4040619, "lon": 8.571762, "amenity": "restaurant"}
{"name": "Peking Garden", "lat": 47.3992293, "lon": 8.6211314, "amenity": "restaurant"}
{"name": "Coco Grill & Bar", "lat": 47.3689525, "lon": 8.5384389, "amenity": "restaurant"}
{"name": "Nagasui", "lat": 47.3702331, "lon": 8.5328922, "amenity": "restaurant"}
{"name": "La Stanza", "lat": 47.3684665, "lon": 8.5367856, "amenity": "bar"}
{"name": "Nocciolina", "lat": 47.3682598, "lon": 8.536332, "amenity": "cafe"}
{"name": "Caffè Spettacolo", "lat": 47.3915497, "lon": 8.4884573, "amenity": "cafe"}
{"name": "Angkor", "lat": 47.3902919, "lon": 8.5172402, "amenity": "restaurant"}
{"name": "toscano", "lat": 47.374778, "lon": 8.543543, "amenity": "restaurant"}
{"name": "By Ey's", "lat": 47.3746904, "lon": 8.5433961, "amenity": "cafe"}
{"name": "friskfisk.ch", "lat": 47.3745675, "lon": 8.543731, "amenity": "restaurant"}
{"name": "Alexis Bar", "lat": 47.3746263, "lon": 8.5439159, "amenity": "bar"}
{"name": "Walliser Keller", "lat": 47.3749804, "lon": 8.5445108, "amenity": "restaurant"}
{"name": "Fumoir", "lat": 47.3755152, "lon": 8.5441638, "amenity": "bar"}
{"name": "Safari Bar", "lat": 47.3755066, "lon": 8.5444788, "amenity": "bar"}
{"name": "Kame-Haus", "lat": 47.3744425, "lon": 8.544563, "amenity": "bar"}
{"name": "Dumpling Delights", "lat": 47.3745297, "lon": 8.5447817, "amenity": "restaurant"}
{"name": "Raclette Stube", "lat": 47.3747617, "lon": 8.5447832, "amenity": "restaurant"}
{"name": "The Bite", "lat": 47.3773121, "lon": 8.5277904, "amenity": "restaurant"}
{"name": "Volkshaus", "lat": 47.3755766, "lon": 8.5271252, "amenity": "restaurant"}
{"name": "Roxy", "lat": 47.3796168, "lon": 8.5261794, "amenity": "bar"}
{"name": "Piranha Bar", "lat": 47.3782611, "lon": 8.5272144, "amenity": "bar"}
{"name": "Lambada Bar Club", "lat": 47.3784465, "lon": 8.5268634, "amenity": "bar"}
{"name": "Longstreet Bar Club", "lat": 47.3781306, "lon": 8.5269419, "amenity": "bar"}
{"name": "Bossa Nova", "lat": 47.3770748, "lon": 8.5274942, "amenity": "restaurant"}
{"name": "raedli", "lat": 47.3772164, "lon": 8.5276576, "amenity": "bar"}
{"name": "Red Lips Cabaret Bar", "lat": 47.3774408, "lon": 8.5260439, "amenity": "bar"}
{"name": "Kiosk Semal", "lat": 47.376537, "lon": 8.5282242, "amenity": "cafe"}
{"name": "Egoist Cabaret Nightclub", "lat": 47.3764297, "lon": 8.5280245, "amenity": "bar"}
{"name": "Brasserie Café de Paris", "lat": 47.376328, "lon": 8.527878, "amenity": "restaurant"}
{"name": "Green Mango Internet Cafe Bar", "lat": 47.3774342, "lon": 8.5265204, "amenity": "cafe"}
{"name": "Ach'i", "lat": 47.3770439, "lon": 8.5287783, "amenity": "restaurant"}
{"name": "Thai-Food-Corner", "lat": 47.3769262, "lon": 8.5284802, "amenity": "restaurant"}
{"name": "Norden", "lat": 47.3767507, "lon": 8.5284977, "amenity": "bar"}
{"name": "Stubä", "lat": 47.3779077, "lon": 8.5270821, "amenity": "restaurant"}
{"name": "Trübli Bar", "lat": 47.3765636, "lon": 8.5290029, "amenity": "restaurant"}
{"name": "Red Light", "lat": 47.3774727, "lon": 8.5273976, "amenity": "bar"}
{"name": "Monroe", "lat": 47.3774661, "lon": 8.5279076, "amenity": "bar"}
{"name": "Baba Baos", "lat": 47.3747605, "lon": 8.5246725, "amenity": "restaurant"}
{"name": "Lugano Bar", "lat": 47.378784, "lon": 8.5273116, "amenity": "bar"}
{"name": "Schweizerdegen El Papi", "lat": 47.3784958, "lon": 8.5271796, "amenity": "restaurant"}
{"name": "Engracia", "lat": 47.3735871, "lon": 8.5273055, "amenity": "bar"}
{"name": "Geeren", "lat": 47.3755808, "lon": 8.6079447, "amenity": "restaurant"}
{"name": "Bahnhöfli", "lat": 47.3994614, "lon": 8.6214165, "amenity": "restaurant"}
{"name": "Coconut Bar", "lat": 47.4005991, "lon": 8.6066117, "amenity": "bar"}
{"name": "Lunch & More", "lat": 47.4001734, "lon": 8.6056204, "amenity": "restaurant"}
{"name": "Namaste", "lat": 47.4148932, "lon": 8.5394998, "amenity": "restaurant"}
{"name": "planet5", "lat": 47.3873408, "lon": 8.5304131, "amenity": "bar"}
{"name": "Don Paco", "lat": 47.3884508, "lon": 8.5257299, "amenity": "restaurant"}
{"name": "Jenseits Wohnzimmer", "lat": 47.3863184, "lon": 8.5223465, "amenity": "cafe"}
{"name": "Ambrosi Coffee Bar", "lat": 47.3870494, "lon": 8.5243741, "amenity": "cafe"}
{"name": "Oskar Kowalski", "lat": 47.3763464, "lon": 8.5402167, "amenity": "cafe"}
{"name": "ViCafe", "lat": 47.3768277, "lon": 8.5395824, "amenity": "cafe"}
{"name": "Bachmann", "lat": 47.3765411, "lon": 8.5394487, "amenity": "cafe"}
{"name": "Starbucks", "lat": 47.3767615, "lon": 8.5401477, "amenity": "cafe"}
{"name": "Bar Zürichberg", "lat": 47.3824554, "lon": 8.5671437, "amenity": "bar"}
{"name": "Sonnental", "lat": 47.3958792, "lon": 8.6043207, "amenity": "restaurant"}
{"name": "Hotz", "lat": 47.3977281, "lon": 8.6171685, "amenity": "cafe"}
{"name": "Punto 9", "lat": 47.3983155, "lon": 8.6187267, "amenity": "restaurant"}
{"name": "Ototo - Sushi Dining", "lat": 47.3925569, "lon": 8.5308196, "amenity": "restaurant"}
{"name": "Bistro Hà Nôi", "lat": 47.3985536, "lon": 8.6179016, "amenity": "restaurant"}
{"name": "Golden India", "lat": 47.414823, "lon": 8.5457621, "amenity": "restaurant"}
{"name": "Zentral", "lat": 47.3799291, "lon": 8.5432583, "amenity": "restaurant"}
{"name": "Casa Ferlin", "lat": 47.3797694, "lon": 8.5433497, "amenity": "restaurant"}
{"name": "Treffcafé", "lat": 47.3594111, "lon": 8.5294544, "amenity": "cafe"}
{"name": "Limmathof", "lat": 47.3874963, "lon": 8.5272804, "amenity": "restaurant"}
{"name": "Alpenrose", "lat": 47.3871627, "lon": 8.528489, "amenity": "restaurant"}
{"name": "a fatt", "lat": 47.3863054, "lon": 8.5289489, "amenity": "restaurant"}
{"name": "Caffetteria am Limmatplatz", "lat": 47.3847107, "lon": 8.5321502, "amenity": "cafe"}
{"name": "Tadka", "lat": 47.3832551, "lon": 8.5332337, "amenity": "restaurant"}
{"name": "Püente", "lat": 47.3821574, "lon": 8.5357577, "amenity": "restaurant"}
{"name": "Millennium", "lat": 47.3842264, "lon": 8.5319218, "amenity": "restaurant"}
{"name": "marktküche", "lat": 47.3787172, "lon": 8.5233543, "amenity": "restaurant"}
{"name": "Carlton", "lat": 47.3714586, "lon": 8.5378013, "amenity": "restaurant"}
{"name": "Röschibach", "lat": 47.3927374, "lon": 8.5246559, "amenity": "cafe"}
{"name": "Coop Restaurant", "lat": 47.4136892, "lon": 8.5410753, "amenity": "restaurant"}
{"name": "Einstein & Zweistein", "lat": 47.3760747, "lon": 8.5466029, "amenity": "cafe"}
{"name": "La Casa", "lat": 47.3901801, "lon": 8.5400652, "amenity": "restaurant"}
{"name": "Sorell Rex", "lat": 47.3847859, "lon": 8.5431484, "amenity": "cafe"}
{"name": "Rimini Bar", "lat": 47.3715541, "lon": 8.5329039, "amenity": "bar"}
{"name": "Galactic Dance", "lat": 47.3879146, "lon": 8.4933341, "amenity": "bar"}
{"name": "Gamper", "lat": 47.3791312, "lon": 8.5250934, "amenity": "restaurant"}
{"name": "Za'atar", "lat": 47.3790069, "lon": 8.5249463, "amenity": "restaurant"}
{"name": "Peking Garden", "lat": 47.3750304, "lon": 8.524534, "amenity": "restaurant"}
{"name": "Celia", "lat": 47.3758647, "lon": 8.5251128, "amenity": "restaurant"}
{"name": "Il Tappo", "lat": 47.375841, "lon": 8.5240023, "amenity": "bar"}
{"name": "Pergola", "lat": 47.3767368, "lon": 8.5207415, "amenity": "restaurant"}
{"name": "Brera", "lat": 47.3771472, "lon": 8.5202111, "amenity": "restaurant"}
{"name": "Libanès", "lat": 47.4164324, "lon": 8.5458225, "amenity": "restaurant"}
{"name": "Hasan's Sandwich", "lat": 47.4163931, "lon": 8.5449222, "amenity": "cafe"}
{"name": "Kiosk / Restaurant", "lat": 47.4048648, "lon": 8.5379355, "amenity": "restaurant"}
{"name": "Zebra Bar", "lat": 47.3773918, "lon": 8.5225397, "amenity": "bar"}
{"name": "Werkhof", "lat": 47.3794266, "lon": 8.5237792, "amenity": "restaurant"}
{"name": "Burgermeister", "lat": 47.3745663, "lon": 8.5245378, "amenity": "restaurant"}
{"name": "SO Pizza", "lat": 47.3752425, "lon": 8.5250339, "amenity": "restaurant"}
{"name": "Queen Idia African Restaurant", "lat": 47.3742019, "lon": 8.5234872, "amenity": "restaurant"}
{"name": "The Caribbean Restaurant", "lat": 47.3737299, "lon": 8.5218676, "amenity": "restaurant"}
{"name": "Cafe Letzistübli", "lat": 47.377332, "lon": 8.498589, "amenity": "cafe"}
{"name": "Bakery Bakery", "lat": 47.3920571, "lon": 8.5391006, "amenity": "cafe"}
{"name": "Café Unterstrass", "lat": 47.3921165, "lon": 8.5386272, "amenity": "cafe"}
{"name": "Treff-Point Kiosk", "lat": 47.3766138, "lon": 8.5256584, "amenity": "cafe"}
{"name": "Karaoke 4 You Thai Kitchen", "lat": 47.3765186, "lon": 8.5251237, "amenity": "bar"}
{"name": "Molino", "lat": 47.3734849, "lon": 8.5287165, "amenity": "restaurant"}
{"name": "Ichizen", "lat": 47.3737975, "lon": 8.5274539, "amenity": "restaurant"}
{"name": "Cafe Neumärt", "lat": 47.372784, "lon": 8.546731, "amenity": "cafe"}
{"name": "Hôtel Bourbon", "lat": 47.3716921, "lon": 8.5446644, "amenity": "restaurant"}
{"name": "Le Dézaley Restaurant Vaudois", "lat": 47.3705962, "lon": 8.5438655, "amenity": "restaurant"}
{"name": "Style Thai", "lat": 47.3710755, "lon": 8.5433622, "amenity": "restaurant"}
{"name": "Café Museum Rietberg", "lat": 47.3588664, "lon": 8.5300519, "amenity": "cafe"}
{"name": "La Côte", "lat": 47.3717505, "lon": 8.5159377, "amenity": "restaurant"}
{"name": "Berta Bar", "lat": 47.3744151, "lon": 8.5141933, "amenity": "bar"}
{"name": "Santa Lucia", "lat": 47.3700945, "lon": 8.5491025, "amenity": "restaurant"}
{"name": "Don Leone", "lat": 47.3746589, "lon": 8.5290969, "amenity": "restaurant"}
{"name": "Convivio", "lat": 47.3757244, "lon": 8.5292515, "amenity": "restaurant"}
{"name": "Accademia del Gusto", "lat": 47.375334, "lon": 8.5286575, "amenity": "restaurant"}
{"name": "E.X. 4", "lat": 47.3757372, "lon": 8.5288666, "amenity": "bar"}
{"name": "Ikoo", "lat": 47.3748928, "lon": 8.5287964, "amenity": "restaurant"}
{"name": "D'Aurora", "lat": 47.3751694, "lon": 8.528416, "amenity": "restaurant"}
{"name": "Daniel H.", "lat": 47.3754267, "lon": 8.5293032, "amenity": "bar"}
{"name": "Osteria Santo Bevitore", "lat": 47.3754803, "lon": 8.5284806, "amenity": "restaurant"}
{"name": "Vasco's Bar", "lat": 47.3744297, "lon": 8.5298014, "amenity": "bar"}
{"name": "Meat Me", "lat": 47.3742016, "lon": 8.5307896, "amenity": "restaurant"}
{"name": "Sherif's Bar", "lat": 47.3742758, "lon": 8.5299844, "amenity": "bar"}
{"name": "Sweet Basil", "lat": 47.3743454, "lon": 8.5295536, "amenity": "restaurant"}
{"name": "Real", "lat": 47.3743453, "lon": 8.5306087, "amenity": "restaurant"}
{"name": "Akaraka", "lat": 47.3746892, "lon": 8.5294759, "amenity": "restaurant"}
{"name": "Bunzai", "lat": 47.3746427, "lon": 8.5302421, "amenity": "restaurant"}
{"name": "Tschingg", "lat": 47.3682948, "lon": 8.5459868, "amenity": "restaurant"}
{"name": "After Dark", "lat": 47.3765798, "lon": 8.5281669, "amenity": "bar"}
{"name": "Leeward", "lat": 47.377004, "lon": 8.5259322, "amenity": "bar"}
{"name": "Lou's Restaurant & Bar", "lat": 47.3717267, "lon": 8.5214185, "amenity": "restaurant"}
{"name": "Schnitzelhuus Oerlikon", "lat": 47.4067404, "lon": 8.5507215, "amenity": "restaurant"}
{"name": "Kanonaegass", "lat": 47.3772915, "lon": 8.5291113, "amenity": "bar"}
{"name": "Art 4 Bar", "lat": 47.3774238, "lon": 8.5292763, "amenity": "bar"}
{"name": "Love Story", "lat": 47.3764724, "lon": 8.5284217, "amenity": "bar"}
{"name": "Restaurant Dorflinde", "lat": 47.4073905, "lon": 8.5498029, "amenity": "restaurant"}
{"name": "Hausammann", "lat": 47.3832878, "lon": 8.548393, "amenity": "cafe"}
{"name": "Aelpli Bar", "lat": 47.3713868, "lon": 8.5435505, "amenity": "bar"}
{"name": "Migros Restaurant", "lat": 47.3855243, "lon": 8.5312041, "amenity": "restaurant"}
{"name": "St. Jakob Beck", "lat": 47.3746447, "lon": 8.4845452, "amenity": "cafe"}
{"name": "Palette", "lat": 47.3762153, "lon": 8.5400686, "amenity": "restaurant"}
{"name": "Long Huang", "lat": 47.372174, "lon": 8.5340237, "amenity": "restaurant"}
{"name": "Café Noir", "lat": 47.3819687, "lon": 8.53053, "amenity": "cafe"}
{"name": "Yoshino", "lat": 47.3807368, "lon": 8.5345758, "amenity": "restaurant"}
{"name": "n/a", "lat": 47.3808903, "lon": 8.5352061, "amenity": "cafe"}
{"name": "Smeiley's", "lat": 47.4034424, "lon": 8.5471665, "amenity": "restaurant"}
{"name": "Pho 50", "lat": 47.3764802, "lon": 8.5252621, "amenity": "restaurant"}
{"name": "Bagatelle §93", "lat": 47.3781259, "lon": 8.5266623, "amenity": "bar"}
{"name": "House of Mezze", "lat": 47.4090175, "lon": 8.5457746, "amenity": "restaurant"}
{"name": "The Sacred", "lat": 47.3760618, "lon": 8.5288696, "amenity": "restaurant"}
{"name": "Burgermeister", "lat": 47.4109887, "lon": 8.5459625, "amenity": "restaurant"}
{"name": "Polysnack", "lat": 47.3761778, "lon": 8.5481063, "amenity": "cafe"}
{"name": "Cafébar", "lat": 47.3763204, "lon": 8.5480366, "amenity": "cafe"}
{"name": "Neela", "lat": 47.3779493, "lon": 8.5298119, "amenity": "restaurant"}
{"name": "Le Cèdre", "lat": 47.3686275, "lon": 8.5444063, "amenity": "restaurant"}
{"name": "Nirwana", "lat": 47.3373064, "lon": 8.4747981, "amenity": "restaurant"}
{"name": "Pizza Amore", "lat": 47.3071329, "lon": 8.5552059, "amenity": "restaurant"}
{"name": "Savoy Brasserie & Bar", "lat": 47.3699603, "lon": 8.5396803, "amenity": "restaurant"}
{"name": "Al Leone", "lat": 47.370951, "lon": 8.5390037, "amenity": "cafe"}
{"name": "Giesserei Oerlikon", "lat": 47.408614, "lon": 8.5376025, "amenity": "restaurant"}
{"name": "Lele", "lat": 47.3784747, "lon": 8.530352, "amenity": "restaurant"}
{"name": "Indian BBQ", "lat": 47.3931636, "lon": 8.5210169, "amenity": "restaurant"}
{"name": "Vapiano", "lat": 47.3677218, "lon": 8.5461444, "amenity": "restaurant"}
{"name": "Restaurant Ochsen Michael", "lat": 47.3226601, "lon": 8.5491711, "amenity": "restaurant"}
{"name": "Suwannaphum", "lat": 47.398292, "lon": 8.4512717, "amenity": "restaurant"}
{"name": "La Strega", "lat": 47.3795604, "lon": 8.5252038, "amenity": "bar"}
{"name": "Gamper Bar", "lat": 47.3792989, "lon": 8.525277, "amenity": "bar"}
{"name": "Hotel Bar", "lat": 47.3805262, "lon": 8.5252271, "amenity": "bar"}
{"name": "Khujug", "lat": 47.3798297, "lon": 8.5270667, "amenity": "restaurant"}
{"name": "Schickeria", "lat": 47.3804469, "lon": 8.527784, "amenity": "bar"}
{"name": "The Spot Bar", "lat": 47.379506, "lon": 8.5260401, "amenity": "bar"}
{"name": "Restaurant Schnupf / Rangierbahnhof", "lat": 47.3808758, "lon": 8.5262009, "amenity": "restaurant"}
{"name": "Biondi", "lat": 47.3793855, "lon": 8.5258658, "amenity": "restaurant"}
{"name": "Toro Bar", "lat": 47.3803358, "lon": 8.5261534, "amenity": "bar"}
{"name": "Bar 63 chez Sylvia", "lat": 47.3792854, "lon": 8.5260935, "amenity": "bar"}
{"name": "Midway", "lat": 47.3793966, "lon": 8.5262654, "amenity": "bar"}
{"name": "Eichhörnli", "lat": 47.3796942, "lon": 8.525707, "amenity": "restaurant"}
{"name": "Tipsy Tiger", "lat": 47.3798446, "lon": 8.5276503, "amenity": "bar"}
{"name": "Golden Gate Bar", "lat": 47.3799979, "lon": 8.5267203, "amenity": "bar"}
{"name": "Sudaka", "lat": 47.3794533, "lon": 8.5282622, "amenity": "bar"}
{"name": "Club HW", "lat": 47.3807478, "lon": 8.526894, "amenity": "bar"}
{"name": "Strauss", "lat": 47.379674, "lon": 8.5278486, "amenity": "bar"}
{"name": "Thach", "lat": 47.3786741, "lon": 8.5299156, "amenity": "restaurant"}
{"name": "Ka3an", "lat": 47.3787218, "lon": 8.5298173, "amenity": "bar"}
{"name": "Pizzeria Milano", "lat": 47.3791536, "lon": 8.5283971, "amenity": "restaurant"}
{"name": "Morgenstern da Mario", "lat": 47.3784276, "lon": 8.5284216, "amenity": "restaurant"}
{"name": "Exer", "lat": 47.3783341, "lon": 8.5286082, "amenity": "bar"}
{"name": "Stella Alpina", "lat": 47.3787987, "lon": 8.5265659, "amenity": "restaurant"}
{"name": "Hongxi", "lat": 47.3777904, "lon": 8.5296685, "amenity": "restaurant"}
{"name": "Macuto's Bar", "lat": 47.3786157, "lon": 8.5265819, "amenity": "bar"}
{"name": "Negresco", "lat": 47.3780116, "lon": 8.5277525, "amenity": "bar"}
{"name": "Thai Tirak", "lat": 47.3781726, "lon": 8.5277611, "amenity": "bar"}
{"name": "Kinkhao", "lat": 47.3782008, "lon": 8.5292404, "amenity": "restaurant"}
{"name": "Amboss Rampe", "lat": 47.3811645, "lon": 8.5318876, "amenity": "bar"}
{"name": "Tant Pis", "lat": 47.3820245, "lon": 8.5332903, "amenity": "bar"}
{"name": "Casa Nostrana", "lat": 47.3440179, "lon": 8.5317309, "amenity": "restaurant"}
{"name": "Kiosk am Katzensee", "lat": 47.430894, "lon": 8.4934592, "amenity": "cafe"}
{"name": "Coop Restaurant", "lat": 47.3973972, "lon": 8.4488323, "amenity": "restaurant"}
{"name": "Kusang's Tibetan Kitchen", "lat": 47.3979742, "lon": 8.4509657, "amenity": "restaurant"}
{"name": "Sushishop", "lat": 47.3729114, "lon": 8.535012, "amenity": "restaurant"}
{"name": "Lotus Garden", "lat": 47.3991672, "lon": 8.4496944, "amenity": "restaurant"}
{"name": "Restaurant Schmiedstube Da Pepino", "lat": 47.4198821, "lon": 8.5988016, "amenity": "restaurant"}
{"name": "Don Miguel", "lat": 47.3761788, "lon": 8.5286665, "amenity": "bar"}
{"name": "Brasserie Bits & Bites", "lat": 47.410535, "lon": 8.5525017, "amenity": "restaurant"}
{"name": "Brasserie zum Vorbahnhof", "lat": 47.3797298, "lon": 8.5372003, "amenity": "restaurant"}
{"name": "Pizzeria Corona", "lat": 47.3988902, "lon": 8.4480059, "amenity": "restaurant"}
{"name": "Suan Long", "lat": 47.3752069, "lon": 8.5437776, "amenity": "restaurant"}
{"name": "Masoala", "lat": 47.3842908, "lon": 8.5779767, "amenity": "restaurant"}
{"name": "Pantanal", "lat": 47.3843493, "lon": 8.5739787, "amenity": "restaurant"}
{"name": "Damas", "lat": 47.3933515, "lon": 8.5263104, "amenity": "restaurant"}
{"name": "Napoli (da Gerardo)", "lat": 47.3662269, "lon": 8.5212488, "amenity": "restaurant"}
{"name": "Maison Manesse", "lat": 47.36518, "lon": 8.5212519, "amenity": "restaurant"}
{"name": "Uramakiya", "lat": 47.3658973, "lon": 8.5212335, "amenity": "restaurant"}
{"name": "Summergarte im Zeughausareal", "lat": 47.3772237, "lon": 8.5305291, "amenity": "cafe"}
{"name": "Tabula Rasa", "lat": 47.377911, "lon": 8.5294772, "amenity": "restaurant"}
{"name": "Zeughaushof", "lat": 47.3778272, "lon": 8.5304532, "amenity": "restaurant"}
{"name": "Viet-Thai", "lat": 47.3780557, "lon": 8.5299364, "amenity": "restaurant"}
{"name": "Riithalle", "lat": 47.3745929, "lon": 8.5345411, "amenity": "restaurant"}
{"name": "Luca²", "lat": 47.3667843, "lon": 8.5616996, "amenity": "restaurant"}
{"name": "Dieci Restaurant", "lat": 47.4141468, "lon": 8.6212215, "amenity": "restaurant"}
{"name": "Peking Garden", "lat": 47.4147701, "lon": 8.6192307, "amenity": "restaurant"}
{"name": "Cafe Miyuko", "lat": 47.3697504, "lon": 8.536579, "amenity": "cafe"}
{"name": "Yume Ramen", "lat": 47.3823657, "lon": 8.5303266, "amenity": "restaurant"}
{"name": "Soul Köfte", "lat": 47.3818623, "lon": 8.5296911, "amenity": "restaurant"}
{"name": "St. Gallerhof", "lat": 47.3799976, "lon": 8.5373936, "amenity": "restaurant"}
{"name": "Sham", "lat": 47.3800785, "lon": 8.5370948, "amenity": "restaurant"}
{"name": "Babo's Restaurant", "lat": 47.3819642, "lon": 8.5294299, "amenity": "restaurant"}
{"name": "Don’t Worry Eat Curry", "lat": 47.3828582, "lon": 8.5307697, "amenity": "restaurant"}
{"name": "Soul", "lat": 47.3741289, "lon": 8.5432109, "amenity": "cafe"}
{"name": "Casa da Picanha", "lat": 47.382094, "lon": 8.5300961, "amenity": "restaurant"}
{"name": "Dune Shisha Club", "lat": 47.3812873, "lon": 8.5331062, "amenity": "bar"}
{"name": "Restaurant Neugasshof", "lat": 47.3820132, "lon": 8.5303576, "amenity": "restaurant"}
{"name": "Restaurant Römerblick", "lat": 47.3680769, "lon": 8.5597987, "amenity": "restaurant"}
{"name": "Co Chin Chin", "lat": 47.3837599, "lon": 8.5284695, "amenity": "restaurant"}
{"name": "Amigos Tapas", "lat": 47.3839003, "lon": 8.5307988, "amenity": "restaurant"}
{"name": "Hiestand", "lat": 47.4013622, "lon": 8.4558063, "amenity": "restaurant"}
{"name": "Apollo Taverna", "lat": 47.4040325, "lon": 8.5571397, "amenity": "restaurant"}
{"name": "La Taqueria", "lat": 47.374456, "lon": 8.5228253, "amenity": "restaurant"}
{"name": "n/a", "lat": 47.3946227, "lon": 8.624421, "amenity": "restaurant"}
{"name": "Barranco", "lat": 47.3792301, "lon": 8.5158016, "amenity": "restaurant"}
{"name": "Rosengarten", "lat": 47.3461793, "lon": 8.6037813, "amenity": "restaurant"}
{"name": "Bottega Berta", "lat": 47.3741175, "lon": 8.5136406, "amenity": "restaurant"}
{"name": "Ah-Hua", "lat": 47.3760904, "lon": 8.5278522, "amenity": "restaurant"}
{"name": "Ristorante Lilienthal", "lat": 47.4238086, "lon": 8.5624041, "amenity": "restaurant"}
{"name": "Narjil Shisha Lounge", "lat": 47.3935768, "lon": 8.5245364, "amenity": "bar"}
{"name": "Ristorante Pizzeria 99", "lat": 47.3615099, "lon": 8.5260442, "amenity": "restaurant"}
{"name": "Bederbar", "lat": 47.3624835, "lon": 8.5267513, "amenity": "bar"}
{"name": "Bederhof", "lat": 47.3624137, "lon": 8.5266555, "amenity": "restaurant"}
{"name": "Le Rendez-Vous", "lat": 47.3654301, "lon": 8.5321082, "amenity": "restaurant"}
{"name": "La Fonte", "lat": 47.4005575, "lon": 8.5859139, "amenity": "restaurant"}
{"name": "Öpfelchammer", "lat": 47.3723465, "lon": 8.5445758, "amenity": "restaurant"}
{"name": "Peking Garden", "lat": 47.4114049, "lon": 8.5450408, "amenity": "restaurant"}
{"name": "Wirtschaft zum Doktorhaus", "lat": 47.4157395, "lon": 8.5891018, "amenity": "restaurant"}
{"name": "Restaurant Markthalle", "lat": 47.3876044, "lon": 8.5260285, "amenity": "restaurant"}
{"name": "Misoga", "lat": 47.3614068, "lon": 8.5608856, "amenity": "restaurant"}
{"name": "Kiosk Café Schloss", "lat": 47.3690381, "lon": 8.5195086, "amenity": "cafe"}
{"name": "Bar Basso", "lat": 47.372591, "lon": 8.5334781, "amenity": "bar"}
{"name": "Kafi Ferdinand", "lat": 47.3701733, "lon": 8.5104116, "amenity": "cafe"}
{"name": "Bei Fouad", "lat": 47.4039752, "lon": 8.5739634, "amenity": "restaurant"}
{"name": "Restaurant Blume", "lat": 47.4041654, "lon": 8.5733193, "amenity": "restaurant"}
{"name": "Taj Palace", "lat": 47.3910244, "lon": 8.526532, "amenity": "restaurant"}
{"name": "Il Basilico H10", "lat": 47.3909511, "lon": 8.5272823, "amenity": "restaurant"}
{"name": "Garhwal", "lat": 47.4040156, "lon": 8.5678705, "amenity": "restaurant"}
{"name": "Da Pone", "lat": 47.3915816, "lon": 8.5251298, "amenity": "restaurant"}
{"name": "Belmondo", "lat": 47.393331, "lon": 8.5284527, "amenity": "cafe"}
{"name": "Don Leone", "lat": 47.3611874, "lon": 8.5266838, "amenity": "restaurant"}
{"name": "Weisses Rössli", "lat": 47.361886, "lon": 8.5261633, "amenity": "restaurant"}
{"name": "Winit's", "lat": 47.34398, "lon": 8.5314693, "amenity": "restaurant"}
{"name": "Allegro", "lat": 47.3468443, "lon": 8.5287676, "amenity": "restaurant"}
{"name": "Peking Garden", "lat": 47.3474258, "lon": 8.5334884, "amenity": "restaurant"}
{"name": "Restaurant Herzli", "lat": 47.406994, "lon": 8.5731722, "amenity": "cafe"}
{"name": "Olympic Lounge", "lat": 47.4077603, "lon": 8.5826309, "amenity": "restaurant"}
{"name": "Restaurant Jasmin", "lat": 47.404743, "lon": 8.5729195, "amenity": "restaurant"}
{"name": "The Mixt", "lat": 47.3755383, "lon": 8.529159, "amenity": "bar"}
{"name": "Filfl", "lat": 47.375292, "lon": 8.5154091, "amenity": "restaurant"}
{"name": "Nordlicht", "lat": 47.4137718, "lon": 8.5382686, "amenity": "restaurant"}
{"name": "Tertianum", "lat": 47.346367, "lon": 8.607695, "amenity": "restaurant"}
{"name": "Porta D‘Oro", "lat": 47.4089292, "lon": 8.5459524, "amenity": "cafe"}
{"name": "Tres Amigos", "lat": 47.4098493, "lon": 8.5443715, "amenity": "restaurant"}
{"name": "Hirschberg", "lat": 47.373525, "lon": 8.5466575, "amenity": "restaurant"}
{"name": "Petra's Tip Top Bar", "lat": 47.3735982, "lon": 8.546581, "amenity": "bar"}
{"name": "Rechberg", "lat": 47.3739693, "lon": 8.546249, "amenity": "restaurant"}
{"name": "Timeout", "lat": 47.3753582, "lon": 8.5457947, "amenity": "restaurant"}
{"name": "Okay Italia", "lat": 47.379193, "lon": 8.5555706, "amenity": "restaurant"}
{"name": "Barcelona Restaurant", "lat": 47.4020484, "lon": 8.5353195, "amenity": "restaurant"}
{"name": "Clouds", "lat": 47.3860207, "lon": 8.5171884, "amenity": "bar"}
{"name": "Piazza", "lat": 47.3739392, "lon": 8.5146022, "amenity": "restaurant"}
{"name": "Meedo Take Away", "lat": 47.4020131, "lon": 8.4962244, "amenity": "restaurant"}
{"name": "Restaurant Maharani", "lat": 47.4027881, "lon": 8.492523, "amenity": "restaurant"}
{"name": "Zweifels Weinbeiz", "lat": 47.404036, "lon": 8.4967746, "amenity": "restaurant"}
{"name": "Pfyl", "lat": 47.3889194, "lon": 8.492455, "amenity": "cafe"}
{"name": "Restaurant Dörfli", "lat": 47.3703657, "lon": 8.4536068, "amenity": "restaurant"}
{"name": "Gasthof Falken Wiedikon", "lat": 47.3702244, "lon": 8.5194587, "amenity": "restaurant"}
{"name": "Vier Linden Imbiss-Café", "lat": 47.3696191, "lon": 8.5554987, "amenity": "cafe"}
{"name": "Kaimug Restaurant", "lat": 47.4087051, "lon": 8.5954088, "amenity": "restaurant"}
{"name": "Migros Restaurant", "lat": 47.4084178, "lon": 8.5958467, "amenity": "restaurant"}
{"name": "Ristorante Frascati", "lat": 47.3608803, "lon": 8.5478901, "amenity": "restaurant"}
{"name": "Starbucks", "lat": 47.4084412, "lon": 8.5947834, "amenity": "cafe"}
{"name": "Korner", "lat": 47.3686567, "lon": 8.5339963, "amenity": "restaurant"}
{"name": "Sazio Osteria", "lat": 47.3635603, "lon": 8.5495722, "amenity": "restaurant"}
{"name": "Brasserie Schiller", "lat": 47.3654045, "lon": 8.5471561, "amenity": "restaurant"}
{"name": "Goethe Bar", "lat": 47.3655117, "lon": 8.5473418, "amenity": "bar"}
{"name": "Caffè Spettacolo", "lat": 47.371284, "lon": 8.5235117, "amenity": "cafe"}
{"name": "Café ZHAW", "lat": 47.3777051, "lon": 8.5326235, "amenity": "cafe"}
{"name": "Kennedy's Irish Pub", "lat": 47.3773415, "lon": 8.5332076, "amenity": "restaurant"}
{"name": "Starbucks", "lat": 47.3582869, "lon": 8.5223571, "amenity": "cafe"}
{"name": "Silex", "lat": 47.3715144, "lon": 8.5245483, "amenity": "restaurant"}
{"name": "Gartenhof", "lat": 47.3719093, "lon": 8.525645, "amenity": "restaurant"}
{"name": "Hermanseck", "lat": 47.371639, "lon": 8.524892, "amenity": "restaurant"}
{"name": "Florentin", "lat": 47.3629747, "lon": 8.5324508, "amenity": "restaurant"}
{"name": "Poushe Strudelhaus", "lat": 47.3615244, "lon": 8.526657, "amenity": "cafe"}
{"name": "Hotz", "lat": 47.3591886, "lon": 8.5925439, "amenity": "cafe"}
{"name": "Mahsen Shisha Bar", "lat": 47.4141779, "lon": 8.5468304, "amenity": "bar"}
{"name": "Laila", "lat": 47.4144437, "lon": 8.5468378, "amenity": "bar"}
{"name": "Goranac", "lat": 47.4151692, "lon": 8.5468187, "amenity": "restaurant"}
{"name": "Shisha Club Handedan", "lat": 47.4148534, "lon": 8.546411, "amenity": "bar"}
{"name": "Ami Tea Room", "lat": 47.4175197, "lon": 8.5462279, "amenity": "cafe"}
{"name": "Lamky", "lat": 47.4128096, "lon": 8.545181, "amenity": "restaurant"}
{"name": "Don Leone", "lat": 47.3749163, "lon": 8.5291408, "amenity": "restaurant"}
{"name": "Binzgarten", "lat": 47.4124987, "lon": 8.5445738, "amenity": "restaurant"}
{"name": "Tamarind Garden", "lat": 47.3686456, "lon": 8.5015488, "amenity": "restaurant"}
{"name": "Malabar", "lat": 47.4105086, "lon": 8.548421, "amenity": "restaurant"}
{"name": "Jao Praya", "lat": 47.409219, "lon": 8.547568, "amenity": "restaurant"}
{"name": "Restaurant & Pizza Furetto", "lat": 47.4103887, "lon": 8.5471916, "amenity": "restaurant"}
{"name": "Rubina", "lat": 47.381545, "lon": 8.5483263, "amenity": "restaurant"}
{"name": "El Luchador", "lat": 47.3817668, "lon": 8.533656, "amenity": "restaurant"}
{"name": "Café des Amis", "lat": 47.3886467, "lon": 8.5361093, "amenity": "cafe"}
{"name": "Mangostan", "lat": 47.3780904, "lon": 8.4982984, "amenity": "restaurant"}
{"name": "Wurst und Moritz", "lat": 47.3901439, "lon": 8.5223613, "amenity": "restaurant"}
{"name": "Petit Saigon", "lat": 47.3703052, "lon": 8.5207971, "amenity": "restaurant"}
{"name": "Bierstube Scheidegg", "lat": 47.3699912, "lon": 8.518351, "amenity": "restaurant"}
{"name": "SU-MO", "lat": 47.3708827, "lon": 8.5157585, "amenity": "restaurant"}
{"name": "Ebrietas", "lat": 47.3758907, "lon": 8.544458, "amenity": "bar"}
{"name": "Brisket", "lat": 47.387695, "lon": 8.5187881, "amenity": "restaurant"}
{"name": "Hotel Rivington & Sons", "lat": 47.3862839, "lon": 8.5174558, "amenity": "bar"}
{"name": "Dihei", "lat": 47.3969702, "lon": 8.6204331, "amenity": "bar"}
{"name": "Thai Erawan", "lat": 47.4165977, "lon": 8.5558212, "amenity": "restaurant"}
{"name": "New Bombay", "lat": 47.3736181, "lon": 8.5456942, "amenity": "restaurant"}
{"name": "Tasty Haus", "lat": 47.4180995, "lon": 8.5565889, "amenity": "restaurant"}
{"name": "Divid", "lat": 47.3882798, "lon": 8.514258, "amenity": "bar"}
{"name": "Equinox", "lat": 47.3880703, "lon": 8.5141661, "amenity": "restaurant"}
{"name": "Lucid", "lat": 47.3880868, "lon": 8.5144267, "amenity": "bar"}
{"name": "Wirtschaft Unterdorf", "lat": 47.4262082, "lon": 8.5054134, "amenity": "restaurant"}
{"name": "Cucina", "lat": 47.384162, "lon": 8.5304006, "amenity": "restaurant"}
{"name": "Cinque", "lat": 47.383294, "lon": 8.5301807, "amenity": "restaurant"}
{"name": "Brüelmatt", "lat": 47.3535624, "lon": 8.438979, "amenity": "restaurant"}
{"name": "Snack Center Freihof", "lat": 47.3534858, "lon": 8.4372979, "amenity": "restaurant"}
{"name": "Moudi's Lecker Garten", "lat": 47.3909932, "lon": 8.5455952, "amenity": "restaurant"}
{"name": "hundertwein", "lat": 47.3726057, "lon": 8.545722, "amenity": "bar"}
{"name": "Uto Kulm", "lat": 47.3495999, "lon": 8.4909775, "amenity": "restaurant"}
{"name": "Centro", "lat": 47.3760181, "lon": 8.5277705, "amenity": "restaurant"}
{"name": "Schützenhaus Albisgüetli", "lat": 47.3522874, "lon": 8.5083976, "amenity": "restaurant"}
{"name": "Buena Vista Cafebar", "lat": 47.3876933, "lon": 8.4855445, "amenity": "cafe"}
{"name": "Restaurant Casino", "lat": 47.3868901, "lon": 8.4898386, "amenity": "restaurant"}
{"name": "Confiserie Galaxy", "lat": 47.429665, "lon": 8.5602556, "amenity": "cafe"}
{"name": "Peking Garden", "lat": 47.4303711, "lon": 8.5612748, "amenity": "restaurant"}
{"name": "Al Mouchtar", "lat": 47.4327251, "lon": 8.56498, "amenity": "restaurant"}
{"name": "Szechuan", "lat": 47.4345449, "lon": 8.5678259, "amenity": "restaurant"}
{"name": "Gibeleich", "lat": 47.4287859, "lon": 8.5648513, "amenity": "restaurant"}
{"name": "Gasthaus Hofwiesen", "lat": 47.4063257, "lon": 8.5376266, "amenity": "restaurant"}
{"name": "Starbucks", "lat": 47.3780832, "lon": 8.5349092, "amenity": "cafe"}
{"name": "Canton", "lat": 47.3094947, "lon": 8.5564615, "amenity": "restaurant"}
{"name": "Aubrey", "lat": 47.3891509, "lon": 8.5177829, "amenity": "restaurant"}
{"name": "Restaurant GrafZ", "lat": 47.4233874, "lon": 8.5596797, "amenity": "restaurant"}
{"name": "Sher-E-Punjab", "lat": 47.3745738, "lon": 8.5167916, "amenity": "restaurant"}
{"name": "Taj Mahal", "lat": 47.386998, "lon": 8.4893909, "amenity": "restaurant"}
{"name": "bar zueri west", "lat": 47.3885319, "lon": 8.4865979, "amenity": "cafe"}
{"name": "Bäckerei Café Frankental", "lat": 47.4063615, "lon": 8.4810482, "amenity": "cafe"}
{"name": "Molino", "lat": 47.3840714, "lon": 8.5291751, "amenity": "restaurant"}
{"name": "Klaus", "lat": 47.3789337, "lon": 8.5273866, "amenity": "bar"}
{"name": "Kafi Seilbahn Rigiblick", "lat": 47.3853864, "lon": 8.5482515, "amenity": "cafe"}
{"name": "Frau Gerolds Garten", "lat": 47.385169, "lon": 8.5190628, "amenity": "restaurant"}
{"name": "KuBaA", "lat": 47.4215582, "lon": 8.5058913, "amenity": "bar"}
{"name": "Pause im foifi", "lat": 47.3918258, "lon": 8.5138982, "amenity": "cafe"}
{"name": "Seeholz Beizli", "lat": 47.4375094, "lon": 8.50186, "amenity": "cafe"}
{"name": "Bamboo Inn", "lat": 47.3804786, "lon": 8.5472423, "amenity": "restaurant"}
{"name": "Stapferstube da Rizzo", "lat": 47.3821725, "lon": 8.5474623, "amenity": "restaurant"}
{"name": "Nœrd Kantine", "lat": 47.4136106, "lon": 8.5336274, "amenity": "restaurant"}
{"name": "Mont Martre", "lat": 47.371563, "lon": 8.5412445, "amenity": "cafe"}
{"name": "Kafi Guet", "lat": 47.3737738, "lon": 8.5036355, "amenity": "cafe"}
{"name": "King To", "lat": 47.3934655, "lon": 8.4738653, "amenity": "restaurant"}
{"name": "Kantine Hermetschloo", "lat": 47.3945224, "lon": 8.4748209, "amenity": "restaurant"}
{"name": "Turbinenhaus", "lat": 47.3954067, "lon": 8.5054408, "amenity": "restaurant"}
{"name": "Thiwa", "lat": 47.3678813, "lon": 8.4944949, "amenity": "cafe"}
{"name": "Asian fusion by Suan Long", "lat": 47.3974402, "lon": 8.6181683, "amenity": "restaurant"}
{"name": "Restaurant Holding", "lat": 47.3975694, "lon": 8.6319913, "amenity": "restaurant"}
{"name": "Gasthof Rössli", "lat": 47.3309096, "lon": 8.6243914, "amenity": "restaurant"}
{"name": "Restaurant Oase", "lat": 47.3782017, "lon": 8.5408542, "amenity": "restaurant"}
{"name": "Darbar", "lat": 47.3642732, "lon": 8.5548578, "amenity": "restaurant"}
{"name": "Evin Kebap Haus", "lat": 47.3808206, "lon": 8.5183332, "amenity": "restaurant"}
{"name": "Amore", "lat": 47.4041342, "lon": 8.548368, "amenity": "restaurant"}
{"name": "Yardbird Southern Fried Chicken", "lat": 47.3733877, "lon": 8.5189589, "amenity": "restaurant"}
{"name": "Noodlee", "lat": 47.3808663, "lon": 8.5180091, "amenity": "restaurant"}
{"name": "Parea", "lat": 47.3758611, "lon": 8.5142545, "amenity": "restaurant"}
{"name": "Bode Bäckerei-Konditorei", "lat": 47.3745553, "lon": 8.4963547, "amenity": "cafe"}
{"name": "Loft Five", "lat": 47.3784801, "lon": 8.533862, "amenity": "restaurant"}
{"name": "Swiss Casino Zürich", "lat": 47.3735313, "lon": 8.5329889, "amenity": "restaurant"}
{"name": "Restaurant Krone", "lat": 47.3883414, "lon": 8.4837689, "amenity": "restaurant"}
{"name": "Residenz Café Spirgarten", "lat": 47.3876448, "lon": 8.4845519, "amenity": "cafe"}
{"name": "Presse Club", "lat": 47.3704129, "lon": 8.5410105, "amenity": "restaurant"}
{"name": "Black Tap", "lat": 47.3749062, "lon": 8.539532, "amenity": "restaurant"}
{"name": "Trattoria Emilia", "lat": 47.375994, "lon": 8.487962, "amenity": "restaurant"}
{"name": "Schlachthof Letzigrund", "lat": 47.3834741, "lon": 8.5060791, "amenity": "restaurant"}
{"name": "Lemon", "lat": 47.4092114, "lon": 8.5377071, "amenity": "restaurant"}
{"name": "Virtù", "lat": 47.4109228, "lon": 8.5376629, "amenity": "restaurant"}
{"name": "Meister GAO", "lat": 47.3972168, "lon": 8.5323442, "amenity": "restaurant"}
{"name": "SAHltimbocca", "lat": 47.3954854, "lon": 8.5318493, "amenity": "restaurant"}
{"name": "Kleine Freiheit", "lat": 47.379135, "lon": 8.5445168, "amenity": "cafe"}
{"name": "Stereo", "lat": 47.3777854, "lon": 8.5272463, "amenity": "restaurant"}
{"name": "n/a", "lat": 47.3096249, "lon": 8.5837296, "amenity": "cafe"}
{"name": "Shanti Jay", "lat": 47.374232, "lon": 8.5186319, "amenity": "cafe"}
{"name": "Atelier", "lat": 47.3703322, "lon": 8.5376671, "amenity": "bar"}
{"name": "blindekuh", "lat": 47.3583286, "lon": 8.5571633, "amenity": "restaurant"}
{"name": "Restaurant Gertrudhof", "lat": 47.3739155, "lon": 8.5157835, "amenity": "restaurant"}
{"name": "Rosso", "lat": 47.3854018, "lon": 8.5183169, "amenity": "restaurant"}
{"name": "Casa del Gato", "lat": 47.3698659, "lon": 8.5184776, "amenity": "cafe"}
{"name": "Bistrot à Paris", "lat": 47.3673012, "lon": 8.56085, "amenity": "restaurant"}
{"name": "LOONI'S Café & Bar", "lat": 47.3158478, "lon": 8.521219, "amenity": "bar"}
{"name": "Jeunesse", "lat": 47.4041372, "lon": 8.5342275, "amenity": "restaurant"}
{"name": "UBS Restaurant Snackeria Flurhof", "lat": 47.3825966, "lon": 8.4926584, "amenity": "restaurant"}
{"name": "Thai Hunters", "lat": 47.3734083, "lon": 8.525345, "amenity": "restaurant"}
{"name": "Restaurant Bürgli", "lat": 47.4228696, "lon": 8.5417788, "amenity": "restaurant"}
{"name": "Tamarind Hill", "lat": 47.4067908, "lon": 8.5482253, "amenity": "restaurant"}
{"name": "Tschingg", "lat": 47.4097353, "lon": 8.5460335, "amenity": "restaurant"}
{"name": "Las Vegas City", "lat": 47.41458, "lon": 8.5464719, "amenity": "bar"}
{"name": "Grand‘in Osteria", "lat": 47.3600494, "lon": 8.5690109, "amenity": "restaurant"}
{"name": "Konrad Kaffee- & Cocktailbar (ex 0815)", "lat": 47.3768147, "lon": 8.538892, "amenity": "bar"}
{"name": "Mönchhof am See", "lat": 47.3326814, "lon": 8.5446422, "amenity": "restaurant"}
{"name": "Chez Fritz", "lat": 47.319388, "lon": 8.5530944, "amenity": "restaurant"}
{"name": "Wirtschaft im Franz", "lat": 47.3722182, "lon": 8.5196023, "amenity": "restaurant"}
{"name": "Romarino", "lat": 47.411255, "lon": 8.545482, "amenity": "restaurant"}
{"name": "Café Paradiesli", "lat": 47.3708122, "lon": 8.557219, "amenity": "cafe"}
{"name": "Maximilian Café & Bar", "lat": 47.3722553, "lon": 8.5203339, "amenity": "bar"}
{"name": "Restaurant Büsi", "lat": 47.4270313, "lon": 8.5102272, "amenity": "restaurant"}
{"name": "Buure-Stube Katzenrüti", "lat": 47.4366859, "lon": 8.5069431, "amenity": "restaurant"}
{"name": "Manjaal", "lat": 47.3843311, "lon": 8.5286143, "amenity": "restaurant"}
{"name": "Tramblu", "lat": 47.3983794, "lon": 8.536259, "amenity": "restaurant"}
{"name": "Costa Brava", "lat": 47.3885207, "lon": 8.5256303, "amenity": "restaurant"}
{"name": "Pizzeria Margheri", "lat": 47.3886259, "lon": 8.5253686, "amenity": "restaurant"}
{"name": "D'Ouro", "lat": 47.3824288, "lon": 8.5141198, "amenity": "restaurant"}
{"name": "Churrasco Steakhouse & Bar", "lat": 47.3719325, "lon": 8.5402773, "amenity": "restaurant"}
{"name": "Mama's Beck", "lat": 47.3885695, "lon": 8.539287, "amenity": "restaurant"}
{"name": "Restaurant Frohsinn", "lat": 47.370248, "lon": 8.4522594, "amenity": "restaurant"}
{"name": "Marmar", "lat": 47.390581, "lon": 8.5174657, "amenity": "restaurant"}
{"name": "Pizzeria Rapido", "lat": 47.4016808, "lon": 8.4989566, "amenity": "restaurant"}
{"name": "Adlisberg", "lat": 47.3749363, "lon": 8.5823881, "amenity": "restaurant"}
{"name": "Restaurant Markthalle", "lat": 47.3918896, "lon": 8.5004329, "amenity": "restaurant"}
{"name": "Taho Sushi", "lat": 47.3693102, "lon": 8.5325414, "amenity": "restaurant"}
{"name": "Positano", "lat": 47.3775576, "lon": 8.5438988, "amenity": "restaurant"}
{"name": "Bombay Karachi", "lat": 47.3793233, "lon": 8.5435476, "amenity": "restaurant"}
{"name": "Commihalle", "lat": 47.3777853, "lon": 8.5438498, "amenity": "restaurant"}
{"name": "Santa Lucia Subito", "lat": 47.3815179, "lon": 8.5422215, "amenity": "restaurant"}
{"name": "Café Hubertus", "lat": 47.3776566, "lon": 8.4989379, "amenity": "cafe"}
{"name": "Lycka", "lat": 47.3837629, "lon": 8.5298256, "amenity": "cafe"}
{"name": "4Leoni Firenze", "lat": 47.3843323, "lon": 8.5302362, "amenity": "restaurant"}
{"name": "Valentin's", "lat": 47.3846382, "lon": 8.5297901, "amenity": "restaurant"}
{"name": "La Contrada", "lat": 47.384832, "lon": 8.5295929, "amenity": "restaurant"}
{"name": "Friends Corner", "lat": 47.3847907, "lon": 8.5277141, "amenity": "restaurant"}
{"name": "Josef", "lat": 47.3838905, "lon": 8.5289598, "amenity": "restaurant"}
{"name": "Eldorado", "lat": 47.3836636, "lon": 8.5326533, "amenity": "bar"}
{"name": "Zam Dapor", "lat": 47.3857107, "lon": 8.5420014, "amenity": "restaurant"}
{"name": "Schwarzer Hecht", "lat": 47.3259, "lon": 8.4897751, "amenity": "restaurant"}
{"name": "Tschingg", "lat": 47.373809, "lon": 8.5296981, "amenity": "restaurant"}
{"name": "PHO Vietnam", "lat": 47.3749537, "lon": 8.5244837, "amenity": "restaurant"}
{"name": "Lindenhofkeller", "lat": 47.3724638, "lon": 8.540819, "amenity": "restaurant"}
{"name": "Zur Schtund", "lat": 47.3722486, "lon": 8.5393486, "amenity": "restaurant"}
{"name": "Kafi Känzig", "lat": 47.3235876, "lon": 8.5486712, "amenity": "cafe"}
{"name": "Chimy's", "lat": 47.3832801, "lon": 8.528361, "amenity": "restaurant"}
{"name": "Restaurant Pizzeria Grazie", "lat": 47.3403525, "lon": 8.4728269, "amenity": "restaurant"}
{"name": "Chianalea Ristorante Pizzeria", "lat": 47.3792517, "lon": 8.5241155, "amenity": "restaurant"}
{"name": "Hotz", "lat": 47.3956031, "lon": 8.6216685, "amenity": "cafe"}
{"name": "Barrio 5", "lat": 47.3865408, "lon": 8.5287954, "amenity": "bar"}
{"name": "St. Jakob Beck", "lat": 47.3877262, "lon": 8.5265882, "amenity": "cafe"}
{"name": "Thailodge", "lat": 47.388317, "lon": 8.576942, "amenity": "restaurant"}
{"name": "Houdini", "lat": 47.3745768, "lon": 8.5203902, "amenity": "bar"}
{"name": "Thali Indian Restaurant", "lat": 47.390294, "lon": 8.5392273, "amenity": "restaurant"}
{"name": "Brenso", "lat": 47.3767849, "lon": 8.526869, "amenity": "restaurant"}
{"name": "Bistro Chez Toni", "lat": 47.3901929, "lon": 8.511288, "amenity": "cafe"}
{"name": "naanu", "lat": 47.3908314, "lon": 8.5090999, "amenity": "restaurant"}
{"name": "Ynos", "lat": 47.3789304, "lon": 8.5314462, "amenity": "restaurant"}
{"name": "Sport Restaurant Heerenschürli", "lat": 47.4021219, "lon": 8.5950897, "amenity": "restaurant"}
{"name": "Starbucks", "lat": 47.3734609, "lon": 8.5298891, "amenity": "cafe"}
{"name": "Juchhof 2", "lat": 47.398823, "lon": 8.466228, "amenity": "restaurant"}
{"name": "Wild Bowls", "lat": 47.3636395, "lon": 8.5495067, "amenity": "restaurant"}
{"name": "Bebek", "lat": 47.3744654, "lon": 8.5207529, "amenity": "restaurant"}
{"name": "Wohnzimmerbar", "lat": 47.3741237, "lon": 8.5200665, "amenity": "bar"}
{"name": "Felix Bar", "lat": 47.3742488, "lon": 8.5209052, "amenity": "bar"}
{"name": "Arctic", "lat": 47.3734943, "lon": 8.5369055, "amenity": "cafe"}
{"name": "Mikkeller", "lat": 47.3712712, "lon": 8.520318, "amenity": "bar"}
{"name": "Schmiedhof", "lat": 47.3709578, "lon": 8.5196543, "amenity": "restaurant"}
{"name": "Babu's Bakery & Coffeehouse", "lat": 47.3653311, "lon": 8.5475291, "amenity": "cafe"}
{"name": "Marcello's Bistro", "lat": 47.4029458, "lon": 8.4980459, "amenity": "restaurant"}
{"name": "McCafé", "lat": 47.4120384, "lon": 8.6156008, "amenity": "cafe"}
{"name": "Yume-Ramen", "lat": 47.3766703, "lon": 8.5332799, "amenity": "restaurant"}
{"name": "Armando's by Vergani", "lat": 47.3752658, "lon": 8.5371963, "amenity": "bar"}
{"name": "Löweneck", "lat": 47.374868, "lon": 8.5364144, "amenity": "restaurant"}
{"name": "Al Piattino", "lat": 47.380794, "lon": 8.5346589, "amenity": "cafe"}
{"name": "Da Michelangelo", "lat": 47.3733548, "lon": 8.5152301, "amenity": "restaurant"}
{"name": "Oberes Triemli", "lat": 47.3669621, "lon": 8.4933926, "amenity": "restaurant"}
{"name": "Mi Mi Sa", "lat": 47.4193301, "lon": 8.5469887, "amenity": "restaurant"}
{"name": "Werdguet", "lat": 47.3715104, "lon": 8.5274873, "amenity": "restaurant"}
{"name": "Il Giglio", "lat": 47.3709203, "lon": 8.528323, "amenity": "restaurant"}
{"name": "MAZI im Morgarten", "lat": 47.3714815, "lon": 8.5278588, "amenity": "restaurant"}
{"name": "Fein und Schein", "lat": 47.3704467, "lon": 8.5273814, "amenity": "restaurant"}
{"name": "Penalty Restaurant Bar", "lat": 47.3714333, "lon": 8.5285099, "amenity": "bar"}
{"name": "Bärengasse", "lat": 47.3703775, "lon": 8.5383836, "amenity": "restaurant"}
{"name": "Thai Erawan", "lat": 47.3694613, "lon": 8.5366583, "amenity": "restaurant"}
{"name": "Steiner", "lat": 47.3875211, "lon": 8.5147311, "amenity": "cafe"}
{"name": "Tam Nan Siam Thai Restaurant", "lat": 47.3929144, "lon": 8.4743173, "amenity": "restaurant"}
{"name": "Xi Muoi", "lat": 47.3706027, "lon": 8.5138447, "amenity": "restaurant"}
{"name": "Neue Taverne", "lat": 47.3720697, "lon": 8.5403664, "amenity": "restaurant"}
{"name": "ViCafe", "lat": 47.370366, "lon": 8.5134372, "amenity": "cafe"}
{"name": "Bar OTRO", "lat": 47.3784483, "lon": 8.5287399, "amenity": "bar"}
{"name": "Kafi Freud", "lat": 47.3959666, "lon": 8.5406154, "amenity": "cafe"}
{"name": "The Hoppy Corner", "lat": 47.4112571, "lon": 8.5458697, "amenity": "bar"}
{"name": "Club 12", "lat": 47.4110549, "lon": 8.545201, "amenity": "bar"}
{"name": "La Esquina", "lat": 47.4114292, "lon": 8.5943075, "amenity": "restaurant"}
{"name": "Nooch Asian Kitchen", "lat": 47.410154, "lon": 8.5956174, "amenity": "restaurant"}
{"name": "Sahar", "lat": 47.4098176, "lon": 8.5956923, "amenity": "restaurant"}
{"name": "Schokolato", "lat": 47.4102193, "lon": 8.5950199, "amenity": "cafe"}
{"name": "Enzian Veggibistro", "lat": 47.4106081, "lon": 8.5953324, "amenity": "restaurant"}
{"name": "79", "lat": 47.4106991, "lon": 8.5952079, "amenity": "restaurant"}
{"name": "Witiker", "lat": 47.3588218, "lon": 8.5857036, "amenity": "cafe"}
{"name": "Hokkaido", "lat": 47.3905062, "lon": 8.5174073, "amenity": "restaurant"}
{"name": "Deli1993", "lat": 47.3901151, "lon": 8.5151409, "amenity": "restaurant"}
{"name": "Nooch", "lat": 47.3741055, "lon": 8.5251017, "amenity": "restaurant"}
{"name": "Il Faro", "lat": 47.4129732, "lon": 8.5923208, "amenity": "restaurant"}
{"name": "novotelcafe", "lat": 47.3891581, "lon": 8.5166796, "amenity": "bar"}
{"name": "The Flave", "lat": 47.3890946, "lon": 8.5168772, "amenity": "restaurant"}
{"name": "Ristorante 33", "lat": 47.3668389, "lon": 8.5339821, "amenity": "restaurant"}
{"name": "Fantasia", "lat": 47.4201108, "lon": 8.535963, "amenity": "restaurant"}
{"name": "Tandoor House", "lat": 47.4224326, "lon": 8.5404808, "amenity": "restaurant"}
{"name": "Restaurant Viadukt", "lat": 47.3861426, "lon": 8.5220289, "amenity": "restaurant"}
{"name": "African Queen", "lat": 47.3816229, "lon": 8.5421505, "amenity": "restaurant"}
{"name": "Concerto", "lat": 47.4101573, "lon": 8.5457543, "amenity": "restaurant"}
{"name": "SimSim", "lat": 47.3878521, "lon": 8.5392302, "amenity": "restaurant"}
{"name": "Konditorei Cafe", "lat": 47.3882455, "lon": 8.5359339, "amenity": "cafe"}
{"name": "Urban Spice", "lat": 47.4315671, "lon": 8.5595144, "amenity": "restaurant"}
{"name": "Nihao", "lat": 47.4024233, "lon": 8.5445394, "amenity": "restaurant"}
{"name": "Studio Bellerive", "lat": 47.3623277, "lon": 8.5475678, "amenity": "restaurant"}
{"name": "Eden Kitchen & Bar", "lat": 47.3627091, "lon": 8.5473718, "amenity": "restaurant"}
{"name": "La Ola Bar", "lat": 47.3761962, "lon": 8.5162805, "amenity": "bar"}
{"name": "Damm für Dich", "lat": 47.3904856, "lon": 8.5276442, "amenity": "bar"}
{"name": "franzos", "lat": 47.3761481, "lon": 8.5438868, "amenity": "cafe"}
{"name": "Manuel's", "lat": 47.3736135, "lon": 8.535133, "amenity": "cafe"}
{"name": "Sir Andrew's", "lat": 47.3871353, "lon": 8.4884291, "amenity": "restaurant"}
{"name": "Rokabar", "lat": 47.3764466, "lon": 8.5405676, "amenity": "bar"}
{"name": "Bund 39", "lat": 47.3749607, "lon": 8.5287161, "amenity": "restaurant"}
{"name": "Beetnut", "lat": 47.3776411, "lon": 8.533411, "amenity": "restaurant"}
{"name": "Steiner", "lat": 47.3774798, "lon": 8.5329961, "amenity": "cafe"}
{"name": "Stars & Stripes", "lat": 47.4205507, "lon": 8.5587899, "amenity": "restaurant"}
{"name": "SimSim", "lat": 47.4075523, "lon": 8.5478557, "amenity": "restaurant"}
{"name": "Bubble House", "lat": 47.3766656, "lon": 8.540727, "amenity": "cafe"}
{"name": "Armando's Pane e Vino", "lat": 47.3579925, "lon": 8.5225797, "amenity": "bar"}
{"name": "Migros Restaurant", "lat": 47.3900253, "lon": 8.5089683, "amenity": "restaurant"}
{"name": "Poli", "lat": 47.3731718, "lon": 8.5144566, "amenity": "bar"}
{"name": "Salvi's Bar", "lat": 47.373014, "lon": 8.514628, "amenity": "cafe"}
{"name": "Confiserie Freytag", "lat": 47.357029, "lon": 8.5549279, "amenity": "cafe"}
{"name": "Ban Song Thai", "lat": 47.3694128, "lon": 8.5442106, "amenity": "restaurant"}
{"name": "Cafe Takeaway", "lat": 47.378856, "lon": 8.5438982, "amenity": "cafe"}
{"name": "Zolliker Stube", "lat": 47.3380887, "lon": 8.5758549, "amenity": "restaurant"}
{"name": "Cafeteria UZH Botanischer Garten", "lat": 47.3588123, "lon": 8.5595427, "amenity": "cafe"}
{"name": "Seefeldbar", "lat": 47.3547507, "lon": 8.5571903, "amenity": "bar"}
{"name": "kaisin", "lat": 47.414369, "lon": 8.5567666, "amenity": "restaurant"}
{"name": "Spoon", "lat": 47.4143734, "lon": 8.5569597, "amenity": "restaurant"}
{"name": "Brasserie Seefeld", "lat": 47.3526098, "lon": 8.5591926, "amenity": "restaurant"}
{"name": "Veganitas", "lat": 47.3775824, "lon": 8.5276791, "amenity": "restaurant"}
{"name": "La Zagra", "lat": 47.3488821, "lon": 8.5633128, "amenity": "restaurant"}
{"name": "Kai Sushi", "lat": 47.3598916, "lon": 8.5239764, "amenity": "restaurant"}
{"name": "Starbucks", "lat": 47.3732072, "lon": 8.5377639, "amenity": "cafe"}
{"name": "Antonio", "lat": 47.3929775, "lon": 8.5135856, "amenity": "restaurant"}
{"name": "Eric's Confiserie Baumann", "lat": 47.3541541, "lon": 8.5756421, "amenity": "cafe"}
{"name": "Restaurant A1 M.O.V.E.", "lat": 47.3948562, "lon": 8.4835281, "amenity": "restaurant"}
{"name": "Bäckerei Café Fellenberg", "lat": 47.3752231, "lon": 8.4918879, "amenity": "cafe"}
{"name": "Musti Grill", "lat": 47.3874759, "lon": 8.4881408, "amenity": "restaurant"}
{"name": "Sabor", "lat": 47.3972017, "lon": 8.439591, "amenity": "restaurant"}
{"name": "Lemongrass", "lat": 47.3662005, "lon": 8.5572165, "amenity": "restaurant"}
{"name": "Klosbächli", "lat": 47.3662504, "lon": 8.5567344, "amenity": "restaurant"}
{"name": "Veltliner Keller", "lat": 47.3709729, "lon": 8.5411722, "amenity": "restaurant"}
{"name": "Belpaese", "lat": 47.3703053, "lon": 8.5404813, "amenity": "cafe"}
{"name": "Kindli", "lat": 47.3723204, "lon": 8.5406506, "amenity": "restaurant"}
{"name": "Hummer- und Austernbar", "lat": 47.3763401, "lon": 8.5389154, "amenity": "restaurant"}
{"name": "Simplon", "lat": 47.3766199, "lon": 8.5391331, "amenity": "restaurant"}
{"name": "Ona Poké", "lat": 47.3761882, "lon": 8.5385654, "amenity": "restaurant"}
{"name": "roots", "lat": 47.3762774, "lon": 8.538611, "amenity": "restaurant"}
{"name": "Züri CiTea", "lat": 47.3763672, "lon": 8.5386569, "amenity": "cafe"}
{"name": "Pret A Manger", "lat": 47.3737322, "lon": 8.5391398, "amenity": "cafe"}
{"name": "August", "lat": 47.3723326, "lon": 8.5400106, "amenity": "restaurant"}
{"name": "Manzoni", "lat": 47.3764413, "lon": 8.539062, "amenity": "cafe"}
{"name": "Insider", "lat": 47.3768752, "lon": 8.5384423, "amenity": "restaurant"}
{"name": "Migros Restaurant", "lat": 47.3581623, "lon": 8.5175686, "amenity": "restaurant"}
{"name": "Marktlücke", "lat": 47.3736741, "lon": 8.5419108, "amenity": "cafe"}
{"name": "San Gennaro", "lat": 47.3959661, "lon": 8.4388901, "amenity": "restaurant"}
{"name": "Leon Bar", "lat": 47.3982715, "lon": 8.4472693, "amenity": "bar"}
{"name": "Brooklyn Burgermeister", "lat": 47.3900195, "lon": 8.5222008, "amenity": "restaurant"}
{"name": "La Piccola Trattoria", "lat": 47.3738667, "lon": 8.5137204, "amenity": "restaurant"}
{"name": "Maneez", "lat": 47.3841944, "lon": 8.5284377, "amenity": "restaurant"}
{"name": "Nassacker", "lat": 47.39499, "lon": 8.4418157, "amenity": "restaurant"}
{"name": "Didi's Frieden", "lat": 47.3792128, "lon": 8.5435914, "amenity": "restaurant"}
{"name": "Pavillon", "lat": 47.3666913, "lon": 8.539431, "amenity": "restaurant"}
{"name": "Pizzeria Piazza", "lat": 47.4194454, "lon": 8.5060346, "amenity": "restaurant"}
{"name": "Ristorante Pizzeria da Enzo", "lat": 47.4184517, "lon": 8.5058744, "amenity": "restaurant"}
{"name": "Hachi Sushi", "lat": 47.4193443, "lon": 8.5069373, "amenity": "restaurant"}
{"name": "Zähnte Kafi", "lat": 47.4197973, "lon": 8.5067754, "amenity": "cafe"}
{"name": "Fischer's Fritz", "lat": 47.3359056, "lon": 8.5421859, "amenity": "restaurant"}
{"name": "Viva", "lat": 47.3550642, "lon": 8.6019347, "amenity": "restaurant"}
{"name": "Nostos Greek Bistro", "lat": 47.4115131, "lon": 8.5258078, "amenity": "restaurant"}
{"name": "Momo's", "lat": 47.4123897, "lon": 8.5242895, "amenity": "restaurant"}
{"name": "Restaurant Spice Garden", "lat": 47.4193772, "lon": 8.5062829, "amenity": "restaurant"}
{"name": "Wang Khar", "lat": 47.4119003, "lon": 8.5456317, "amenity": "restaurant"}
{"name": "Suan Long", "lat": 47.4104359, "lon": 8.5425471, "amenity": "restaurant"}
{"name": "Rolli's Steakhouse", "lat": 47.3971822, "lon": 8.4482015, "amenity": "restaurant"}
{"name": "Burgermeister", "lat": 47.384344, "lon": 8.5311512, "amenity": "restaurant"}
{"name": "Richi's Kiosk", "lat": 47.350441, "lon": 8.5181352, "amenity": "cafe"}
{"name": "O Douro", "lat": 47.4033586, "lon": 8.4481569, "amenity": "restaurant"}
{"name": "Hofladen mit Bistro", "lat": 47.323959, "lon": 8.5057636, "amenity": "cafe"}
{"name": "Moudi", "lat": 47.3697863, "lon": 8.5343368, "amenity": "restaurant"}
{"name": "Dolder Golfclub - Restaurant", "lat": 47.3722886, "lon": 8.5741221, "amenity": "restaurant"}
{"name": "TEPE", "lat": 47.3688778, "lon": 8.5721925, "amenity": "restaurant"}
{"name": "ma maison", "lat": 47.3619738, "lon": 8.526247, "amenity": "cafe"}
{"name": "Zimkaffee", "lat": 47.3681004, "lon": 8.545484, "amenity": "cafe"}
{"name": "Mensa Rämi 59", "lat": 47.3720996, "lon": 8.5498961, "amenity": "restaurant"}
{"name": "Gerold Chuchi", "lat": 47.3850255, "lon": 8.5203173, "amenity": "restaurant"}
{"name": "Molino", "lat": 47.3887608, "lon": 8.4870226, "amenity": "restaurant"}
{"name": "Scent of Bamboo", "lat": 47.3912313, "lon": 8.4895537, "amenity": "restaurant"}
{"name": "Vesuvio", "lat": 47.4251084, "lon": 8.5484629, "amenity": "restaurant"}
{"name": "Wingman", "lat": 47.3707492, "lon": 8.5207807, "amenity": "restaurant"}
{"name": "Meierhöfli", "lat": 47.4105916, "lon": 8.447952, "amenity": "restaurant"}
{"name": "Careum Bistro", "lat": 47.3756669, "lon": 8.5536234, "amenity": "cafe"}
{"name": "The International Beer Bar", "lat": 47.3828872, "lon": 8.5287112, "amenity": "bar"}
{"name": "MeiXin", "lat": 47.3834555, "lon": 8.5303841, "amenity": "restaurant"}
{"name": "Grand Café Lochergut", "lat": 47.3757826, "lon": 8.5169598, "amenity": "restaurant"}
{"name": "Hotel Bristol", "lat": 47.379626, "lon": 8.5434495, "amenity": "restaurant"}
{"name": "Metropol", "lat": 47.3684217, "lon": 8.5411604, "amenity": "restaurant"}
{"name": "Osteria Vineria \"da Biagio\" Restaurant Limmatberg", "lat": 47.4022849, "lon": 8.4953933, "amenity": "restaurant"}
{"name": "Lilly Jo", "lat": 47.3882232, "lon": 8.5176146, "amenity": "restaurant"}
{"name": "Pinocchio", "lat": 47.3925814, "lon": 8.6167524, "amenity": "restaurant"}
{"name": "Burgermeister", "lat": 47.3684514, "lon": 8.5458392, "amenity": "restaurant"}
{"name": "Barizzi", "lat": 47.3776951, "lon": 8.5274497, "amenity": "bar"}
{"name": "Nuovo", "lat": 47.3904612, "lon": 8.5102561, "amenity": "cafe"}
{"name": "Route Twenty-Six", "lat": 47.3906264, "lon": 8.5100441, "amenity": "restaurant"}
{"name": "Ying Cuisine", "lat": 47.3705241, "lon": 8.5148792, "amenity": "restaurant"}
{"name": "Restaurant am Brühlbach", "lat": 47.4035729, "lon": 8.4986268, "amenity": "restaurant"}
{"name": "Chiang Mai", "lat": 47.3806356, "lon": 8.5336595, "amenity": "restaurant"}
{"name": "Grazie", "lat": 47.3747368, "lon": 8.5172768, "amenity": "restaurant"}
{"name": "Ayyasch Meyhane", "lat": 47.3508609, "lon": 8.6022444, "amenity": "restaurant"}
{"name": "Cafe le mur", "lat": 47.3766809, "lon": 8.5236359, "amenity": "cafe"}
{"name": "QIRIN", "lat": 47.38915, "lon": 8.4881385, "amenity": "restaurant"}
{"name": "Dal Sardo", "lat": 47.3679132, "lon": 8.5602255, "amenity": "restaurant"}
{"name": "Da Angela", "lat": 47.3869822, "lon": 8.5014413, "amenity": "restaurant"}
{"name": "Nep", "lat": 47.3769216, "lon": 8.5325272, "amenity": "restaurant"}
{"name": "Limabar", "lat": 47.3716426, "lon": 8.5357895, "amenity": "bar"}
{"name": "Tillsamman", "lat": 47.3730074, "lon": 8.5175231, "amenity": "restaurant"}
{"name": "Hiltl Sihlpost", "lat": 47.3777357, "lon": 8.5357174, "amenity": "restaurant"}
{"name": "Himalaya", "lat": 47.3830864, "lon": 8.5329144, "amenity": "restaurant"}
{"name": "Apo THEKE", "lat": 47.3734924, "lon": 8.5528078, "amenity": "cafe"}
{"name": "La Stazione", "lat": 47.3999644, "lon": 8.6229405, "amenity": "restaurant"}
{"name": "Saal Restaurant", "lat": 47.3999266, "lon": 8.6228058, "amenity": "restaurant"}
{"name": "Al Ventotto", "lat": 47.3902274, "lon": 8.538794, "amenity": "restaurant"}
{"name": "Più", "lat": 47.3769359, "lon": 8.5348729, "amenity": "restaurant"}
{"name": "Bank", "lat": 47.3764213, "lon": 8.5264559, "amenity": "restaurant"}
{"name": "Bistro ZwiBack", "lat": 47.4038645, "lon": 8.6052129, "amenity": "restaurant"}
{"name": "Raumschiff", "lat": 47.4035895, "lon": 8.6047419, "amenity": "cafe"}
{"name": "ViCafe", "lat": 47.3668448, "lon": 8.5460813, "amenity": "cafe"}
{"name": "Konshi", "lat": 47.3740885, "lon": 8.5408521, "amenity": "restaurant"}
{"name": "VBZ Kantine", "lat": 47.3844603, "lon": 8.4904341, "amenity": "restaurant"}
{"name": "Wirtschaft Alter Tobelhof", "lat": 47.3822961, "lon": 8.5881357, "amenity": "restaurant"}
{"name": "Chäsalp", "lat": 47.3820685, "lon": 8.5879257, "amenity": "restaurant"}
{"name": "Dapur Indonesia", "lat": 47.4116904, "lon": 8.5465038, "amenity": "restaurant"}
{"name": "Milia's", "lat": 47.3263926, "lon": 8.4689062, "amenity": "restaurant"}
{"name": "Ayverdi's", "lat": 47.4146478, "lon": 8.5613897, "amenity": "restaurant"}
{"name": "QQ Sushi", "lat": 47.377413, "lon": 8.5439582, "amenity": "restaurant"}
{"name": "Kebi", "lat": 47.378683, "lon": 8.5437382, "amenity": "restaurant"}
{"name": "Metropol", "lat": 47.3682118, "lon": 8.54128, "amenity": "cafe"}
{"name": "Baur's", "lat": 47.3676177, "lon": 8.5391297, "amenity": "restaurant"}
{"name": "Famo", "lat": 47.3687998, "lon": 8.5384032, "amenity": "restaurant"}
{"name": "Green Papaya", "lat": 47.3406225, "lon": 8.5307103, "amenity": "restaurant"}
{"name": "Café Wollishofen", "lat": 47.3381517, "lon": 8.5298842, "amenity": "restaurant"}
{"name": "Le Raymond", "lat": 47.3688354, "lon": 8.5375062, "amenity": "bar"}
{"name": "Albanesi", "lat": 47.3773061, "lon": 8.538363, "amenity": "cafe"}
{"name": "Migros Restaurant", "lat": 47.3754925, "lon": 8.5360876, "amenity": "restaurant"}
{"name": "Topden Bowls", "lat": 47.3740432, "lon": 8.5219682, "amenity": "restaurant"}
{"name": "Auer & Co", "lat": 47.38478, "lon": 8.5336683, "amenity": "cafe"}
{"name": "Tibits", "lat": 47.4090845, "lon": 8.5466964, "amenity": "restaurant"}
{"name": "Cima Curry", "lat": 47.3776729, "lon": 8.5295685, "amenity": "restaurant"}
{"name": "Pizzaway", "lat": 47.4008386, "lon": 8.4488409, "amenity": "restaurant"}
{"name": "Siam Square Bistro", "lat": 47.4196602, "lon": 8.5587057, "amenity": "restaurant"}
{"name": "Burgers & Shakes", "lat": 47.4223177, "lon": 8.5610706, "amenity": "restaurant"}
{"name": "Schönau", "lat": 47.378366, "lon": 8.5242566, "amenity": "restaurant"}
{"name": "Restaurant Liga", "lat": 47.4136671, "lon": 8.6088422, "amenity": "restaurant"}
{"name": "City", "lat": 47.4138613, "lon": 8.5911471, "amenity": "restaurant"}
{"name": "La Cantinella", "lat": 47.4145758, "lon": 8.5855763, "amenity": "restaurant"}
{"name": "Square / Eurest", "lat": 47.4124942, "lon": 8.5892366, "amenity": "restaurant"}
{"name": "Pasta OAse", "lat": 47.4116726, "lon": 8.5866275, "amenity": "restaurant"}
{"name": "Janni Pizza", "lat": 47.4122361, "lon": 8.5944592, "amenity": "restaurant"}
{"name": "Santa Lucia", "lat": 47.3838555, "lon": 8.5295871, "amenity": "restaurant"}
{"name": "Daizy", "lat": 47.3631314, "lon": 8.5123238, "amenity": "restaurant"}
{"name": "Orient Catering", "lat": 47.3789518, "lon": 8.5447211, "amenity": "restaurant"}
{"name": "Kormasutra Indian Restaurant", "lat": 47.3891818, "lon": 8.4865395, "amenity": "restaurant"}
{"name": "Runway 34 - Wingwalker Bar", "lat": 47.4401296, "lon": 8.5578848, "amenity": "bar"}
{"name": "Runway 34 - Smokers Lounge", "lat": 47.4400933, "lon": 8.5577771, "amenity": "bar"}
{"name": "Luigia", "lat": 47.3704056, "lon": 8.5355364, "amenity": "restaurant"}
{"name": "Seerestaurant Steinburg", "lat": 47.3204337, "lon": 8.5786242, "amenity": "restaurant"}
{"name": "Coffee&Deeds", "lat": 47.4020474, "lon": 8.5858251, "amenity": "cafe"}
{"name": "Talacker 41 | Talacker Bar", "lat": 47.3718076, "lon": 8.534846, "amenity": "bar"}
{"name": "Incontro", "lat": 47.3723067, "lon": 8.5349882, "amenity": "bar"}
{"name": "Tales Bar", "lat": 47.3727548, "lon": 8.5326505, "amenity": "bar"}
{"name": "Stripped Pizza", "lat": 47.3717437, "lon": 8.5347473, "amenity": "restaurant"}
{"name": "Cartell", "lat": 47.3726072, "lon": 8.5339208, "amenity": "restaurant"}
{"name": "V.P. Catering", "lat": 47.3730087, "lon": 8.5242929, "amenity": "restaurant"}
{"name": "Hua Hin Thai Take Away", "lat": 47.3757063, "lon": 8.5195616, "amenity": "restaurant"}
{"name": "De Koreaner 59", "lat": 47.3751254, "lon": 8.517412, "amenity": "restaurant"}
{"name": "Caffe Cioccolato", "lat": 47.3872299, "lon": 8.486059, "amenity": "restaurant"}
{"name": "Alba Pizza", "lat": 47.3704622, "lon": 8.517246, "amenity": "restaurant"}
{"name": "Meskerem Restaurant", "lat": 47.3695561, "lon": 8.5056903, "amenity": "restaurant"}
{"name": "Ozzi Bistro", "lat": 47.420397, "lon": 8.5486267, "amenity": "restaurant"}
{"name": "Creperie Sweet & Salty", "lat": 47.4257216, "lon": 8.5533738, "amenity": "cafe"}
{"name": "Fiirabigbeizli \"Zur alte Chäsi\"", "lat": 47.4231533, "lon": 8.5430816, "amenity": "restaurant"}
{"name": "Zum Gaul", "lat": 47.3859082, "lon": 8.5181661, "amenity": "restaurant"}
{"name": "blau", "lat": 47.3784937, "lon": 8.5205359, "amenity": "restaurant"}
{"name": "Wesley's Kitchen", "lat": 47.381828, "lon": 8.5326917, "amenity": "restaurant"}
{"name": "Diwan Shisha", "lat": 47.3827024, "lon": 8.5300338, "amenity": "cafe"}
{"name": "Chicago Bar", "lat": 47.3825931, "lon": 8.5299484, "amenity": "bar"}
{"name": "Steakhouse Argentina", "lat": 47.413863, "lon": 8.5520167, "amenity": "restaurant"}
{"name": "The Butcher", "lat": 47.3888334, "lon": 8.5224703, "amenity": "restaurant"}
{"name": "Bagelboys", "lat": 47.414306, "lon": 8.5593628, "amenity": "cafe"}
{"name": "Cafeteria Giardino", "lat": 47.348516, "lon": 8.6001059, "amenity": "cafe"}
{"name": "Restaurant Neumünsterpark", "lat": 47.3485256, "lon": 8.6002706, "amenity": "restaurant"}
{"name": "Olé Olé Bar", "lat": 47.3800296, "lon": 8.5280643, "amenity": "bar"}
{"name": "Miss Miu", "lat": 47.3739923, "lon": 8.5254278, "amenity": "restaurant"}
{"name": "Now We Go Vegan", "lat": 47.3789404, "lon": 8.5267275, "amenity": "restaurant"}
{"name": "San Gennaro", "lat": 47.3777733, "lon": 8.5398232, "amenity": "restaurant"}
{"name": "The Counter", "lat": 47.3772197, "lon": 8.5407256, "amenity": "restaurant"}
{"name": "Brasserie Federal", "lat": 47.3780227, "lon": 8.5407173, "amenity": "restaurant"}
{"name": "Cafe Oscar", "lat": 47.3778329, "lon": 8.5396019, "amenity": "cafe"}
{"name": "Da Capo Bar", "lat": 47.3771949, "lon": 8.5407369, "amenity": "cafe"}
{"name": "Brasserie Süd", "lat": 47.3773153, "lon": 8.5403976, "amenity": "restaurant"}
{"name": "Il Baretto", "lat": 47.378481, "lon": 8.5397177, "amenity": "cafe"}
{"name": "Sora Sushi", "lat": 47.3775929, "lon": 8.53946, "amenity": "restaurant"}
{"name": "Pret A Manger", "lat": 47.3787638, "lon": 8.5397898, "amenity": "cafe"}
{"name": "Il Baretto", "lat": 47.3770331, "lon": 8.5402146, "amenity": "cafe"}
{"name": "Tchibo", "lat": 47.3776542, "lon": 8.538495, "amenity": "cafe"}
{"name": "Hombis Salon", "lat": 47.4140272, "lon": 8.559186, "amenity": "restaurant"}
{"name": "Restaurant Riedbach", "lat": 47.4142512, "lon": 8.55977, "amenity": "restaurant"}
{"name": "Cafi Eichrain", "lat": 47.4284338, "lon": 8.5486066, "amenity": "restaurant"}
{"name": "Mooshüsli", "lat": 47.3356892, "lon": 8.464825, "amenity": "restaurant"}
{"name": "Mezze", "lat": 47.4011268, "lon": 8.4429432, "amenity": "restaurant"}
{"name": "La Trattoria Freilager", "lat": 47.3796628, "lon": 8.4894957, "amenity": "restaurant"}
{"name": "Arche Bistro", "lat": 47.3889569, "lon": 8.4945546, "amenity": "cafe"}
{"name": "Ooki Izakaya Wiedikon", "lat": 47.3721676, "lon": 8.5188077, "amenity": "restaurant"}
{"name": "Coop Restaurant", "lat": 47.4127602, "lon": 8.6186006, "amenity": "restaurant"}
{"name": "chez Smith", "lat": 47.3614005, "lon": 8.5146383, "amenity": "restaurant"}
{"name": "8304 Bar & Lounge", "lat": 47.4162823, "lon": 8.5915582, "amenity": "bar"}
{"name": "Balboa Bar & Gym", "lat": 47.3686781, "lon": 8.5356419, "amenity": "bar"}
{"name": "Restaurant Pyramids", "lat": 47.3715877, "lon": 8.5261787, "amenity": "restaurant"}
{"name": "Binz 38", "lat": 47.3622545, "lon": 8.5123747, "amenity": "restaurant"}
{"name": "Vineria Centrale", "lat": 47.3825403, "lon": 8.5300127, "amenity": "bar"}
{"name": "Pao Pao", "lat": 47.4115044, "lon": 8.54335, "amenity": "cafe"}
{"name": "Barista Corado", "lat": 47.4119512, "lon": 8.5433198, "amenity": "cafe"}
{"name": "Caffè Spettacolo", "lat": 47.4112005, "lon": 8.5433032, "amenity": "cafe"}
{"name": "Le Cèdre Maurice", "lat": 47.3723494, "lon": 8.5356968, "amenity": "restaurant"}
{"name": "Shannon Pub", "lat": 47.3994169, "lon": 8.6218756, "amenity": "bar"}
{"name": "Tennisclub Seeblick", "lat": 47.3330853, "lon": 8.5382277, "amenity": "restaurant"}
{"name": "Loch Ness", "lat": 47.4074868, "lon": 8.5063784, "amenity": "bar"}
{"name": "Restaurant Burestübli", "lat": 47.3434218, "lon": 8.4822224, "amenity": "restaurant"}
{"name": "Spitz", "lat": 47.3789138, "lon": 8.5409931, "amenity": "restaurant"}
{"name": "Restaurant Rauti", "lat": 47.3818695, "lon": 8.4886583, "amenity": "restaurant"}
{"name": "4 Tiere Bar", "lat": 47.3772544, "lon": 8.5219466, "amenity": "bar"}
{"name": "McCafé", "lat": 47.3733935, "lon": 8.5297525, "amenity": "cafe"}
{"name": "Corner 48", "lat": 47.3803612, "lon": 8.5424142, "amenity": "restaurant"}
{"name": "IGNIV Zürich by Andreas Caminada", "lat": 47.3719712, "lon": 8.5436611, "amenity": "restaurant"}
{"name": "Kokoro", "lat": 47.3807187, "lon": 8.526522, "amenity": "restaurant"}
{"name": "Samurai VII", "lat": 47.3870425, "lon": 8.4890636, "amenity": "restaurant"}
{"name": "Hoenggerhof", "lat": 47.3994522, "lon": 8.4958, "amenity": "restaurant"}
{"name": "LILY'S Factory", "lat": 47.3754023, "lon": 8.5169163, "amenity": "restaurant"}
{"name": "Pho Mai", "lat": 47.3755405, "lon": 8.528631, "amenity": "restaurant"}
{"name": "twenty nine", "lat": 47.4323139, "lon": 8.5577891, "amenity": "restaurant"}
{"name": "Gogi's take away", "lat": 47.432224, "lon": 8.5591522, "amenity": "restaurant"}
{"name": "Wagi S Restaurant, Events, Catering", "lat": 47.3991258, "lon": 8.4578843, "amenity": "restaurant"}
{"name": "MAME", "lat": 47.3849227, "lon": 8.5273599, "amenity": "cafe"}
{"name": "Aubrugg & Bar Aubrugg", "lat": 47.4142916, "lon": 8.5740857, "amenity": "restaurant"}
{"name": "Sportsbar 1904", "lat": 47.3637041, "lon": 8.5317183, "amenity": "bar"}
{"name": "Restaurant Buchhölzli", "lat": 47.3538079, "lon": 8.5690296, "amenity": "restaurant"}
{"name": "Zunfthaus zur Zimmerleuten", "lat": 47.3706365, "lon": 8.5432314, "amenity": "restaurant"}
{"name": "Restaurant Plisi", "lat": 47.39796, "lon": 8.6183843, "amenity": "restaurant"}
{"name": "Il Gattopardo", "lat": 47.3692887, "lon": 8.5444905, "amenity": "restaurant"}
{"name": "George Bar & Grill", "lat": 47.3733124, "lon": 8.5326645, "amenity": "bar"}
{"name": "Pizza Kurier Italia", "lat": 47.3602526, "lon": 8.6390175, "amenity": "restaurant"}
{"name": "Siam Square", "lat": 47.4241056, "lon": 8.5627131, "amenity": "restaurant"}
{"name": "Mico", "lat": 47.3713703, "lon": 8.5442202, "amenity": "cafe"}
{"name": "Maki Haus", "lat": 47.37828, "lon": 8.5437936, "amenity": "restaurant"}
{"name": "Migros Restaurant", "lat": 47.4104948, "lon": 8.5428981, "amenity": "restaurant"}
{"name": "Migros Restaurant", "lat": 47.4038584, "lon": 8.5732243, "amenity": "restaurant"}
{"name": "Migros Restaurant", "lat": 47.3882191, "lon": 8.4871306, "amenity": "restaurant"}
{"name": "La Bodega de Pepe", "lat": 47.3896852, "lon": 8.6166855, "amenity": "cafe"}
{"name": "Lin's", "lat": 47.4077073, "lon": 8.5479839, "amenity": "restaurant"}
{"name": "Fulin", "lat": 47.3809227, "lon": 8.5180772, "amenity": "restaurant"}
{"name": "Il Baretto", "lat": 47.3778169, "lon": 8.5398255, "amenity": "cafe"}
{"name": "Starbucks", "lat": 47.37865, "lon": 8.5401987, "amenity": "cafe"}
{"name": "Totò", "lat": 47.3580896, "lon": 8.5538491, "amenity": "restaurant"}
{"name": "Rooftop", "lat": 47.3746638, "lon": 8.5391076, "amenity": "restaurant"}
{"name": "Restaurant Kiosk", "lat": 47.358135, "lon": 8.5478933, "amenity": "restaurant"}
{"name": "Tina Bar", "lat": 47.3729812, "lon": 8.543859, "amenity": "bar"}
{"name": "Metropol", "lat": 47.3682497, "lon": 8.5412613, "amenity": "bar"}
{"name": "Devil's Place", "lat": 47.3641299, "lon": 8.5470627, "amenity": "bar"}
{"name": "Grottino 77", "lat": 47.3709294, "lon": 8.5163605, "amenity": "restaurant"}
{"name": "Grottino 83", "lat": 47.3700255, "lon": 8.4923277, "amenity": "restaurant"}
{"name": "Terrasse Bar & Lounge", "lat": 47.3677777, "lon": 8.5444838, "amenity": "bar"}
{"name": "Cantinetta Antinori", "lat": 47.3722279, "lon": 8.5388421, "amenity": "restaurant"}
{"name": "Conti", "lat": 47.3645073, "lon": 8.5474123, "amenity": "restaurant"}
{"name": "delish - la pinseria", "lat": 47.3719241, "lon": 8.54368, "amenity": "cafe"}
{"name": "IGNIV Bar Zürich", "lat": 47.3720209, "lon": 8.5436551, "amenity": "bar"}
{"name": "Le Café", "lat": 47.3778202, "lon": 8.5399275, "amenity": "cafe"}
{"name": "Time... Lounge", "lat": 47.3777455, "lon": 8.5393944, "amenity": "restaurant"}
{"name": "Starbucks", "lat": 47.3665067, "lon": 8.5485104, "amenity": "cafe"}
{"name": "Hang's Gourmet Cuisine", "lat": 47.3966207, "lon": 8.5405108, "amenity": "restaurant"}
{"name": "Cafeteria ERZ Hagenholz", "lat": 47.4149044, "lon": 8.5634936, "amenity": "cafe"}
{"name": "ERZ Personalrestaurant Hagenholz", "lat": 47.4150854, "lon": 8.5634773, "amenity": "restaurant"}
{"name": "Zekis World", "lat": 47.4105297, "lon": 8.5432986, "amenity": "restaurant"}
{"name": "Espressino Due", "lat": 47.3775381, "lon": 8.5391086, "amenity": "cafe"}
{"name": "Le Café enSoie by ViCafe", "lat": 47.3723465, "lon": 8.5404817, "amenity": "cafe"}
{"name": "ViCafe", "lat": 47.3856344, "lon": 8.5197428, "amenity": "cafe"}
{"name": "Binz & Kunz", "lat": 47.362924, "lon": 8.5131571, "amenity": "restaurant"}
{"name": "Foifi", "lat": 47.3728851, "lon": 8.5247554, "amenity": "cafe"}
{"name": "Globus Fashion-Bar", "lat": 47.4081181, "lon": 8.5957191, "amenity": "cafe"}
{"name": "Manta Bar", "lat": 47.4083855, "lon": 8.595319, "amenity": "cafe"}
{"name": "Sesh", "lat": 47.4085403, "lon": 8.5947848, "amenity": "restaurant"}
{"name": "Coop Restaurant", "lat": 47.3728894, "lon": 8.5377565, "amenity": "restaurant"}
{"name": "Coop Restaurant", "lat": 47.3674454, "lon": 8.5464412, "amenity": "restaurant"}
{"name": "CremAmore", "lat": 47.3862264, "lon": 8.4992899, "amenity": "cafe"}
{"name": "Enja", "lat": 47.3737143, "lon": 8.5373877, "amenity": "restaurant"}
{"name": "Le Café", "lat": 47.3703843, "lon": 8.5370392, "amenity": "cafe"}
{"name": "Gabbani", "lat": 47.3701012, "lon": 8.5365761, "amenity": "restaurant"}
{"name": "Salon", "lat": 47.369382, "lon": 8.5239033, "amenity": "restaurant"}
{"name": "Helvetia", "lat": 47.3732354, "lon": 8.5317044, "amenity": "restaurant"}
{"name": "Union Diner", "lat": 47.3735366, "lon": 8.5320042, "amenity": "restaurant"}
{"name": "Sprüngli Café & Restaurant", "lat": 47.3693224, "lon": 8.5392118, "amenity": "restaurant"}
{"name": "teecafé Schwarzenbach", "lat": 47.3713375, "lon": 8.5440363, "amenity": "cafe"}
{"name": "Sternen Grill", "lat": 47.3672776, "lon": 8.5455633, "amenity": "restaurant"}
{"name": "Hong-Kong Food Paradise", "lat": 47.4133289, "lon": 8.5522166, "amenity": "restaurant"}
{"name": "Negishi Sushi Bar", "lat": 47.3708593, "lon": 8.5434759, "amenity": "restaurant"}
{"name": "Le Philosophe", "lat": 47.3708011, "lon": 8.5437753, "amenity": "bar"}
{"name": "Collana Bar e Caffè", "lat": 47.3658964, "lon": 8.5466368, "amenity": "cafe"}
{"name": "SBB Restaurant WestLink", "lat": 47.3918334, "lon": 8.4908184, "amenity": "restaurant"}
{"name": "Ambiente", "lat": 47.4001268, "lon": 8.6226712, "amenity": "cafe"}
{"name": "Tibits", "lat": 47.3649526, "lon": 8.5478868, "amenity": "restaurant"}
{"name": "Bistro Horizont", "lat": 47.3602322, "lon": 8.5544097, "amenity": "cafe"}
{"name": "Bistro der Zentralbibliothek Zürich", "lat": 47.3742804, "lon": 8.5457372, "amenity": "cafe"}
{"name": "Cafeteria Kantonsschule Wiedikon", "lat": 47.3687103, "lon": 8.5163103, "amenity": "cafe"}
{"name": "Mensa Kantonsschule Rämibühl", "lat": 47.3713446, "lon": 8.5527434, "amenity": "restaurant"}
{"name": "Oval", "lat": 47.3830141, "lon": 8.5026919, "amenity": "restaurant"}
{"name": "Lobby-Bar Hotel Rütli", "lat": 47.3762011, "lon": 8.5444271, "amenity": "bar"}
{"name": "Restaurant Rigiblick", "lat": 47.3883565, "lon": 8.5532985, "amenity": "restaurant"}
{"name": "Zürichberg", "lat": 47.3823685, "lon": 8.5669037, "amenity": "restaurant"}
{"name": "Lake Side", "lat": 47.3527249, "lon": 8.5537217, "amenity": "restaurant"}
{"name": "SBB Café Bar WestLink", "lat": 47.3918827, "lon": 8.4907147, "amenity": "cafe"}
{"name": "Mensa SIS Zürich-Wollishofen", "lat": 47.3508842, "lon": 8.5328394, "amenity": "restaurant"}
{"name": "Mensa Institut Minerva", "lat": 47.3819656, "lon": 8.5455532, "amenity": "restaurant"}
{"name": "Helsana Bistro Giardino", "lat": 47.3969508, "lon": 8.5987873, "amenity": "restaurant"}
{"name": "Helsana Oase", "lat": 47.3974364, "lon": 8.5983245, "amenity": "cafe"}
{"name": "Cafeteria Kantonsschulen Enge / Freudenberg", "lat": 47.365563, "lon": 8.5274218, "amenity": "cafe"}
{"name": "Helsana Allegra", "lat": 47.3974737, "lon": 8.5983231, "amenity": "restaurant"}
{"name": "Suan Long", "lat": 47.389644, "lon": 8.4865708, "amenity": "restaurant"}
{"name": "EY Restaurant Platform", "lat": 47.3859677, "lon": 8.5161972, "amenity": "restaurant"}
{"name": "Cafeteria Kantonsschulen Stadelhofen / Hohe Promenade", "lat": 47.3681951, "lon": 8.5494849, "amenity": "cafe"}
{"name": "Friedbrunnen", "lat": 47.3748783, "lon": 8.4853031, "amenity": "restaurant"}
{"name": "Sento", "lat": 47.3735869, "lon": 8.5530663, "amenity": "restaurant"}
{"name": "Bäckerei Hausammann", "lat": 47.3765135, "lon": 8.5592592, "amenity": "cafe"}
{"name": "Schwamedinge", "lat": 47.4049275, "lon": 8.5721187, "amenity": "restaurant"}
{"name": "AYA", "lat": 47.3884868, "lon": 8.5206867, "amenity": "bar"}
{"name": "Neni", "lat": 47.3803007, "lon": 8.5287319, "amenity": "restaurant"}
{"name": "Café West", "lat": 47.3915993, "lon": 8.5065075, "amenity": "cafe"}
{"name": "IQ Bar", "lat": 47.3900813, "lon": 8.522261, "amenity": "bar"}
{"name": "La Piazzetta", "lat": 47.3709837, "lon": 8.5358917, "amenity": "restaurant"}
{"name": "Venofye", "lat": 47.3718907, "lon": 8.5435493, "amenity": "bar"}
{"name": "Edomae", "lat": 47.3706147, "lon": 8.5357379, "amenity": "restaurant"}
{"name": "d'Bar", "lat": 47.3737064, "lon": 8.5459212, "amenity": "restaurant"}
{"name": "Café Côte d’Azur", "lat": 47.3573776, "lon": 8.5236811, "amenity": "cafe"}
{"name": "Joe & The Juice", "lat": 47.3588464, "lon": 8.5231374, "amenity": "cafe"}
{"name": "Sissi Bar & Lounge", "lat": 47.3590459, "lon": 8.5230998, "amenity": "bar"}
{"name": "Der Wilde Kaiser", "lat": 47.3592867, "lon": 8.5231352, "amenity": "restaurant"}
{"name": "Public Burger", "lat": 47.3580937, "lon": 8.5234939, "amenity": "restaurant"}
{"name": "Suan Long", "lat": 47.378262, "lon": 8.5095184, "amenity": "restaurant"}
{"name": "Personalrestaurant", "lat": 47.4034853, "lon": 8.6132208, "amenity": "restaurant"}
{"name": "Cafeteria UZH Cityport", "lat": 47.4105886, "lon": 8.5396374, "amenity": "cafe"}
{"name": "Thai Style", "lat": 47.3838416, "lon": 8.4947954, "amenity": "restaurant"}
{"name": "Cafébar Enzian", "lat": 47.4140301, "lon": 8.5517506, "amenity": "cafe"}
{"name": "Kle", "lat": 47.3715304, "lon": 8.5209454, "amenity": "restaurant"}
{"name": "limáni", "lat": 47.3733832, "lon": 8.5148182, "amenity": "restaurant"}
{"name": "Gebeta", "lat": 47.3751885, "lon": 8.5173298, "amenity": "restaurant"}
{"name": "Iroquois", "lat": 47.3582918, "lon": 8.5537364, "amenity": "restaurant"}
{"name": "Metzg", "lat": 47.355851, "lon": 8.556448, "amenity": "restaurant"}
{"name": "Tüfenegg", "lat": 47.3553163, "lon": 8.5541539, "amenity": "restaurant"}
{"name": "Enoteca Riviera", "lat": 47.3549625, "lon": 8.5550456, "amenity": "restaurant"}
{"name": "Mura Omakase Restaurant", "lat": 47.3545891, "lon": 8.5561613, "amenity": "restaurant"}
{"name": "Miracle", "lat": 47.3545311, "lon": 8.5560474, "amenity": "restaurant"}
{"name": "Le Beaujolais", "lat": 47.3554751, "lon": 8.5568172, "amenity": "restaurant"}
{"name": "n/a", "lat": 47.3749773, "lon": 8.5179798, "amenity": "restaurant"}
{"name": "Mesob", "lat": 47.3708105, "lon": 8.5147617, "amenity": "restaurant"}
{"name": "Hiltl am Strand", "lat": 47.353585, "lon": 8.5345926, "amenity": "restaurant"}
{"name": "Hiltl Dachterrasse", "lat": 47.3756521, "lon": 8.5398019, "amenity": "restaurant"}
{"name": "Löwen Siam", "lat": 47.409489, "lon": 8.5423228, "amenity": "restaurant"}
{"name": "Dolce City", "lat": 47.4094495, "lon": 8.5457082, "amenity": "cafe"}
{"name": "Il Basilico", "lat": 47.3695668, "lon": 8.5058334, "amenity": "restaurant"}
{"name": "Monti", "lat": 47.3684607, "lon": 8.4963959, "amenity": "restaurant"}
{"name": "Ey-Hof", "lat": 47.3685002, "lon": 8.4951684, "amenity": "restaurant"}
{"name": "Bistro Albisrieden", "lat": 47.3755611, "lon": 8.4855612, "amenity": "cafe"}
{"name": "Casa Dão Lafões", "lat": 47.3948188, "lon": 8.4692565, "amenity": "restaurant"}
{"name": "Maori", "lat": 47.400844, "lon": 8.4623194, "amenity": "restaurant"}
{"name": "Pizzeria Capri", "lat": 47.3604176, "lon": 8.5501478, "amenity": "restaurant"}
{"name": "Cucina", "lat": 47.3957946, "lon": 8.5399353, "amenity": "restaurant"}
{"name": "Restaurant Vereinigung", "lat": 47.3632257, "lon": 8.5220138, "amenity": "restaurant"}
{"name": "Tibits Bistro Zürich", "lat": 47.3647473, "lon": 8.5475997, "amenity": "restaurant"}
{"name": "Seehof", "lat": 47.364315, "lon": 8.5477947, "amenity": "restaurant"}
{"name": "Yen's", "lat": 47.371199, "lon": 8.52865, "amenity": "restaurant"}
{"name": "Giusi's", "lat": 47.3637686, "lon": 8.5545452, "amenity": "restaurant"}
{"name": "Cafeteria GZ Buchegg", "lat": 47.3989435, "lon": 8.5348343, "amenity": "cafe"}
{"name": "Café Bar Orion", "lat": 47.3775694, "lon": 8.5161183, "amenity": "cafe"}
{"name": "Klara‘s Kitchen", "lat": 47.3827596, "lon": 8.5437443, "amenity": "cafe"}
{"name": "Siesta", "lat": 47.3811812, "lon": 8.5043977, "amenity": "cafe"}
{"name": "Four Twenty", "lat": 47.3801026, "lon": 8.5066494, "amenity": "restaurant"}
{"name": "An Chay", "lat": 47.3790326, "lon": 8.5154904, "amenity": "restaurant"}
{"name": "Bäckerei Hausammann", "lat": 47.3367947, "lon": 8.6181411, "amenity": "cafe"}
{"name": "Joe & The Juice", "lat": 47.3689901, "lon": 8.5442728, "amenity": "cafe"}
{"name": "Mame", "lat": 47.3641224, "lon": 8.5493423, "amenity": "cafe"}
{"name": "Lounge Sky Bar", "lat": 47.4335229, "lon": 8.5654814, "amenity": "restaurant"}
{"name": "Pizzeria Trattoria da Michele", "lat": 47.3620219, "lon": 8.5163974, "amenity": "restaurant"}
{"name": "Zopf & Zöpfli", "lat": 47.3863548, "lon": 8.4984909, "amenity": "cafe"}
{"name": "Coop Restaurant", "lat": 47.3861478, "lon": 8.4984415, "amenity": "restaurant"}
{"name": "Sentosa", "lat": 47.377487, "lon": 8.5125757, "amenity": "restaurant"}
{"name": "Café du Bonheur", "lat": 47.3798796, "lon": 8.5162736, "amenity": "restaurant"}
{"name": "Mo", "lat": 47.3788536, "lon": 8.5152089, "amenity": "restaurant"}
{"name": "Restaurant Buckhuser", "lat": 47.3837393, "lon": 8.4925808, "amenity": "restaurant"}
{"name": "Milieu", "lat": 47.3776185, "lon": 8.5275974, "amenity": "bar"}
{"name": "Binz Pasta e Pizza House", "lat": 47.3611277, "lon": 8.5174484, "amenity": "restaurant"}
{"name": "Napa Grill", "lat": 47.36482, "lon": 8.5254957, "amenity": "restaurant"}
{"name": "Glamour Bar", "lat": 47.3758798, "lon": 8.5294424, "amenity": "bar"}
{"name": "Stettbacherhof", "lat": 47.3953225, "lon": 8.5995562, "amenity": "restaurant"}
{"name": "Pizzeria Cuore Sportivo", "lat": 47.3955774, "lon": 8.5984968, "amenity": "restaurant"}
{"name": "Wirtschaft zur Schützenstube", "lat": 47.4097807, "lon": 8.4967983, "amenity": "restaurant"}
{"name": "Pizzeria Bella Napoli", "lat": 47.3700976, "lon": 8.5131792, "amenity": "restaurant"}
{"name": "Rent a Barista", "lat": 47.4136639, "lon": 8.5515395, "amenity": "cafe"}
{"name": "Tiny Fish", "lat": 47.4135312, "lon": 8.5515385, "amenity": "restaurant"}
{"name": "Leafs Restaurant", "lat": 47.3595759, "lon": 8.5247174, "amenity": "restaurant"}
{"name": "Caffè Spettacolo", "lat": 47.3787392, "lon": 8.5398986, "amenity": "cafe"}
{"name": "Restaurant Lengg", "lat": 47.3500502, "lon": 8.5710357, "amenity": "restaurant"}
{"name": "Raum 84", "lat": 47.3778425, "lon": 8.5267627, "amenity": "bar"}
{"name": "Da Paulo", "lat": 47.4004202, "lon": 8.4410993, "amenity": "restaurant"}
{"name": "Caffè Spettacolo", "lat": 47.3828028, "lon": 8.5149769, "amenity": "cafe"}
{"name": "Più", "lat": 47.3886962, "lon": 8.520129, "amenity": "restaurant"}
{"name": "Muggenbühl", "lat": 47.3507677, "lon": 8.5266714, "amenity": "restaurant"}
{"name": "Cafeteria UZH Plattenstrasse", "lat": 47.3740968, "lon": 8.5526502, "amenity": "cafe"}
{"name": "Landhus", "lat": 47.4216283, "lon": 8.5491603, "amenity": "restaurant"}
{"name": "Frau Burri", "lat": 47.3112727, "lon": 8.5256839, "amenity": "cafe"}
{"name": "Rising Sun", "lat": 47.3741048, "lon": 8.5441158, "amenity": "restaurant"}
{"name": "my senses", "lat": 47.3980861, "lon": 8.6197773, "amenity": "bar"}
{"name": "Suweena", "lat": 47.3968243, "lon": 8.6264268, "amenity": "restaurant"}
{"name": "Amadeus", "lat": 47.3989426, "lon": 8.4483286, "amenity": "restaurant"}
{"name": "Glättli", "lat": 47.3895914, "lon": 8.4750455, "amenity": "cafe"}
{"name": "Kafitreff GZ Affoltern", "lat": 47.4246154, "lon": 8.5110044, "amenity": "cafe"}
{"name": "Cafeteria GZ Grünau", "lat": 47.3958961, "lon": 8.4898282, "amenity": "cafe"}
{"name": "Zum Doktorhaus", "lat": 47.415834, "lon": 8.5889287, "amenity": "bar"}
{"name": "The Bagel Shop", "lat": 47.3710266, "lon": 8.5374997, "amenity": "cafe"}
{"name": "Mövenpick Wein-Bar", "lat": 47.3711382, "lon": 8.5373456, "amenity": "bar"}
{"name": "Bistro Bichhof", "lat": 47.4232585, "lon": 8.5386421, "amenity": "cafe"}
{"name": "Aquarium", "lat": 47.375236, "lon": 8.517268, "amenity": "cafe"}
{"name": "Bar Sacchi", "lat": 47.3753496, "lon": 8.5165696, "amenity": "bar"}
{"name": "Ornellaia", "lat": 47.372457, "lon": 8.5376855, "amenity": "restaurant"}
{"name": "Stars and Stripes", "lat": 47.4115465, "lon": 8.5443658, "amenity": "restaurant"}
{"name": "Il Salotto", "lat": 47.3736876, "lon": 8.5263504, "amenity": "cafe"}
{"name": "La Piazza", "lat": 47.3606107, "lon": 8.5072374, "amenity": "restaurant"}
{"name": "SBB Restaurant Reparaturcenter Altstetten", "lat": 47.3856708, "lon": 8.5070612, "amenity": "restaurant"}
{"name": "XYLO", "lat": 47.3828676, "lon": 8.5293614, "amenity": "cafe"}
{"name": "mit&ohne", "lat": 47.375895, "lon": 8.5161558, "amenity": "restaurant"}
{"name": "Tenz", "lat": 47.3761214, "lon": 8.5155216, "amenity": "restaurant"}
{"name": "Salotto", "lat": 47.3934647, "lon": 8.5113012, "amenity": "cafe"}
{"name": "Irchel Bar", "lat": 47.3979087, "lon": 8.5465036, "amenity": "bar"}
{"name": "Tiara", "lat": 47.4027266, "lon": 8.461299, "amenity": "restaurant"}
{"name": "Bar Aperto", "lat": 47.392871, "lon": 8.5303727, "amenity": "bar"}
{"name": "Kornsilo", "lat": 47.3517143, "lon": 8.560923, "amenity": "cafe"}
{"name": "Vemezza", "lat": 47.3687901, "lon": 8.533995, "amenity": "restaurant"}
{"name": "Ristorante La Filanda", "lat": 47.3390452, "lon": 8.5200657, "amenity": "cafe"}
{"name": "Caffè Spettacolo", "lat": 47.3670179, "lon": 8.5479767, "amenity": "cafe"}
{"name": "Old Crow", "lat": 47.37212, "lon": 8.5412013, "amenity": "bar"}
{"name": "Panama", "lat": 47.3849765, "lon": 8.5356587, "amenity": "bar"}
{"name": "Cinnamon Garden", "lat": 47.4192953, "lon": 8.5052369, "amenity": "restaurant"}
{"name": "Paydos", "lat": 47.395935, "lon": 8.5400865, "amenity": "cafe"}
{"name": "Clubhaus TC Im Hau", "lat": 47.3647126, "lon": 8.6019606, "amenity": "restaurant"}
{"name": "TCW Bistro", "lat": 47.3656303, "lon": 8.5892791, "amenity": "cafe"}
{"name": "Clubhaus TC Fluntern", "lat": 47.3831358, "lon": 8.5756144, "amenity": "restaurant"}
{"name": "Clubhaus TC Valsana", "lat": 47.4235012, "lon": 8.4922155, "amenity": "restaurant"}
{"name": "Clubhaus TC Escher-Wyss", "lat": 47.4097583, "lon": 8.5584053, "amenity": "restaurant"}
{"name": "TCB Restaurant", "lat": 47.3541229, "lon": 8.502489, "amenity": "restaurant"}
{"name": "Clubhaus TC Uetliberg", "lat": 47.3526531, "lon": 8.5052902, "amenity": "restaurant"}
{"name": "Billiard Golden 8", "lat": 47.409223, "lon": 8.5431021, "amenity": "cafe"}
{"name": "Hatecke", "lat": 47.3759262, "lon": 8.5365978, "amenity": "restaurant"}
{"name": "Kitchen Republic", "lat": 47.3889173, "lon": 8.5222924, "amenity": "restaurant"}
{"name": "Gaucho", "lat": 47.3798059, "lon": 8.5257791, "amenity": "restaurant"}
{"name": "Gainsbourg", "lat": 47.3628263, "lon": 8.5491218, "amenity": "bar"}
{"name": "Pizzeria Ecke", "lat": 47.4106932, "lon": 8.5695925, "amenity": "restaurant"}
{"name": "Fresh Tastes", "lat": 47.3980508, "lon": 8.6003745, "amenity": "restaurant"}
{"name": "Steiner Flughafebeck", "lat": 47.3812998, "lon": 8.5158637, "amenity": "cafe"}
{"name": "Azzurro", "lat": 47.3870802, "lon": 8.500985, "amenity": "restaurant"}
{"name": "Mensa UZH Zentrum (Obere Mensa)", "lat": 47.3739705, "lon": 8.5482357, "amenity": "restaurant"}
{"name": "Mensa UZH Zentrum Mercato (Untere Mensa)", "lat": 47.3738499, "lon": 8.5482495, "amenity": "restaurant"}
{"name": "Schweizerhof", "lat": 47.4105224, "lon": 8.4581214, "amenity": "restaurant"}
{"name": "Kraftwerk", "lat": 47.3721385, "lon": 8.5319295, "amenity": "cafe"}
{"name": "Vegan Troja", "lat": 47.3936238, "lon": 8.5287193, "amenity": "restaurant"}
{"name": "Fleming's", "lat": 47.3696334, "lon": 8.5334346, "amenity": "bar"}
{"name": "Coffee", "lat": 47.3726893, "lon": 8.5262165, "amenity": "cafe"}
{"name": "Bros Beans & Beats", "lat": 47.3727983, "lon": 8.5252812, "amenity": "cafe"}
{"name": "Bunt", "lat": 47.3919503, "lon": 8.4912592, "amenity": "restaurant"}
{"name": "Grotto Reale", "lat": 47.374705, "lon": 8.5127117, "amenity": "restaurant"}
{"name": "Negishi Sushi Bar", "lat": 47.3915889, "lon": 8.4883066, "amenity": "restaurant"}
{"name": "Peking Garden", "lat": 47.3933799, "lon": 8.5116542, "amenity": "restaurant"}
{"name": "Züri MoMo Tibetan Food", "lat": 47.3888471, "lon": 8.4950699, "amenity": "restaurant"}
{"name": "Helvetia Pool Bar", "lat": 47.3730775, "lon": 8.5316368, "amenity": "bar"}
{"name": "Lady Hamiltons", "lat": 47.3757443, "lon": 8.5399824, "amenity": "bar"}
{"name": "Vee's Bistro", "lat": 47.3650602, "lon": 8.5328569, "amenity": "restaurant"}
{"name": "Uto", "lat": 47.3716047, "lon": 8.5211695, "amenity": "restaurant"}
{"name": "Hoikoi", "lat": 47.3752026, "lon": 8.5169277, "amenity": "restaurant"}
{"name": "169 West", "lat": 47.3739092, "lon": 8.518025, "amenity": "cafe"}
{"name": "Ona Poké", "lat": 47.3678271, "lon": 8.5360057, "amenity": "restaurant"}
{"name": "Ayverdi's", "lat": 47.3798658, "lon": 8.5061904, "amenity": "restaurant"}
{"name": "Cafeteria", "lat": 47.3560249, "lon": 8.6009276, "amenity": "cafe"}
{"name": "John Baker", "lat": 47.368301, "lon": 8.5395473, "amenity": "cafe"}
{"name": "Jules Verne Panoramabar", "lat": 47.3742607, "lon": 8.539349, "amenity": "bar"}
{"name": "La Soupière", "lat": 47.3769342, "lon": 8.5393403, "amenity": "restaurant"}
{"name": "Café Gourmet", "lat": 47.3769757, "lon": 8.5393361, "amenity": "cafe"}
{"name": "Restaurant Soodring", "lat": 47.3167159, "lon": 8.5209617, "amenity": "restaurant"}
{"name": "GZ Hirzenbach Cafeteria", "lat": 47.4025745, "lon": 8.5917839, "amenity": "cafe"}
{"name": "GZ Riesbach Cafeteria", "lat": 47.359245, "lon": 8.5540563, "amenity": "cafe"}
{"name": "GZ Seebach Café am Bach", "lat": 47.4249704, "lon": 8.5433151, "amenity": "cafe"}
{"name": "GZ Wollishofen Bistro am See", "lat": 47.3450557, "lon": 8.5358337, "amenity": "cafe"}
{"name": "GZ Oerlikon Café", "lat": 47.4077564, "lon": 8.545753, "amenity": "cafe"}
{"name": "EPI Park Restaurant", "lat": 47.3487199, "lon": 8.5682582, "amenity": "restaurant"}
{"name": "Kai Sushi", "lat": 47.3629249, "lon": 8.5497941, "amenity": "restaurant"}
{"name": "Joe & The Juice", "lat": 47.3628232, "lon": 8.5498902, "amenity": "cafe"}
{"name": "bubblish", "lat": 47.3630144, "lon": 8.5497095, "amenity": "cafe"}
{"name": "Restaurant Viadukt", "lat": 47.386196, "lon": 8.5221215, "amenity": "restaurant"}
{"name": "Ribelli", "lat": 47.3912171, "lon": 8.5097545, "amenity": "restaurant"}
{"name": "Giardino Verde", "lat": 47.3660722, "lon": 8.4513433, "amenity": "restaurant"}
{"name": "n/a", "lat": 47.3175401, "lon": 8.5538197, "amenity": "restaurant"}
{"name": "Sonnengalerie", "lat": 47.3191884, "lon": 8.578779, "amenity": "restaurant"}
{"name": "Sonne Gaststuben", "lat": 47.3191284, "lon": 8.578846, "amenity": "restaurant"}
{"name": "Turmbar", "lat": 47.319026, "lon": 8.5786573, "amenity": "bar"}
{"name": "Mensa UZH Binzmühle", "lat": 47.4143458, "lon": 8.549391, "amenity": "restaurant"}
{"name": "Cafeteria UZH Zentrum für Zahnmedizin (ZZM)", "lat": 47.3744739, "lon": 8.5530008, "amenity": "cafe"}
{"name": "Barfussbar", "lat": 47.3684502, "lon": 8.5420327, "amenity": "bar"}
{"name": "Jungholz", "lat": 47.4154095, "lon": 8.5433938, "amenity": "restaurant"}
{"name": "Napi's", "lat": 47.3877848, "lon": 8.4969898, "amenity": "restaurant"}
{"name": "La Bottega di Mario", "lat": 47.3712595, "lon": 8.5376179, "amenity": "restaurant"}
{"name": "Boréal Coffee", "lat": 47.3720011, "lon": 8.534839, "amenity": "cafe"}
{"name": "Lunchmarket", "lat": 47.3850743, "lon": 8.4924041, "amenity": "restaurant"}
{"name": "Falken", "lat": 47.3175017, "lon": 8.582023, "amenity": "restaurant"}
{"name": "Chez Crettol / Cave Valaisanne", "lat": 47.3178727, "lon": 8.5826852, "amenity": "restaurant"}
{"name": "BonnieFit", "lat": 47.3178179, "lon": 8.5821148, "amenity": "cafe"}
{"name": "Ichiban 178", "lat": 47.3190625, "lon": 8.582358, "amenity": "restaurant"}
{"name": "Jacky's im Glattpark", "lat": 47.4207219, "lon": 8.559637, "amenity": "restaurant"}
{"name": "Pizzeria Bahnhöfli", "lat": 47.3188004, "lon": 8.5802719, "amenity": "restaurant"}
{"name": "Roi-Et", "lat": 47.3805838, "lon": 8.5261448, "amenity": "restaurant"}
{"name": "Restaurant Bullinger", "lat": 47.3808192, "lon": 8.5106323, "amenity": "restaurant"}
{"name": "Don Weber", "lat": 47.3878238, "lon": 8.5244351, "amenity": "bar"}
{"name": "Asiaway", "lat": 47.4079984, "lon": 8.5471802, "amenity": "restaurant"}
{"name": "Japan saku", "lat": 47.3643245, "lon": 8.5478329, "amenity": "restaurant"}
{"name": "Hammam Salon", "lat": 47.3569676, "lon": 8.5586356, "amenity": "restaurant"}
{"name": "La Rôtisserie Storchen", "lat": 47.3711803, "lon": 8.5418034, "amenity": "restaurant"}
{"name": "Stamped", "lat": 47.3697712, "lon": 8.5341158, "amenity": "restaurant"}
{"name": "Émile", "lat": 47.367541, "lon": 8.5398194, "amenity": "restaurant"}
{"name": "parkhuus", "lat": 47.3666944, "lon": 8.5361051, "amenity": "restaurant"}
{"name": "Razzia Bar", "lat": 47.3609151, "lon": 8.5515444, "amenity": "bar"}
{"name": "Mythos", "lat": 47.3737799, "lon": 8.5285146, "amenity": "restaurant"}
{"name": "Zunfthaus zur Haue", "lat": 47.3713843, "lon": 8.5431142, "amenity": "restaurant"}
{"name": "The Yard", "lat": 47.3759287, "lon": 8.5276269, "amenity": "restaurant"}
{"name": "Joe & The Juice", "lat": 47.3727284, "lon": 8.5429449, "amenity": "cafe"}
{"name": "St. Jakob Beck", "lat": 47.3873566, "lon": 8.5244538, "amenity": "cafe"}
{"name": "Tsukada Gaijin Izakaya", "lat": 47.3778441, "lon": 8.5295709, "amenity": "restaurant"}
{"name": "Ristorante Zafferano", "lat": 47.371481, "lon": 8.5430801, "amenity": "restaurant"}
{"name": "Rink Corner", "lat": 47.4155152, "lon": 8.6096557, "amenity": "restaurant"}
{"name": "ViCafe", "lat": 47.3701616, "lon": 8.5415915, "amenity": "cafe"}
{"name": "Degenried", "lat": 47.3674016, "lon": 8.5792193, "amenity": "restaurant"}
{"name": "Restaurant Bürgli", "lat": 47.4228696, "lon": 8.5417788, "amenity": "restaurant"}
{"name": "Vrenelisgärtli", "lat": 47.3677807, "lon": 8.505399, "amenity": "restaurant"}
{"name": "Fat Tony", "lat": 47.380048, "lon": 8.5277818, "amenity": "bar"}
{"name": "Pizza Al Taglio Colosseum", "lat": 47.4119657, "lon": 8.5876082, "amenity": "restaurant"}
{"name": "Mademoiselle Nobs", "lat": 47.3713496, "lon": 8.5297514, "amenity": "cafe"}
{"name": "Shilla Chicken", "lat": 47.3734542, "lon": 8.5358956, "amenity": "restaurant"}
{"name": "Europa", "lat": 47.3666017, "lon": 8.5575853, "amenity": "restaurant"}
{"name": "Wunderbrunnen", "lat": 47.4315205, "lon": 8.5765533, "amenity": "restaurant"}
{"name": "NietturmBar", "lat": 47.3887737, "lon": 8.5189288, "amenity": "bar"}
{"name": "Restaurant Swiss Chuchi", "lat": 47.3731521, "lon": 8.5436419, "amenity": "restaurant"}
{"name": "Be Heroes", "lat": 47.3988439, "lon": 8.4455818, "amenity": "restaurant"}
{"name": "Restaurant Bar Anna", "lat": 47.3992912, "lon": 8.5401245, "amenity": "restaurant"}
{"name": "Joy's Cafe", "lat": 47.3686632, "lon": 8.4631867, "amenity": "cafe"}
{"name": "flavour coffee & plants", "lat": 47.3824213, "lon": 8.5297861, "amenity": "cafe"}
{"name": "Brooklyn Burgermeister", "lat": 47.3762445, "lon": 8.5339863, "amenity": "restaurant"}
{"name": "Legend Döner", "lat": 47.4178276, "lon": 8.5460313, "amenity": "restaurant"}
{"name": "Granò", "lat": 47.3771838, "lon": 8.5132636, "amenity": "restaurant"}
{"name": "Delicias latinas Zurich", "lat": 47.376186, "lon": 8.5153905, "amenity": "restaurant"}
{"name": "Le Relais de l'Entrecôte", "lat": 47.3705792, "lon": 8.5406702, "amenity": "restaurant"}
{"name": "Loi", "lat": 47.3892343, "lon": 8.5250511, "amenity": "restaurant"}
{"name": "Burgermeister", "lat": 47.3881831, "lon": 8.4865271, "amenity": "restaurant"}
{"name": "Kafi GZ Heuried", "lat": 47.3672293, "lon": 8.5036536, "amenity": "cafe"}
{"name": "GZ Bachwiesen Kafi", "lat": 47.3800795, "lon": 8.4862915, "amenity": "cafe"}
{"name": "Kafi Tasse", "lat": 47.360005, "lon": 8.5942694, "amenity": "cafe"}
{"name": "Piratino", "lat": 47.3886514, "lon": 8.4838939, "amenity": "restaurant"}
{"name": "Olive", "lat": 47.3389108, "lon": 8.5193151, "amenity": "cafe"}
{"name": "Indigo", "lat": 47.3269647, "lon": 8.5744946, "amenity": "restaurant"}
{"name": "Nooba", "lat": 47.3786072, "lon": 8.5344739, "amenity": "restaurant"}
{"name": "Accogliente", "lat": 47.4044575, "lon": 8.6030482, "amenity": "restaurant"}
{"name": "Simple Steakhouse & Tapas Bar", "lat": 47.4047808, "lon": 8.6051436, "amenity": "restaurant"}
{"name": "Movie Sushi", "lat": 47.4050285, "lon": 8.6041946, "amenity": "restaurant"}
{"name": "Restaurant Glatthof", "lat": 47.4349197, "lon": 8.567737, "amenity": "restaurant"}
{"name": "Al Mouchtar", "lat": 47.3826361, "lon": 8.5001788, "amenity": "restaurant"}
{"name": "Afghan Anar", "lat": 47.3840078, "lon": 8.5318712, "amenity": "restaurant"}
{"name": "GZ Bistro", "lat": 47.3261117, "lon": 8.5141004, "amenity": "cafe"}
{"name": "Café Zum Walter", "lat": 47.3724963, "lon": 8.5269122, "amenity": "cafe"}
{"name": "Miss Miu", "lat": 47.3791805, "lon": 8.5321697, "amenity": "restaurant"}
{"name": "Amboss Rampe", "lat": 47.3812815, "lon": 8.531395, "amenity": "restaurant"}
{"name": "Stadtkäserei", "lat": 47.3802884, "lon": 8.5344583, "amenity": "restaurant"}
{"name": "Tayyeb", "lat": 47.4037499, "lon": 8.5683398, "amenity": "restaurant"}
{"name": "Manuel's", "lat": 47.3735891, "lon": 8.535181, "amenity": "bar"}
{"name": "Lions Bar & Lounge", "lat": 47.4140549, "lon": 8.5931832, "amenity": "restaurant"}
{"name": "Endi", "lat": 47.3774336, "lon": 8.5127223, "amenity": "restaurant"}
{"name": "Williams ButchersTable", "lat": 47.3682436, "lon": 8.5450622, "amenity": "restaurant"}
{"name": "Thali House", "lat": 47.3831028, "lon": 8.5301347, "amenity": "restaurant"}
{"name": "Kafi Augustin", "lat": 47.3723412, "lon": 8.5390176, "amenity": "cafe"}
{"name": "Honold", "lat": 47.3587116, "lon": 8.5856347, "amenity": "cafe"}
{"name": "Zum Frischen Max", "lat": 47.4122862, "lon": 8.542828, "amenity": "bar"}
{"name": "Heisswein", "lat": 47.3810005, "lon": 8.5353465, "amenity": "restaurant"}
{"name": "Hidmona", "lat": 47.3811384, "lon": 8.5347861, "amenity": "bar"}
{"name": "Zytlos", "lat": 47.3640853, "lon": 8.5300596, "amenity": "cafe"}
{"name": "Campo", "lat": 47.3762866, "lon": 8.5270834, "amenity": "bar"}
{"name": "Radix Espresso Bar", "lat": 47.3773015, "lon": 8.5340138, "amenity": "cafe"}
{"name": "Schigu Kafi", "lat": 47.3868032, "lon": 8.5363403, "amenity": "cafe"}
{"name": "Schmück ToGo / Black&Blaze Coffee", "lat": 47.3765151, "lon": 8.5140257, "amenity": "cafe"}
{"name": "Il Baretto", "lat": 47.3805056, "lon": 8.5341527, "amenity": "cafe"}
{"name": "Zeig Bar", "lat": 47.3671983, "lon": 8.5229582, "amenity": "bar"}
{"name": "MyVi's", "lat": 47.3746758, "lon": 8.5435796, "amenity": "restaurant"}
{"name": "Höngger Oriental Restarant", "lat": 47.4020655, "lon": 8.4973963, "amenity": "restaurant"}
{"name": "Dozentenfoyer", "lat": 47.3763367, "lon": 8.5475026, "amenity": "restaurant"}
{"name": "Anoah", "lat": 47.3848545, "lon": 8.5485426, "amenity": "restaurant"}
{"name": "roots", "lat": 47.368752, "lon": 8.535695, "amenity": "restaurant"}
{"name": "Börni's Baizli", "lat": 47.4092599, "lon": 8.5473466, "amenity": "restaurant"}
{"name": "Natural Bites", "lat": 47.3803426, "lon": 8.5478344, "amenity": "cafe"}
{"name": "Loogarten", "lat": 47.388417, "lon": 8.4726311, "amenity": "cafe"}
{"name": "casacosi", "lat": 47.4186188, "lon": 8.5612806, "amenity": "restaurant"}
{"name": "China Fast & Good", "lat": 47.433883, "lon": 8.5663659, "amenity": "restaurant"}
{"name": "NA081", "lat": 47.3818826, "lon": 8.5334773, "amenity": "restaurant"}
{"name": "Gaijin Izakaya", "lat": 47.3729171, "lon": 8.5277003, "amenity": "restaurant"}
{"name": "Tapas & Friends", "lat": 47.3737738, "lon": 8.5138059, "amenity": "restaurant"}
{"name": "Picanha Brasil", "lat": 47.4021293, "lon": 8.6267581, "amenity": "restaurant"}
{"name": "Khao Gaeng", "lat": 47.4022796, "lon": 8.6269537, "amenity": "restaurant"}
{"name": "Westhive Kitchen", "lat": 47.3933418, "lon": 8.5121558, "amenity": "restaurant"}
{"name": "lo spaccio", "lat": 47.3681744, "lon": 8.5360515, "amenity": "cafe"}
{"name": "Cinchona Bar", "lat": 47.3805067, "lon": 8.5286126, "amenity": "bar"}
{"name": "Widder Bar & Cuisine", "lat": 47.3722307, "lon": 8.5399168, "amenity": "bar"}
{"name": "SRF Live Restaurant & Bar", "lat": 47.4159991, "lon": 8.5605055, "amenity": "restaurant"}
{"name": "Starbucks", "lat": 47.3876483, "lon": 8.5174879, "amenity": "cafe"}
{"name": "Ioannis", "lat": 47.3767548, "lon": 8.4882098, "amenity": "restaurant"}
{"name": "Andulino", "lat": 47.4098918, "lon": 8.594781, "amenity": "restaurant"}
{"name": "Tower Bar", "lat": 47.409528, "lon": 8.5949543, "amenity": "cafe"}
{"name": "RPOS Coffehouse", "lat": 47.3678817, "lon": 8.534686, "amenity": "cafe"}
{"name": "Enzian Cafébar", "lat": 47.4240581, "lon": 8.5583033, "amenity": "cafe"}
{"name": "Miró Manufactura de café", "lat": 47.3786, "lon": 8.52572, "amenity": "cafe"}
{"name": "Caffè Spettacolo", "lat": 47.3666846, "lon": 8.5487587, "amenity": "cafe"}
{"name": "Lola's Restaurant", "lat": 47.368721, "lon": 8.5243812, "amenity": "restaurant"}
{"name": "Kai Sushi", "lat": 47.388899, "lon": 8.5203297, "amenity": "restaurant"}
{"name": "Wild Bowls", "lat": 47.3678059, "lon": 8.5343157, "amenity": "restaurant"}
{"name": "Caffè Spettacolo", "lat": 47.4151887, "lon": 8.6208451, "amenity": "cafe"}
{"name": "Clouds", "lat": 47.3860799, "lon": 8.5171898, "amenity": "restaurant"}
{"name": "Schmiede", "lat": 47.3691184, "lon": 8.5209436, "amenity": "cafe"}
{"name": "Rico's", "lat": 47.3155127, "lon": 8.5799829, "amenity": "restaurant"}
{"name": "Ristorante Leone", "lat": 47.363465, "lon": 8.45949, "amenity": "restaurant"}
{"name": "Bistro Spitz", "lat": 47.3789633, "lon": 8.5409353, "amenity": "cafe"}
{"name": "El Marrakesh", "lat": 47.3405645, "lon": 8.5299409, "amenity": "restaurant"}
{"name": "Haute", "lat": 47.3704443, "lon": 8.5352381, "amenity": "restaurant"}
{"name": "Jalla Caffè", "lat": 47.3710862, "lon": 8.5431087, "amenity": "cafe"}
{"name": "Na081", "lat": 47.4304674, "lon": 8.5607489, "amenity": "restaurant"}
{"name": "Karun", "lat": 47.3981483, "lon": 8.4591813, "amenity": "restaurant"}
{"name": "Pulpo", "lat": 47.3277433, "lon": 8.6058886, "amenity": "restaurant"}
{"name": "Mori Ramen", "lat": 47.3703532, "lon": 8.549533, "amenity": "restaurant"}
{"name": "Associaçâo Portuguesa", "lat": 47.4069217, "lon": 8.5363863, "amenity": "restaurant"}
{"name": "Miró", "lat": 47.3773943, "lon": 8.5402226, "amenity": "cafe"}
{"name": "Kulturmarkt", "lat": 47.3717102, "lon": 8.5152848, "amenity": "restaurant"}
{"name": "Escherwyss Shisha Lounge", "lat": 47.3873982, "lon": 8.5196228, "amenity": "bar"}
{"name": "Wändli", "lat": 47.3948315, "lon": 8.614699, "amenity": "restaurant"}
{"name": "grepery", "lat": 47.3991366, "lon": 8.5999925, "amenity": "restaurant"}
{"name": "Stadtoase VGZ", "lat": 47.3774294, "lon": 8.5695815, "amenity": "cafe"}
{"name": "Chiffon", "lat": 47.3725629, "lon": 8.5477206, "amenity": "restaurant"}
{"name": "La Muña", "lat": 47.3628911, "lon": 8.5472553, "amenity": "restaurant"}
{"name": "Chopstick", "lat": 47.3760514, "lon": 8.5438763, "amenity": "restaurant"}
{"name": "Hongxi Glattpark", "lat": 47.424501, "lon": 8.5607761, "amenity": "restaurant"}
{"name": "Tasty Donuts and Coffee,Giovannas Bistro", "lat": 47.4205851, "lon": 8.559029, "amenity": "cafe"}
{"name": "Italia 2000", "lat": 47.3320878, "lon": 8.6234665, "amenity": "restaurant"}
{"name": "Cafeteria Buchlern", "lat": 47.3806743, "lon": 8.4775172, "amenity": "cafe"}
{"name": "Häxehüüsli", "lat": 47.3757667, "lon": 8.4769888, "amenity": "restaurant"}
{"name": "Theater PurPur", "lat": 47.362308, "lon": 8.5307216, "amenity": "cafe"}
{"name": "n/a", "lat": 47.3321032, "lon": 8.6025125, "amenity": "cafe"}
{"name": "Thai Style", "lat": 47.3904223, "lon": 8.5144729, "amenity": "restaurant"}
{"name": "Emilio", "lat": 47.3729175, "lon": 8.5272115, "amenity": "restaurant"}
{"name": "Keyif", "lat": 47.397208, "lon": 8.4474575, "amenity": "bar"}
{"name": "Sixty Seven", "lat": 47.3972056, "lon": 8.4473566, "amenity": "restaurant"}
{"name": "Brauerei Oerlikon", "lat": 47.4188124, "lon": 8.5588054, "amenity": "bar"}
{"name": "ViCAFE", "lat": 47.3787138, "lon": 8.5339385, "amenity": "cafe"}
{"name": "Osso", "lat": 47.3816304, "lon": 8.529384, "amenity": "restaurant"}
{"name": "Stella Village", "lat": 47.3714534, "lon": 8.6369838, "amenity": "restaurant"}
{"name": "Omnia Coffee", "lat": 47.3765341, "lon": 8.5250702, "amenity": "cafe"}
{"name": "Gleis", "lat": 47.381465, "lon": 8.5296408, "amenity": "bar"}
{"name": "La Santa Sete", "lat": 47.381234, "lon": 8.5309594, "amenity": "restaurant"}
{"name": "La Qualità", "lat": 47.4007001, "lon": 8.4478415, "amenity": "restaurant"}
{"name": "Ojo de Agua", "lat": 47.3739113, "lon": 8.5394258, "amenity": "restaurant"}
{"name": "Fischerstube Zürihorn", "lat": 47.3530226, "lon": 8.5505084, "amenity": "restaurant"}
{"name": "Pizza Fulmine", "lat": 47.3129523, "lon": 8.5297492, "amenity": "restaurant"}
{"name": "Café Yucca", "lat": 47.374934, "lon": 8.5451911, "amenity": "cafe"}
{"name": "Lux", "lat": 47.365622, "lon": 8.5383138, "amenity": "restaurant"}
{"name": "Sign", "lat": 47.4149387, "lon": 8.589216, "amenity": "restaurant"}
{"name": "Züri CiTea", "lat": 47.3746668, "lon": 8.5180143, "amenity": "bar"}
{"name": "Casco Viejo", "lat": 47.3732378, "lon": 8.5434215, "amenity": "restaurant"}
{"name": "Sushi Shin", "lat": 47.370499, "lon": 8.5413961, "amenity": "restaurant"}
{"name": "Betty‘s Coffee House", "lat": 47.4193213, "lon": 8.5619581, "amenity": "cafe"}
{"name": "Datto", "lat": 47.3585135, "lon": 8.5232322, "amenity": "restaurant"}
{"name": "Café am Puls", "lat": 47.3447927, "lon": 8.5996103, "amenity": "cafe"}
{"name": "Ernesto Ristorante Pizzeria Napoletana", "lat": 47.3448154, "lon": 8.5744582, "amenity": "restaurant"}
{"name": "Bar am Wasser", "lat": 47.3675716, "lon": 8.5416358, "amenity": "bar"}
{"name": "Hotz", "lat": 47.3973933, "lon": 8.5974657, "amenity": "cafe"}
{"name": "Mamas Grill", "lat": 47.3286218, "lon": 8.6054999, "amenity": "restaurant"}
{"name": "Fischergarten", "lat": 47.3529697, "lon": 8.5511478, "amenity": "restaurant"}
{"name": "Bernhard Bar Cafe", "lat": 47.3650806, "lon": 8.5461982, "amenity": "cafe"}
{"name": "Lieblings Café und Panetteria", "lat": 47.3629449, "lon": 8.4591834, "amenity": "cafe"}
{"name": "Kunsthaus Bar", "lat": 47.3707857, "lon": 8.549135, "amenity": "bar"}
{"name": "1Komma7", "lat": 47.3663842, "lon": 8.5383568, "amenity": "restaurant"}
{"name": "Rue de Paris", "lat": 47.4304496, "lon": 8.5596625, "amenity": "restaurant"}
{"name": "Restaurant Stadiönli", "lat": 47.4120998, "lon": 8.5550208, "amenity": "restaurant"}
{"name": "Mäx Club", "lat": 47.3867082, "lon": 8.5171685, "amenity": "bar"}
{"name": "Le Monde", "lat": 47.3975255, "lon": 8.5969501, "amenity": "restaurant"}
{"name": "roots", "lat": 47.3873149, "lon": 8.5171254, "amenity": "restaurant"}
{"name": "La Piazza", "lat": 47.4389361, "lon": 8.5630787, "amenity": "restaurant"}
{"name": "Blaue Ente", "lat": 47.3517875, "lon": 8.5611622, "amenity": "bar"}
{"name": "Blaue Ente", "lat": 47.3519503, "lon": 8.5611316, "amenity": "restaurant"}
{"name": "McCafé", "lat": 47.3829101, "lon": 8.5299568, "amenity": "cafe"}
{"name": "Kaisin", "lat": 47.3604079, "lon": 8.5339937, "amenity": "restaurant"}
{"name": "Saal Parterre", "lat": 47.399938, "lon": 8.6228303, "amenity": "restaurant"}
{"name": "Sanny Bar & Lounge", "lat": 47.3792182, "lon": 8.5275828, "amenity": "bar"}
{"name": "Maria Bar", "lat": 47.3804424, "lon": 8.52537, "amenity": "bar"}
{"name": "Nüni", "lat": 47.3878932, "lon": 8.499702, "amenity": "restaurant"}
{"name": "Mohini", "lat": 47.3781881, "lon": 8.5441334, "amenity": "restaurant"}
{"name": "n/a", "lat": 47.3732166, "lon": 8.5442343, "amenity": "cafe"}
{"name": "Octavo", "lat": 47.4132592, "lon": 8.5366815, "amenity": "restaurant"}
{"name": "Venus", "lat": 47.4089416, "lon": 8.5453917, "amenity": "cafe"}
{"name": "Quai Café", "lat": 47.3617428, "lon": 8.5347847, "amenity": "cafe"}
{"name": "Fischerstube", "lat": 47.3529891, "lon": 8.5510576, "amenity": "restaurant"}
{"name": "La Casa d’Oc", "lat": 47.3452929, "lon": 8.5337326, "amenity": "restaurant"}
{"name": "Pizzeria Felice", "lat": 47.3730227, "lon": 8.518203, "amenity": "restaurant"}
{"name": "Rémy", "lat": 47.3734505, "lon": 8.5196917, "amenity": "restaurant"}
{"name": "Wunderbar", "lat": 47.3778051, "lon": 8.5267439, "amenity": "bar"}
{"name": "Pizza Binz", "lat": 47.3617013, "lon": 8.5163091, "amenity": "restaurant"}
{"name": "barfüsser", "lat": 47.3735325, "lon": 8.5440118, "amenity": "restaurant"}
{"name": "Monocle Café", "lat": 47.3596826, "lon": 8.5507962, "amenity": "cafe"}
{"name": "Vito", "lat": 47.3783449, "lon": 8.5357764, "amenity": "restaurant"}
{"name": "Theater am Hechtplatz", "lat": 47.3682828, "lon": 8.5446312, "amenity": "cafe"}
{"name": "St. Jakob", "lat": 47.3700566, "lon": 8.5402768, "amenity": "cafe"}
{"name": "La Lup", "lat": 47.3695695, "lon": 8.5333627, "amenity": "bar"}
{"name": "Noon", "lat": 47.3686967, "lon": 8.5454206, "amenity": "restaurant"}
{"name": "Riverside", "lat": 47.3982608, "lon": 8.492478, "amenity": "restaurant"}
{"name": "La Lup", "lat": 47.3625417, "lon": 8.5221221, "amenity": "restaurant"}
{"name": "Himalaya Burger & Co.", "lat": 47.3921674, "lon": 8.5127304, "amenity": "restaurant"}
{"name": "Collective Bakery", "lat": 47.3923204, "lon": 8.5109903, "amenity": "cafe"}
{"name": "Sonne am See", "lat": 47.3190697, "lon": 8.5785293, "amenity": "restaurant"}
{"name": "The Penthouse Zurich", "lat": 47.3631452, "lon": 8.4956889, "amenity": "restaurant"}
{"name": "Habesha", "lat": 47.3770956, "lon": 8.5232489, "amenity": "restaurant"}
{"name": "Carol", "lat": 47.3778553, "lon": 8.5284761, "amenity": "bar"}
{"name": "Rasputin", "lat": 47.3768356, "lon": 8.5274675, "amenity": "bar"}
{"name": "Shahba Rose", "lat": 47.4178923, "lon": 8.546588, "amenity": "restaurant"}
{"name": "Bistro uf em Chilehügel", "lat": 47.3868818, "lon": 8.484668, "amenity": "cafe"}
{"name": "Micas Garten", "lat": 47.3935167, "lon": 8.475864, "amenity": "restaurant"}
{"name": "Badi-Bistro", "lat": 47.4086344, "lon": 8.5714286, "amenity": "cafe"}
{"name": "Rashim's Kitchen", "lat": 47.3872533, "lon": 8.4876631, "amenity": "restaurant"}
{"name": "ViCafe", "lat": 47.3816092, "lon": 8.5298325, "amenity": "cafe"}
{"name": "Wanwan", "lat": 47.4067164, "lon": 8.5677179, "amenity": "restaurant"}
{"name": "La Jolie - Das Beauty Café", "lat": 47.4161137, "lon": 8.5448637, "amenity": "cafe"}
{"name": "Sommerbeiz Schlieren", "lat": 47.3976504, "lon": 8.4469971, "amenity": "restaurant"}
{"name": "Farfalla", "lat": 47.3800966, "lon": 8.4844491, "amenity": "restaurant"}
{"name": "3 Spitz", "lat": 47.4080788, "lon": 8.5656791, "amenity": "restaurant"}
{"name": "Jeff’s Smashing Bistro", "lat": 47.409727, "lon": 8.5583146, "amenity": "restaurant"}
{"name": "Cucina", "lat": 47.3857931, "lon": 8.4971961, "amenity": "restaurant"}
{"name": "Pret A Manger", "lat": 47.376313, "lon": 8.5373957, "amenity": "cafe"}
{"name": "Nima", "lat": 47.4044486, "lon": 8.5734516, "amenity": "restaurant"}
{"name": "Yakamoz", "lat": 47.4051819, "lon": 8.5705089, "amenity": "restaurant"}
{"name": "Zett", "lat": 47.3945841, "lon": 8.4798999, "amenity": "restaurant"}
{"name": "1930", "lat": 47.3947576, "lon": 8.4793133, "amenity": "bar"}
{"name": "k2", "lat": 47.3865085, "lon": 8.5164968, "amenity": "bar"}
{"name": "Liga", "lat": 47.4141053, "lon": 8.6083419, "amenity": "restaurant"}
{"name": "Kesslers Club Social", "lat": 47.3895438, "lon": 8.4869308, "amenity": "cafe"}
{"name": "Winit's TakeAway", "lat": 47.3439691, "lon": 8.5314061, "amenity": "restaurant"}
{"name": "Thai Spa NamPang", "lat": 47.3370861, "lon": 8.5298468, "amenity": "bar"}
{"name": "Luigia", "lat": 47.4221331, "lon": 8.5584644, "amenity": "restaurant"}
{"name": "Infinito", "lat": 47.4007386, "lon": 8.4420316, "amenity": "restaurant"}
{"name": "Jack's Cevap House", "lat": 47.3943706, "lon": 8.4867095, "amenity": "restaurant"}
{"name": "Fattoush", "lat": 47.3715683, "lon": 8.5255105, "amenity": "restaurant"}
{"name": "The Studio", "lat": 47.3638328, "lon": 8.5478715, "amenity": "cafe"}
{"name": "Soi Thai", "lat": 47.3684091, "lon": 8.5478024, "amenity": "restaurant"}
{"name": "Museumscafé", "lat": 47.3827433, "lon": 8.5357837, "amenity": "restaurant"}
{"name": "Aura 800° Grill", "lat": 47.3686081, "lon": 8.5379948, "amenity": "restaurant"}
{"name": "Bistro am Bach", "lat": 47.3530632, "lon": 8.4378295, "amenity": "restaurant"}
{"name": "Pizza Nesti", "lat": 47.3702618, "lon": 8.6379811, "amenity": "restaurant"}
{"name": "PUTPUTakeaway", "lat": 47.3764992, "lon": 8.5252048, "amenity": "restaurant"}
{"name": "Sanatorium Kilchberg", "lat": 47.327978, "lon": 8.5438561, "amenity": "restaurant"}
{"name": "Dolce Vita", "lat": 47.4201213, "lon": 8.5383051, "amenity": "cafe"}
{"name": "Pfaffhüsli", "lat": 47.3643786, "lon": 8.619741, "amenity": "cafe"}
{"name": "Tropical Bar", "lat": 47.3800581, "lon": 8.5266162, "amenity": "bar"}
{"name": "Spoon", "lat": 47.3716297, "lon": 8.5288036, "amenity": "restaurant"}
{"name": "Restaurant Blumenrain", "lat": 47.3472172, "lon": 8.5729379, "amenity": "restaurant"}
{"name": "SeeBar", "lat": 47.3133596, "lon": 8.5818343, "amenity": "bar"}
{"name": "Bar Lupo", "lat": 47.3742891, "lon": 8.5218301, "amenity": "bar"}
{"name": "La Mirada", "lat": 47.3677107, "lon": 8.5545051, "amenity": "restaurant"}
{"name": "Café Elena", "lat": 47.3781048, "lon": 8.5430318, "amenity": "cafe"}
{"name": "Caipi-Bar", "lat": 47.379245, "lon": 8.5257472, "amenity": "bar"}
{"name": "Kleinwäscherei", "lat": 47.3870148, "lon": 8.5201885, "amenity": "restaurant"}
{"name": "Butegar", "lat": 47.3724559, "lon": 8.523149, "amenity": "restaurant"}
{"name": "Kafi Hardi", "lat": 47.3846414, "lon": 8.509018, "amenity": "cafe"}
{"name": "Simon Says Taste Taiwan", "lat": 47.3787381, "lon": 8.5277431, "amenity": "restaurant"}
{"name": "Alegria", "lat": 47.345271, "lon": 8.533789, "amenity": "restaurant"}
{"name": "Disco Volante", "lat": 47.3806824, "lon": 8.5271354, "amenity": "restaurant"}
{"name": "Café Bar Meierei", "lat": 47.3822549, "lon": 8.550719, "amenity": "cafe"}
{"name": "Restaurant Leonhard", "lat": 47.3772897, "lon": 8.5459039, "amenity": "restaurant"}
{"name": "Deus Ex Machina", "lat": 47.3770428, "lon": 8.5268946, "amenity": "cafe"}
{"name": "Iberia", "lat": 47.3781897, "lon": 8.5086846, "amenity": "restaurant"}
{"name": "Bill's Burger", "lat": 47.3929208, "lon": 8.5120131, "amenity": "restaurant"}
{"name": "RPOS Coffehouse", "lat": 47.3699454, "lon": 8.5090112, "amenity": "cafe"}
{"name": "Bar 45", "lat": 47.3717789, "lon": 8.5382127, "amenity": "bar"}
{"name": "Leo", "lat": 47.3758207, "lon": 8.5382808, "amenity": "restaurant"}
{"name": "Roof Garden", "lat": 47.3759329, "lon": 8.5378026, "amenity": "restaurant"}
{"name": "Hof Kafi", "lat": 47.3921884, "lon": 8.4598517, "amenity": "cafe"}
{"name": "n/a", "lat": 47.3657449, "lon": 8.4976259, "amenity": "cafe"}
{"name": "n/a", "lat": 47.3669087, "lon": 8.4972102, "amenity": "restaurant"}
{"name": "Riviera", "lat": 47.3830089, "lon": 8.5303012, "amenity": "restaurant"}
{"name": "Minimum", "lat": 47.381824, "lon": 8.4954653, "amenity": "restaurant"}
{"name": "Wiesli 30", "lat": 47.354368, "lon": 8.598452, "amenity": "restaurant"}
{"name": "Elmira", "lat": 47.3889195, "lon": 8.5264887, "amenity": "restaurant"}
{"name": "YAMAS", "lat": 47.378705, "lon": 8.5316585, "amenity": "cafe"}
{"name": "Tokyo Express", "lat": 47.3787745, "lon": 8.5336711, "amenity": "restaurant"}
{"name": "Zoocafé", "lat": 47.3842582, "lon": 8.5742046, "amenity": "cafe"}
{"name": "Liyu", "lat": 47.3705203, "lon": 8.516875, "amenity": "restaurant"}
{"name": "Scaletta Kulturraum", "lat": 47.3734013, "lon": 8.5195679, "amenity": "cafe"}
{"name": "Besteas Bar", "lat": 47.3727911, "lon": 8.5281812, "amenity": "cafe"}
{"name": "Mai-Wok", "lat": 47.3707964, "lon": 8.5230471, "amenity": "restaurant"}
{"name": "Fantasy Bar", "lat": 47.370507, "lon": 8.5097905, "amenity": "bar"}
{"name": "Hegifret Kaffeefenster", "lat": 47.3617836, "lon": 8.5612343, "amenity": "cafe"}
{"name": "NachBar", "lat": 47.3670838, "lon": 8.5116016, "amenity": "bar"}
{"name": "Amiamo Caffè", "lat": 47.3751988, "lon": 8.5166128, "amenity": "cafe"}
{"name": "Bar Butter", "lat": 47.3789061, "lon": 8.527821, "amenity": "cafe"}
{"name": "DaPizi", "lat": 47.3812322, "lon": 8.5331802, "amenity": "restaurant"}
{"name": "Hirschli", "lat": 47.3708839, "lon": 8.5463951, "amenity": "restaurant"}
{"name": "Orient World", "lat": 47.3788419, "lon": 8.545135, "amenity": "restaurant"}
{"name": "Napulé", "lat": 47.3375838, "lon": 8.5753433, "amenity": "restaurant"}
{"name": "Juliette", "lat": 47.3665799, "lon": 8.5328048, "amenity": "cafe"}
{"name": "Sapa Canteen", "lat": 47.3800211, "lon": 8.5422229, "amenity": "restaurant"}
{"name": "Loving Lanka", "lat": 47.3802994, "lon": 8.4894491, "amenity": "restaurant"}
{"name": "Brenso", "lat": 47.375571, "lon": 8.5249235, "amenity": "restaurant"}
{"name": "GiGi Sushi Bar", "lat": 47.3105941, "lon": 8.5252335, "amenity": "restaurant"}
{"name": "Piaceri del Sud", "lat": 47.3588477, "lon": 8.5801719, "amenity": "restaurant"}
{"name": "Masal Dosa", "lat": 47.4150211, "lon": 8.5453199, "amenity": "restaurant"}
{"name": "Garde Manger", "lat": 47.3748215, "lon": 8.515557, "amenity": "cafe"}
{"name": "Barteca", "lat": 47.3776158, "lon": 8.5271268, "amenity": "bar"}
{"name": "Oh my Greek!", "lat": 47.3777444, "lon": 8.5269581, "amenity": "restaurant"}
{"name": "8008 See Lounge", "lat": 47.3468389, "lon": 8.5625315, "amenity": "bar"}
{"name": "differente", "lat": 47.3881157, "lon": 8.5390656, "amenity": "restaurant"}
{"name": "Al Paso", "lat": 47.3735122, "lon": 8.5445074, "amenity": "cafe"}
{"name": "Hôtel Bourbon at Turm", "lat": 47.3717106, "lon": 8.5447069, "amenity": "bar"}
{"name": "Täglich Brot", "lat": 47.3607928, "lon": 8.5070461, "amenity": "cafe"}
{"name": "Maverick‘s Secret", "lat": 47.3757707, "lon": 8.5213701, "amenity": "cafe"}
{"name": "roots", "lat": 47.3709497, "lon": 8.5445043, "amenity": "restaurant"}
{"name": "Dr. Zhivago", "lat": 47.3692142, "lon": 8.5364523, "amenity": "bar"}
{"name": "tsuru tsuu noodlebar", "lat": 47.3761906, "lon": 8.5401823, "amenity": "restaurant"}
{"name": "Lunière", "lat": 47.3721352, "lon": 8.540089, "amenity": "restaurant"}
{"name": "MINI Café Bar", "lat": 47.3670768, "lon": 8.5334932, "amenity": "cafe"}
{"name": "Só Tea", "lat": 47.3729577, "lon": 8.5450506, "amenity": "cafe"}
{"name": "Eve's Kitchen", "lat": 47.3987543, "lon": 8.4536239, "amenity": "restaurant"}
{"name": "mi-te", "lat": 47.3791998, "lon": 8.5479282, "amenity": "restaurant"}
{"name": "Mesa Madrid", "lat": 47.3833749, "lon": 8.5431961, "amenity": "restaurant"}
{"name": "Haus am Fluss Asian Food Hall & Bar", "lat": 47.3889262, "lon": 8.5281915, "amenity": "restaurant"}
{"name": "Haus am Fluss", "lat": 47.3888831, "lon": 8.5281704, "amenity": "bar"}
{"name": "Stadtiere", "lat": 47.374129, "lon": 8.5220997, "amenity": "cafe"}
{"name": "OASE", "lat": 47.3682297, "lon": 8.5574355, "amenity": "restaurant"}
{"name": "Hikari", "lat": 47.3709215, "lon": 8.5220385, "amenity": "restaurant"}
{"name": "Shinsen", "lat": 47.3614048, "lon": 8.5213645, "amenity": "restaurant"}
{"name": "Zwllings Bar", "lat": 47.3792121, "lon": 8.5282699, "amenity": "bar"}
{"name": "kafi babar", "lat": 47.3744709, "lon": 8.5297287, "amenity": "cafe"}
{"name": "Bistro Pinto Take Away", "lat": 47.3872577, "lon": 8.540021, "amenity": "restaurant"}
{"name": "Restaurant zum weissen Kreuz", "lat": 47.3692127, "lon": 8.544265, "amenity": "restaurant"}
{"name": "Resident Café & Eventlocation", "lat": 47.3627415, "lon": 8.548895, "amenity": "cafe"}
{"name": "Khouris", "lat": 47.3800736, "lon": 8.5289015, "amenity": "restaurant"}
{"name": "Micasa Café", "lat": 47.4014305, "lon": 8.6034276, "amenity": "cafe"}
{"name": "Ristorante Italia", "lat": 47.3764793, "lon": 8.5291319, "amenity": "restaurant"}
{"name": "Thai Bogie", "lat": 47.417255, "lon": 8.5393882, "amenity": "restaurant"}
{"name": "roots kitchen", "lat": 47.3923728, "lon": 8.5104083, "amenity": "restaurant"}
{"name": "Apuliami", "lat": 47.3959696, "lon": 8.6093976, "amenity": "restaurant"}
{"name": "Le Petit Marais", "lat": 47.3895636, "lon": 8.4946235, "amenity": "cafe"}
{"name": "Wirtschaft zum Transit", "lat": 47.3923769, "lon": 8.4984989, "amenity": "restaurant"}
{"name": "Charlatan Restodisco", "lat": 47.3798514, "lon": 8.5284862, "amenity": "restaurant"}
{"name": "Sushi Dou Zollikerberg", "lat": 47.3507708, "lon": 8.6012444, "amenity": "restaurant"}
{"name": "Hallo Beirut", "lat": 47.4094948, "lon": 8.545125, "amenity": "restaurant"}
{"name": "L'Adoro", "lat": 47.4298836, "lon": 8.5448715, "amenity": "restaurant"}
{"name": "Casa Aurelio", "lat": 47.3831405, "lon": 8.5297441, "amenity": "restaurant"}
{"name": "Restaurant Dreieck", "lat": 47.3641277, "lon": 8.5102339, "amenity": "restaurant"}
{"name": "Chez Nous", "lat": 47.3934151, "lon": 8.5289089, "amenity": "cafe"}
{"name": "Restaurant Lumar", "lat": 47.4021509, "lon": 8.4976259, "amenity": "restaurant"}
{"name": "ViCAFE", "lat": 47.388095, "lon": 8.5016174, "amenity": "cafe"}
{"name": "ViCafe", "lat": 47.3935134, "lon": 8.5290605, "amenity": "cafe"}
{"name": "Chicago 1928", "lat": 47.4119546, "lon": 8.5396268, "amenity": "restaurant"}
{"name": "Ameo", "lat": 47.3716984, "lon": 8.5197963, "amenity": "restaurant"}
{"name": "Da Bella Italia", "lat": 47.4232082, "lon": 8.4994145, "amenity": "restaurant"}
{"name": "Seela", "lat": 47.4177512, "lon": 8.5457503, "amenity": "bar"}
{"name": "JIAOZI", "lat": 47.3823411, "lon": 8.5300095, "amenity": "restaurant"}
{"name": "Nordstern", "lat": 47.4284096, "lon": 8.546636, "amenity": "restaurant"}
{"name": "Maison 33", "lat": 47.3572728, "lon": 8.5526229, "amenity": "cafe"}
{"name": "Anny-K", "lat": 47.3773006, "lon": 8.5165338, "amenity": "cafe"}
{"name": "Kailash Parbat", "lat": 47.3679576, "lon": 8.5370912, "amenity": "restaurant"}
{"name": "Lalin", "lat": 47.3741964, "lon": 8.5163138, "amenity": "restaurant"}
{"name": "Angry Chicken", "lat": 47.3887574, "lon": 8.5223451, "amenity": "restaurant"}
{"name": "Robin's coffee", "lat": 47.3757594, "lon": 8.5444649, "amenity": "bar"}
{"name": "Bimbi's Take Away", "lat": 47.3825112, "lon": 8.5414846, "amenity": "restaurant"}
{"name": "Nude", "lat": 47.3886566, "lon": 8.5302947, "amenity": "cafe"}
{"name": "Roter Delfin", "lat": 47.3756628, "lon": 8.5249834, "amenity": "bar"}
{"name": "Ristorante Passione Italiana", "lat": 47.3872401, "lon": 8.4877586, "amenity": "restaurant"}
{"name": "Lo-Mo", "lat": 47.3133167, "lon": 8.5259118, "amenity": "restaurant"}
{"name": "Casa Alegria", "lat": 47.4337714, "lon": 8.566333, "amenity": "restaurant"}
{"name": "Kaisin", "lat": 47.3639582, "lon": 8.5478294, "amenity": "restaurant"}
{"name": "Pho Bao", "lat": 47.4093363, "lon": 8.5470441, "amenity": "restaurant"}
{"name": "LOKAL", "lat": 47.393331, "lon": 8.5308112, "amenity": "cafe"}
{"name": "Bäckerei Hausammann", "lat": 47.3376719, "lon": 8.5756974, "amenity": "cafe"}
{"name": "Cake Friends", "lat": 47.3586397, "lon": 8.5231935, "amenity": "cafe"}
{"name": "Restaurant Soodhof", "lat": 47.3197715, "lon": 8.5217019, "amenity": "restaurant"}
{"name": "Bang On", "lat": 47.3740811, "lon": 8.5319478, "amenity": "cafe"}
{"name": "Altstadt Bar", "lat": 47.369356, "lon": 8.5440925, "amenity": "bar"}
{"name": "Da Vinci", "lat": 47.4182416, "lon": 8.5555132, "amenity": "restaurant"}
{"name": "New Point Shisha", "lat": 47.4142024, "lon": 8.5453131, "amenity": "bar"}
{"name": "Jao Praya Bar", "lat": 47.4092387, "lon": 8.547463, "amenity": "bar"}
{"name": "ExKinoBar", "lat": 47.4089084, "lon": 8.5454686, "amenity": "bar"}
{"name": "Bar Laguna", "lat": 47.417732, "lon": 8.5469095, "amenity": "bar"}
{"name": "Ahoi!", "lat": 47.3888734, "lon": 8.5175971, "amenity": "cafe"}
{"name": "Po`di più Bistro Sihlhof", "lat": 47.3766897, "lon": 8.5339388, "amenity": "cafe"}
{"name": "Nebu", "lat": 47.3700576, "lon": 8.5094491, "amenity": "bar"}
{"name": "LÈ Cuisine", "lat": 47.3738604, "lon": 8.5279624, "amenity": "restaurant"}
{"name": "Kantine F+F", "lat": 47.3818434, "lon": 8.4927361, "amenity": "restaurant"}
{"name": "Spuntino", "lat": 47.3546706, "lon": 8.5576663, "amenity": "cafe"}
{"name": "Han Kitchen", "lat": 47.4096572, "lon": 8.5424482, "amenity": "restaurant"}
{"name": "Stadthaus", "lat": 47.31321, "lon": 8.5279278, "amenity": "restaurant"}
{"name": "Kult", "lat": 47.4145606, "lon": 8.5468379, "amenity": "bar"}
{"name": "Balkan", "lat": 47.4143542, "lon": 8.5468294, "amenity": "bar"}
{"name": "BJK Çarsi", "lat": 47.4142431, "lon": 8.5468225, "amenity": "cafe"}
{"name": "Lia Siam", "lat": 47.3973065, "lon": 8.5409593, "amenity": "restaurant"}
{"name": "Atomix", "lat": 47.3678873, "lon": 8.536188, "amenity": "cafe"}
{"name": "Eckaffee", "lat": 47.4115595, "lon": 8.5258747, "amenity": "cafe"}
{"name": "Glückbar Café", "lat": 47.4136088, "lon": 8.5201724, "amenity": "cafe"}
{"name": "Marfa", "lat": 47.3620459, "lon": 8.5609414, "amenity": "cafe"}
{"name": "Archimedes", "lat": 47.3773873, "lon": 8.5532169, "amenity": "restaurant"}
{"name": "fink's", "lat": 47.3817769, "lon": 8.5339618, "amenity": "restaurant"}
{"name": "n/a", "lat": 47.4024304, "lon": 8.6124087, "amenity": "cafe"}
{"name": "Jakobs Bistro", "lat": 47.3067237, "lon": 8.5535707, "amenity": "cafe"}
{"name": "Fabio's Restaurant", "lat": 47.3163257, "lon": 8.5977611, "amenity": "restaurant"}
{"name": "La Regina", "lat": 47.4023349, "lon": 8.5525374, "amenity": "restaurant"}
{"name": "Beke", "lat": 47.3748793, "lon": 8.5149342, "amenity": "restaurant"}
{"name": "Kafi Mühli", "lat": 47.3600451, "lon": 8.573344, "amenity": "cafe"}
{"name": "Cigar Bar", "lat": 47.3712331, "lon": 8.5416559, "amenity": "bar"}
{"name": "Kafi Carl", "lat": 47.3184855, "lon": 8.5806355, "amenity": "cafe"}
{"name": "Serendipity Viet Food", "lat": 47.4231318, "lon": 8.499721, "amenity": "restaurant"}
{"name": "Izabela's Kitchen", "lat": 47.3291584, "lon": 8.5085518, "amenity": "restaurant"}
{"name": "Rex Musenhof", "lat": 47.3401024, "lon": 8.5297448, "amenity": "bar"}
{"name": "Oceano", "lat": 47.3978184, "lon": 8.4502523, "amenity": "restaurant"}
{"name": "Enjoy", "lat": 47.3993917, "lon": 8.4589571, "amenity": "restaurant"}
{"name": "La Taqueria", "lat": 47.3886212, "lon": 8.486242, "amenity": "restaurant"}
{"name": "Piazza 106", "lat": 47.3931061, "lon": 8.4859908, "amenity": "restaurant"}
{"name": "Edi", "lat": 47.3886532, "lon": 8.5392721, "amenity": "restaurant"}
{"name": "Mojo Bar", "lat": 47.4108813, "lon": 8.5465265, "amenity": "bar"}
{"name": "Commercial - The Project Bahnhofstrasse", "lat": 47.3747212, "lon": 8.5384948, "amenity": "cafe"}
{"name": "Arb & Art", "lat": 47.4308348, "lon": 8.5590179, "amenity": "cafe"}
{"name": "Knödl", "lat": 47.3791622, "lon": 8.5246394, "amenity": "restaurant"}
{"name": "Yilong Asia", "lat": 47.3798335, "lon": 8.5250002, "amenity": "restaurant"}
{"name": "Cho Cho Momo", "lat": 47.4215944, "lon": 8.501763, "amenity": "restaurant"}
{"name": "Latte Stories", "lat": 47.4146839, "lon": 8.5548323, "amenity": "cafe"}
{"name": "Intermezzo", "lat": 47.3837329, "lon": 8.4925606, "amenity": "restaurant"}
{"name": "Urbansurf Zurich", "lat": 47.3850131, "lon": 8.5200351, "amenity": "restaurant"}
{"name": "Klopstock Cafe Bar", "lat": 47.3619787, "lon": 8.5258021, "amenity": "cafe"}
{"name": "CREAM Coffee Bar Food", "lat": 47.387377, "lon": 8.5233098, "amenity": "cafe"}
{"name": "Ooki Temporary", "lat": 47.3863109, "lon": 8.5169496, "amenity": "restaurant"}
{"name": "n/a", "lat": 47.4178386, "lon": 8.5584998, "amenity": "bar"}
{"name": "Lalere", "lat": 47.3694019, "lon": 8.5205252, "amenity": "cafe"}
{"name": "TwoMoons Geekbar", "lat": 47.3956808, "lon": 8.597129, "amenity": "cafe"}
{"name": "Neri", "lat": 47.3922718, "lon": 8.5315976, "amenity": "restaurant"}
{"name": "Restaurant Feldhof", "lat": 47.3639956, "lon": 8.6195756, "amenity": "restaurant"}
{"name": "Luna Stella", "lat": 47.354558, "lon": 8.4366599, "amenity": "restaurant"}
{"name": "Sapori Antichi", "lat": 47.3532812, "lon": 8.4371027, "amenity": "restaurant"}
{"name": "n/a", "lat": 47.3708675, "lon": 8.5345268, "amenity": "cafe"}
{"name": "Spoon Thai Kitchen", "lat": 47.3632634, "lon": 8.5333524, "amenity": "restaurant"}
{"name": "Tara", "lat": 47.4135633, "lon": 8.6198951, "amenity": "restaurant"}
{"name": "Amigos Tapas", "lat": 47.37359, "lon": 8.5441354, "amenity": "restaurant"}
{"name": "Weera Pura", "lat": 47.3571792, "lon": 8.5531184, "amenity": "restaurant"}
{"name": "Vitabella", "lat": 47.4175762, "lon": 8.5551599, "amenity": "restaurant"}
{"name": "ALBA", "lat": 47.3686243, "lon": 8.5009579, "amenity": "restaurant"}
{"name": "Méli", "lat": 47.4270692, "lon": 8.5461707, "amenity": "cafe"}
{"name": "Mikuriya", "lat": 47.3728228, "lon": 8.5733976, "amenity": "restaurant"}
{"name": "Canvas Bar & Lounge", "lat": 47.3727222, "lon": 8.573421, "amenity": "bar"}
{"name": "Saltz", "lat": 47.3727477, "lon": 8.5729014, "amenity": "restaurant"}
{"name": "The Restaurant", "lat": 47.3727248, "lon": 8.5727507, "amenity": "restaurant"}
{"name": "Widder Restaurant", "lat": 47.3722677, "lon": 8.539968, "amenity": "restaurant"}
{"name": "Flavour Kitchen", "lat": 47.3719091, "lon": 8.5269863, "amenity": "restaurant"}
{"name": "Santa Lucia", "lat": 47.388287, "lon": 8.4848405, "amenity": "restaurant"}
{"name": "Happy Panda", "lat": 47.3777441, "lon": 8.526895, "amenity": "restaurant"}
{"name": "Razzia Restaurant", "lat": 47.3608124, "lon": 8.5516525, "amenity": "restaurant"}
{"name": "Stettbacher", "lat": 47.3959924, "lon": 8.5986717, "amenity": "cafe"}
{"name": "Tsugi", "lat": 47.3768492, "lon": 8.526866, "amenity": "cafe"}
{"name": "The South Indian", "lat": 47.3741439, "lon": 8.5441292, "amenity": "restaurant"}
